station,valid,metar
LAF,2021-10-07 00:00,KLAF 070000Z AUTO 07005KT 10SM BKN046 21/19 A3013 RMK T02100190 MADISHF
LAF,2021-10-07 00:05,KLAF 070005Z AUTO 07005KT 10SM BKN046 OVC055 21/19 A3013 RMK T02100190 MADISHF
LAF,2021-10-07 00:10,KLAF 070010Z AUTO 08007KT 10SM BKN048 OVC055 21/19 A3014 RMK T02100190 MADISHF
LAF,2021-10-07 00:15,KLAF 070015Z AUTO 08008KT 9SM BKN045 OVC050 21/19 A3014 RMK T02100190 MADISHF
LAF,2021-10-07 00:20,KLAF 070020Z AUTO 08007KT 9SM BKN045 OVC055 21/19 A3014 RMK T02100190 MADISHF
LAF,2021-10-07 00:25,KLAF 070025Z AUTO 09005KT 8SM -RA BKN046 OVC060 21/19 A3014 RMK T02100190 MADISHF
LAF,2021-10-07 00:30,KLAF 070030Z AUTO 08005KT 7SM -RA SCT043 BKN055 OVC110 21/19 A3014 RMK T02100190 MADISHF
LAF,2021-10-07 00:35,KLAF 070035Z AUTO 07007KT 6SM -RA BR SCT043 BKN055 OVC110 20/19 A3014 RMK T02000190 MADISHF
LAF,2021-10-07 00:40,KLAF 070040Z AUTO 07008KT 6SM -RA BR SCT043 SCT055 OVC110 20/19 A3014 RMK T02000190 MADISHF
LAF,2021-10-07 00:45,KLAF 070045Z AUTO 06008KT 6SM -RA BR FEW043 SCT060 BKN110 20/19 A3014 RMK P0000 T02000190 MADISHF
LAF,2021-10-07 00:50,KLAF 070050Z AUTO 07008KT 7SM -RA FEW043 FEW075 BKN110 20/19 A3014 RMK P0000 T02000190 MADISHF
LAF,2021-10-07 00:54,KLAF 070054Z AUTO 07008KT 8SM -RA FEW043 FEW075 BKN110 20/19 A3015 RMK AO2 RAE2358B23 SLP206 P0001 T02000194
LAF,2021-10-07 00:55,KLAF 070055Z AUTO 06008KT 8SM -RA FEW075 BKN110 20/19 A3014 RMK T02000190 MADISHF
LAF,2021-10-07 01:00,KLAF 070100Z AUTO 06008KT 8SM FEW079 OVC110 20/19 A3014 RMK T02000190 MADISHF
LAF,2021-10-07 01:05,KLAF 070105Z AUTO 06007KT 7SM FEW075 OVC110 20/19 A3014 RMK T02000190 MADISHF
LAF,2021-10-07 01:10,KLAF 070110Z AUTO 07007KT 6SM BR FEW079 OVC120 20/19 A3014 RMK T02000190 MADISHF
LAF,2021-10-07 01:15,KLAF 070115Z AUTO 07007KT 6SM BR FEW079 OVC110 20/19 A3014 RMK T02000190 MADISHF
LAF,2021-10-07 01:20,KLAF 070120Z AUTO 07007KT 6SM BR FEW079 OVC110 20/19 A3014 RMK T02000190 MADISHF
LAF,2021-10-07 01:25,KLAF 070125Z AUTO 07007KT 6SM BR OVC110 20/19 A3014 RMK T02000190 MADISHF
LAF,2021-10-07 01:30,KLAF 070130Z AUTO 07007KT 6SM BR FEW008 OVC110 20/19 A3013 RMK T02000190 MADISHF
LAF,2021-10-07 01:34,KLAF 070134Z AUTO 07006KT 6SM BR FEW008 OVC110 20/19 A3015 RMK AO2 RAE0059 P0000 T02000194
LAF,2021-10-07 01:35,KLAF 070135Z AUTO 07005KT 6SM BR FEW008 OVC110 20/19 A3014 RMK T02000190 MADISHF
LAF,2021-10-07 01:40,KLAF 070140Z AUTO 08005KT 6SM BR SCT008 OVC110 20/19 A3014 RMK T02000190 MADISHF
LAF,2021-10-07 01:50,KLAF 070150Z AUTO 07005KT 6SM BR BKN008 OVC120 20/19 A3014 RMK T02000190 MADISHF
LAF,2021-10-07 01:54,KLAF 070154Z AUTO 07006KT 6SM BR BKN008 OVC120 20/19 A3015 RMK AO2 RAE0059 SLP205 P0000 T02000194
LAF,2021-10-07 01:55,KLAF 070155Z AUTO 07005KT 6SM BR SCT008 OVC120 20/19 A3014 RMK T02000190 MADISHF
LAF,2021-10-07 02:00,KLAF 070200Z AUTO 06005KT 6SM BR SCT008 OVC110 20/19 A3013 RMK T02000190 MADISHF
LAF,2021-10-07 02:01,KLAF 070201Z AUTO 06005KT 6SM BR SCT008 OVC120 20/19 A3014 RMK AO2 T02000194
LAF,2021-10-07 02:05,KLAF 070205Z AUTO 06004KT 6SM BR SCT008 BKN110 19/19 A3013 RMK T01900190 MADISHF
LAF,2021-10-07 02:10,KLAF 070210Z AUTO 06005KT 6SM BR FEW008 BKN120 19/19 A3013 RMK T01900190 MADISHF
LAF,2021-10-07 02:15,KLAF 070215Z AUTO 07005KT 6SM BR FEW008 SCT110 19/19 A3013 RMK T01900190 MADISHF
LAF,2021-10-07 02:20,KLAF 070220Z AUTO 07005KT 6SM BR FEW110 19/19 A3013 RMK T01900190 MADISHF
LAF,2021-10-07 02:25,KLAF 070225Z AUTO 07005KT 6SM BR FEW110 19/19 A3013 RMK T01900190 MADISHF
LAF,2021-10-07 02:30,KLAF 070230Z AUTO 07005KT 6SM BR FEW008 19/19 A3013 RMK T01900190 MADISHF
LAF,2021-10-07 02:35,KLAF 070235Z AUTO 07005KT 5SM BR FEW008 19/19 A3013 RMK T01900190 MADISHF
LAF,2021-10-07 02:40,KLAF 070240Z AUTO 06005KT 5SM BR FEW007 19/19 A3013 RMK T01900190 MADISHF
LAF,2021-10-07 02:45,KLAF 070245Z AUTO 07005KT 5SM BR FEW007 19/19 A3013 RMK T01900190 MADISHF
LAF,2021-10-07 02:50,KLAF 070250Z AUTO 07005KT 5SM BR FEW007 19/19 A3014 RMK T01900190 MADISHF
LAF,2021-10-07 02:54,KLAF 070254Z AUTO 07006KT 5SM BR FEW007 19/19 A3015 RMK AO2 LTG DSNT SE SLP205 60001 T01940189 58001
LAF,2021-10-07 02:55,KLAF 070255Z AUTO 07005KT 5SM BR FEW007 19/19 A3013 RMK T01900190  LTG DSNT SE! MADISHF
LAF,2021-10-07 03:00,KLAF 070300Z AUTO 06005KT 5SM BR FEW007 19/19 A3013 RMK T01900190  LTG DSNT SE! MADISHF
LAF,2021-10-07 03:05,KLAF 070305Z AUTO 06005KT 5SM BR FEW007 19/19 A3013 RMK T01900190  LTG DSNT SE! MADISHF
LAF,2021-10-07 03:10,KLAF 070310Z AUTO 06005KT 5SM BR FEW007 FEW065 19/19 A3014 RMK T01900190  LTG DSNT SE! MADISHF
LAF,2021-10-07 03:15,KLAF 070315Z AUTO 07005KT 5SM BR FEW065 FEW110 19/19 A3014 RMK T01900190  LTG DSNT SE! MADISHF
LAF,2021-10-07 03:20,KLAF 070320Z AUTO 06005KT 5SM BR SCT060 SCT110 19/19 A3014 RMK T01900190  LTG DSNT SE! MADISHF
LAF,2021-10-07 03:25,KLAF 070325Z AUTO 06005KT 5SM BR SCT060 19/19 A3013 RMK T01900190 MADISHF
LAF,2021-10-07 03:30,KLAF 070330Z AUTO 06005KT 5SM BR SCT060 19/19 A3013 RMK T01900190 MADISHF
LAF,2021-10-07 03:35,KLAF 070335Z AUTO 06005KT 5SM BR SCT060 19/19 A3013 RMK T01900190 MADISHF
LAF,2021-10-07 03:40,KLAF 070340Z AUTO 06007KT 5SM BR SCT060 19/19 A3013 RMK T01900190 MADISHF
LAF,2021-10-07 03:45,KLAF 070345Z AUTO 07005KT 5SM BR FEW055 SCT079 21/19 A3013 RMK T02100190 MADISHF
LAF,2021-10-07 03:50,KLAF 070350Z AUTO 06005KT 5SM BR FEW055 FEW079 19/19 A3013 RMK T01900190 MADISHF
LAF,2021-10-07 03:54,KLAF 070354Z AUTO 07005KT 5SM BR FEW033 FEW055 19/19 A3014 RMK AO2 SLP203 T01940189
LAF,2021-10-07 03:55,KLAF 070355Z AUTO 07005KT 5SM BR FEW033 FEW055 19/19 A3013 RMK T01900190 MADISHF
LAF,2021-10-07 04:00,KLAF 070400Z AUTO 07005KT 5SM BR FEW033 FEW100 19/19 A3013 RMK T01900190 MADISHF
LAF,2021-10-07 04:05,KLAF 070405Z AUTO 08007KT 5SM BR FEW033 FEW100 19/19 A3013 RMK T01900190 MADISHF
LAF,2021-10-07 04:10,KLAF 070410Z AUTO 09005KT 5SM BR FEW021 SCT033 19/19 A3013 RMK T01900190 MADISHF
LAF,2021-10-07 04:15,KLAF 070415Z AUTO 08007KT 5SM BR FEW013 SCT021 SCT033 19/19 A3013 RMK T01900190 MADISHF
LAF,2021-10-07 04:20,KLAF 070420Z AUTO 09008KT 5SM BR FEW015 FEW022 FEW033 19/19 A3013 RMK T01900190 MADISHF
LAF,2021-10-07 04:25,KLAF 070425Z AUTO 08008KT 5SM -RA BR FEW012 FEW022 SCT095 19/19 A3012 RMK T01900190 MADISHF
LAF,2021-10-07 04:30,KLAF 070430Z AUTO 09008KT 5SM -RA BR FEW022 19/19 A3012 RMK T01900190 MADISHF
LAF,2021-10-07 04:35,KLAF 070435Z AUTO 09008KT 5SM -RA BR FEW022 19/19 A3012 RMK T01900190 MADISHF
LAF,2021-10-07 04:40,KLAF 070440Z AUTO 09007KT 5SM -RA BR FEW100 19/19 A3012 RMK T01900190 MADISHF
LAF,2021-10-07 04:45,KLAF 070445Z AUTO 08008KT 5SM -RA BR FEW100 SCT120 19/19 A3012 RMK T01900190 MADISHF
LAF,2021-10-07 04:50,KLAF 070450Z AUTO 08007KT 5SM -RA BR FEW100 SCT120 19/19 A3012 RMK P0000 T01900190 MADISHF
LAF,2021-10-07 04:54,KLAF 070454Z AUTO 09007KT 5SM -RA BR SCT110 19/19 A3013 RMK AO2 RAB22 SLP199 P0001 T01940189 402280172
LAF,2021-10-07 04:55,KLAF 070455Z AUTO 09007KT 5SM -RA BR BKN110 19/19 A3012 RMK T01900190 MADISHF
LAF,2021-10-07 05:00,KLAF 070500Z AUTO 09007KT 5SM -RA BR BKN110 19/19 A3012 RMK T01900190 MADISHF
LAF,2021-10-07 05:05,KLAF 070505Z AUTO 08005KT 5SM -RA BR BKN110 19/19 A3012 RMK P0000 T01900190 MADISHF
LAF,2021-10-07 05:10,KLAF 070510Z AUTO 07005KT 5SM -RA BR BKN110 19/19 A3012 RMK P0000 T01900190 MADISHF
LAF,2021-10-07 05:15,KLAF 070515Z AUTO 07005KT 5SM -RA BR OVC110 19/19 A3012 RMK P0000 T01900190 MADISHF
LAF,2021-10-07 05:20,KLAF 070520Z AUTO 07005KT 5SM -RA BR BKN110 19/19 A3012 RMK P0000 T01900190 MADISHF
LAF,2021-10-07 05:25,KLAF 070525Z AUTO 07005KT 5SM BR BKN110 19/19 A3012 RMK P0000 T01900190 MADISHF
LAF,2021-10-07 05:30,KLAF 070530Z AUTO 07007KT 5SM BR FEW006 BKN110 19/19 A3012 RMK P0000 T01900190 MADISHF
LAF,2021-10-07 05:33,KLAF 070533Z AUTO 07007KT 5SM BR FEW006 BKN110 19/19 A3012 RMK AO2 RAE24 P0001 T01940189
LAF,2021-10-07 05:35,KLAF 070535Z AUTO 07005KT 5SM BR FEW006 BKN110 19/19 A3012 RMK P0000 T01900190 MADISHF
LAF,2021-10-07 05:40,KLAF 070540Z AUTO 06005KT 5SM BR FEW006 BKN110 19/19 A3011 RMK P0000 T01900190 MADISHF
LAF,2021-10-07 05:45,KLAF 070545Z AUTO 07007KT 5SM BR FEW006 BKN110 19/19 A3011 RMK P0000 T01900190 MADISHF
LAF,2021-10-07 05:50,KLAF 070550Z AUTO 07005KT 5SM BR FEW006 BKN110 19/19 A3011 RMK P0000 T01900190 MADISHF
LAF,2021-10-07 05:54,KLAF 070554Z AUTO 08006KT 5SM BR FEW006 BKN110 19/19 A3011 RMK AO2 RAE24 SLP193 P0001 60003 T01940189 10206 20194 58011
LAF,2021-10-07 05:55,KLAF 070555Z AUTO 08005KT 5SM BR FEW006 BKN110 19/19 A3011 RMK T01900190 MADISHF
LAF,2021-10-07 06:00,KLAF 070600Z AUTO 08007KT 5SM BR FEW006 BKN110 19/19 A3011 RMK T01900190 MADISHF
LAF,2021-10-07 06:05,KLAF 070605Z AUTO 08007KT 5SM BR FEW006 BKN110 19/19 A3011 RMK T01900190 MADISHF
LAF,2021-10-07 06:10,KLAF 070610Z AUTO 07005KT 5SM BR FEW006 BKN120 19/19 A3011 RMK T01900190 MADISHF
LAF,2021-10-07 06:15,KLAF 070615Z AUTO 07005KT 5SM BR BKN110 19/19 A3011 RMK T01900190 MADISHF
LAF,2021-10-07 06:20,KLAF 070620Z AUTO 07005KT 5SM BR FEW007 BKN110 19/19 A3011 RMK T01900190 MADISHF
LAF,2021-10-07 06:25,KLAF 070625Z AUTO 07007KT 6SM BR SCT007 BKN110 19/19 A3011 RMK T01900190 MADISHF
LAF,2021-10-07 06:30,KLAF 070630Z AUTO 08007KT 6SM BR SCT007 BKN033 OVC110 19/19 A3011 RMK T01900190 MADISHF
LAF,2021-10-07 06:35,KLAF 070635Z AUTO 07008KT 6SM BR SCT007 BKN033 OVC110 19/19 A3011 RMK T01900190 MADISHF
LAF,2021-10-07 06:40,KLAF 070640Z AUTO 06007KT 6SM BR BKN007 BKN033 OVC110 19/19 A3011 RMK T01900190 MADISHF
LAF,2021-10-07 06:45,KLAF 070645Z AUTO 06007KT 5SM BR BKN007 BKN033 OVC110 19/19 A3011 RMK T01900190 MADISHF
LAF,2021-10-07 06:46,KLAF 070646Z AUTO 06007KT 5SM BR BKN007 BKN034 OVC110 19/19 A3011 RMK AO2 T01940189
LAF,2021-10-07 06:50,KLAF 070650Z AUTO 07007KT 5SM BR BKN007 BKN033 OVC120 19/19 A3011 RMK T01900190 MADISHF
LAF,2021-10-07 06:54,KLAF 070654Z AUTO 06007KT 5SM BR BKN007 BKN034 OVC120 19/19 A3011 RMK AO2 SLP193 T01890189
LAF,2021-10-07 06:55,KLAF 070655Z AUTO 06007KT 5SM BR BKN007 BKN033 OVC120 19/19 A3011 RMK T01900190 MADISHF
LAF,2021-10-07 07:00,KLAF 070700Z AUTO 06005KT 5SM BR BKN007 BKN033 OVC110 19/19 A3011 RMK T01900190 CIG 5V10  MADISHF
LAF,2021-10-07 07:05,KLAF 070705Z AUTO 06007KT 5SM BR BKN007 BKN036 OVC110 19/19 A3011 RMK T01900190 CIG 5V10  MADISHF
LAF,2021-10-07 07:10,KLAF 070710Z AUTO 06005KT 5SM BR BKN007 BKN036 OVC110 19/19 A3011 RMK T01900190 CIG 5V10  MADISHF
LAF,2021-10-07 07:15,KLAF 070715Z AUTO 07008KT 5SM BR BKN007 OVC110 19/19 A3011 RMK T01900190 CIG 5V10  MADISHF
LAF,2021-10-07 07:20,KLAF 070720Z AUTO 06007KT 5SM BR BKN007 OVC110 19/18 A3011 RMK T01900180 CIG 5V10  MADISHF
LAF,2021-10-07 07:25,KLAF 070725Z AUTO 07005KT 5SM BR BKN007 OVC110 19/18 A3011 RMK T01900180 CIG 5V10  MADISHF
LAF,2021-10-07 07:30,KLAF 070730Z AUTO 06005KT 5SM BR BKN007 OVC110 19/18 A3010 RMK T01900180  LTG DSNT SE! MADISHF
LAF,2021-10-07 07:35,KLAF 070735Z AUTO 06005KT 5SM BR BKN007 OVC110 19/18 A3010 RMK T01900180  LTG DSNT SE AND S! MADISHF
LAF,2021-10-07 07:40,KLAF 070740Z AUTO 07005KT 5SM BR BKN007 OVC110 19/18 A3011 RMK T01900180  LTG DSNT SE AND S! MADISHF
LAF,2021-10-07 07:45,KLAF 070745Z AUTO 08007KT 5SM BR BKN007 OVC110 19/18 A3011 RMK T01900180  LTG DSNT S! MADISHF
LAF,2021-10-07 07:50,KLAF 070750Z AUTO 07008KT 5SM BR BKN007 OVC100 19/18 A3011 RMK T01900180  LTG DSNT S! MADISHF
LAF,2021-10-07 07:54,KLAF 070754Z AUTO 07008KT 5SM BR BKN007 OVC100 19/18 A3010 RMK AO2 SLP191 T01890183
LAF,2021-10-07 07:55,KLAF 070755Z AUTO 06007KT 5SM BR BKN007 OVC100 19/18 A3010 RMK T01900180 MADISHF
LAF,2021-10-07 08:00,KLAF 070800Z AUTO 07005KT 5SM BR BKN007 OVC100 19/18 A3010 RMK T01900180 MADISHF
LAF,2021-10-07 08:05,KLAF 070805Z AUTO 08007KT 5SM BR BKN007 OVC100 19/18 A3010 RMK T01900180  LTG DSNT S! MADISHF
LAF,2021-10-07 08:10,KLAF 070810Z AUTO 08005KT 5SM -RA BR BKN007 BKN022 OVC100 19/18 A3010 RMK T01900180 CIG 6V10  MADISHF
LAF,2021-10-07 08:15,KLAF 070815Z AUTO 12004KT 3SM -RA BR BKN007 BKN022 OVC100 19/18 A3010 RMK P0005 T01900180 CIG 6V12  MADISHF
LAF,2021-10-07 08:20,KLAF 070820Z AUTO 11005KT 2 1/2SM +RA BR BKN007 BKN022 OVC100 19/19 A3011 RMK P0007 T01900190 CIG 5V12  MADISHF
LAF,2021-10-07 08:24,KLAF 070824Z AUTO 00000KT 2 1/2SM RA BR BKN007 BKN022 OVC100 19/19 A3010 RMK AO2 RAB06 CIG 004V012 P0009 T01890189
LAF,2021-10-07 08:25,KLAF 070825Z AUTO 00000KT 2 1/2SM RA BR BKN007 BKN022 OVC100 19/19 A3010 RMK P0009 T01900190 CIG 4V12  MADISHF
LAF,2021-10-07 08:29,KLAF 070829Z AUTO 00000KT 3SM TSRA BR BKN007 BKN022 OVC100 19/19 A3010 RMK AO2 RAB06 TSB27 P0010 T01890189
LAF,2021-10-07 08:30,KLAF 070830Z AUTO 00000KT 3SM RA BR SCT007 BKN011 OVC100 19/19 A3010 RMK P0010 T01900190 MADISHF
LAF,2021-10-07 08:35,KLAF 070835Z AUTO 09005KT 3SM RA BR BKN007 BKN025 OVC110 19/19 A3010 RMK P0010 T01900190  LTG DSNT N! MADISHF
LAF,2021-10-07 08:40,KLAF 070840Z AUTO 07005KT 3SM RA BR SCT008 BKN027 OVC110 19/19 A3009 RMK P0012 T01900190  LTG DSNT N! MADISHF
LAF,2021-10-07 08:41,KLAF 070841Z AUTO 08005KT 3SM TSRA BR SCT008 BKN090 OVC110 19/19 A3009 RMK AO2 LTG DSNT N RAB06 TSB27 P0013 T01890189
LAF,2021-10-07 08:45,KLAF 070845Z AUTO 08007KT 3SM RA BR SCT008 BKN095 OVC110 19/19 A3009 RMK P0015 T01900190  LTG DSNT N! MADISHF
LAF,2021-10-07 08:50,KLAF 070850Z AUTO 08008KT 3SM RA BR FEW008 BKN095 OVC110 19/19 A3009 RMK P0015 T01900190 MADISHF
LAF,2021-10-07 08:54,KLAF 070854Z AUTO 07007KT 3SM RA BR FEW011 BKN095 OVC110 19/19 A3009 RMK AO2 RAB06 TSB27E42 SLP184 P0017 60017 T01890189 58008
LAF,2021-10-07 08:55,KLAF 070855Z AUTO 07007KT 3SM RA BR FEW011 OVC100 19/19 A3009 RMK T01900190 MADISHF
LAF,2021-10-07 09:00,KLAF 070900Z AUTO 08007KT 3SM RA BR BKN100 OVC110 19/19 A3009 RMK P0000 T01900190 MADISHF
LAF,2021-10-07 09:05,KLAF 070905Z AUTO 08007KT 4SM -RA BR BKN100 OVC110 19/19 A3009 RMK P0000 T01900190 MADISHF
LAF,2021-10-07 09:10,KLAF 070910Z AUTO 08005KT 5SM -RA BR FEW012 BKN100 OVC110 19/19 A3009 RMK P0000 T01900190 MADISHF
LAF,2021-10-07 09:15,KLAF 070915Z AUTO 09005KT 5SM -RA BR SCT012 OVC100 19/19 A3010 RMK P0000 T01900190  LTG DSNT W! MADISHF
LAF,2021-10-07 09:20,KLAF 070920Z AUTO 11005KT 5SM BR BKN009 OVC100 19/19 A3010 RMK P0000 T01900190 CIG 8V13  MADISHF
LAF,2021-10-07 09:22,KLAF 070922Z AUTO 11004KT 5SM BR BKN010 OVC110 19/19 A3010 RMK AO2 LTG DSNT W RAE19 CIG 008V013 P0001 T01890189
LAF,2021-10-07 09:25,KLAF 070925Z AUTO 12002KT 4SM BR BKN009 OVC100 19/19 A3010 RMK P0000 T01900190 CIG 7V13  MADISHF
LAF,2021-10-07 09:30,KLAF 070930Z AUTO 00000KT 4SM -RA BR BKN009 OVC100 19/19 A3010 RMK P0000 T01900190 CIG 7V13  MADISHF
LAF,2021-10-07 09:35,KLAF 070935Z AUTO 00000KT 4SM -RA BR OVC009 19/19 A3010 RMK P0000 T01900190 CIG 5V13  MADISHF
LAF,2021-10-07 09:40,KLAF 070940Z AUTO 00000KT 4SM -RA BR OVC009 19/19 A3010 RMK P0000 T01900190 CIG 5V12  MADISHF
LAF,2021-10-07 09:45,KLAF 070945Z AUTO 00000KT 4SM BR OVC008 19/19 A3009 RMK P0000 T01900190 CIG 5V11  MADISHF
LAF,2021-10-07 09:47,KLAF 070947Z AUTO 00000KT 4SM BR OVC008 19/19 A3010 RMK AO2 RAE19B26E45 CIG 005V011 P0002 T01890189
LAF,2021-10-07 09:50,KLAF 070950Z AUTO 00000KT 4SM -RA BR OVC008 19/19 A3010 RMK P0002 T01900190 CIG 5V11  MADISHF
LAF,2021-10-07 09:54,KLAF 070954Z AUTO 00000KT 3SM -RA BR OVC008 19/19 A3010 RMK AO2 RAE19B26 CIG 005V011 SLP188 P0003 T01890189
LAF,2021-10-07 09:55,KLAF 070955Z AUTO 00000KT 3SM -RA BR OVC008 19/19 A3010 RMK T01900190 CIG 5V11  MADISHF
LAF,2021-10-07 10:00,KLAF 071000Z AUTO 00000KT 4SM -RA BR OVC007 19/19 A3010 RMK T01900190 CIG 5V11  MADISHF
LAF,2021-10-07 10:05,KLAF 071005Z AUTO 10002KT 5SM -RA BR OVC007 19/19 A3010 RMK T01900190 CIG 5V10  MADISHF
LAF,2021-10-07 10:10,KLAF 071010Z AUTO 10002KT 4SM -RA BR BKN007 OVC012 19/19 A3010 RMK T01900190 CIG 5V10  MADISHF
LAF,2021-10-07 10:15,KLAF 071015Z AUTO 08004KT 3SM RA BR OVC008 19/19 A3010 RMK P0001 T01900190 CIG 5V14  MADISHF
LAF,2021-10-07 10:20,KLAF 071020Z AUTO 07004KT 2 1/2SM RA BR OVC008 19/19 A3010 RMK P0003 T01900190 CIG 5V10  MADISHF
LAF,2021-10-07 10:23,KLAF 071023Z AUTO 07003KT 2 1/2SM RA BR OVC008 19/19 A3010 RMK AO2 CIG 005V010 P0005 T01890189
LAF,2021-10-07 10:25,KLAF 071025Z AUTO 00000KT 2 1/2SM RA BR OVC008 19/19 A3010 RMK P0005 T01900190 CIG 4V10  MADISHF
LAF,2021-10-07 10:30,KLAF 071030Z AUTO 00000KT 2SM +RA BR BKN006 OVC009 19/19 A3010 RMK P0009 T01900190 CIG 3V8  MADISHF
LAF,2021-10-07 10:33,KLAF 071033Z 00000KT 1 3/4SM +RA BR OVC004 19/19 A3010 RMK AO2 CIG 002V008 P0010 T01890189
LAF,2021-10-07 10:35,KLAF 071035Z AUTO 00000KT 1 1/2SM +RA BR OVC004 19/19 A3010 RMK P0011 T01900190 MADISHF
LAF,2021-10-07 10:40,KLAF 071040Z AUTO 22004KT 1 1/2SM +RA BR BKN004 OVC009 19/19 A3010 RMK P0014 T01900190 MADISHF
LAF,2021-10-07 10:44,KLAF 071044Z 20003KT 2SM -RA BR BKN006 OVC010 19/19 A3010 RMK AO2 P0015 T01890189
LAF,2021-10-07 10:45,KLAF 071045Z AUTO 19002KT 2 1/2SM -RA BR BKN006 OVC009 19/19 A3010 RMK P0015 T01900190 MADISHF
LAF,2021-10-07 10:48,KLAF 071048Z 00000KT 3SM -RA BR BKN004 OVC010 19/19 A3010 RMK AO2 P0015
LAF,2021-10-07 10:50,KLAF 071050Z AUTO 18002KT 5SM -RA BR SCT004 OVC009 19/19 A3010 RMK P0015 T01900190 MADISHF
LAF,2021-10-07 10:54,KLAF 071054Z 18003KT 5SM -RA BR SCT004 BKN010 OVC016 19/19 A3010 RMK AO2 SLP191 P0015 T01890189
LAF,2021-10-07 10:55,KLAF 071055Z AUTO 19002KT 5SM -RA BR SCT004 BKN009 OVC016 19/19 A3010 RMK P0000 T01900190 MADISHF
LAF,2021-10-07 11:00,KLAF 071100Z AUTO 18002KT 6SM -RA BR FEW004 BKN009 OVC016 19/18 A3011 RMK P0000 T01900180 MADISHF
LAF,2021-10-07 11:05,KLAF 071105Z AUTO 18004KT 5SM RA BR SCT009 BKN016 OVC028 19/18 A3011 RMK P0001 T01900180 MADISHF
LAF,2021-10-07 11:07,KLAF 071107Z VRB03KT 5SM RA BR SCT009 BKN016 OVC024 18/18 A3011 RMK AO2 P0002 T01830183
LAF,2021-10-07 11:10,KLAF 071110Z AUTO 17002KT 4SM RA BR FEW009 BKN016 OVC036 18/18 A3011 RMK P0001 T01800180 MADISHF
LAF,2021-10-07 11:15,KLAF 071115Z AUTO 00000KT 6SM -RA BR SCT014 BKN019 OVC029 18/18 A3011 RMK P0002 T01800180 MADISHF
LAF,2021-10-07 11:20,KLAF 071120Z AUTO 14002KT 7SM -RA BKN014 BKN019 OVC028 18/18 A3011 RMK P0002 T01800180 MADISHF
LAF,2021-10-07 11:25,KLAF 071125Z AUTO 14002KT 9SM -RA BKN014 OVC022 18/18 A3011 RMK P0002 T01800180 MADISHF
LAF,2021-10-07 11:26,KLAF 071126Z 00000KT 10SM -RA BKN014 OVC022 18/18 A3011 RMK AO2 P0003 T01830183
LAF,2021-10-07 11:30,KLAF 071130Z AUTO 00000KT 10SM BKN014 OVC022 18/18 A3011 RMK P0002 T01800180 MADISHF
LAF,2021-10-07 11:35,KLAF 071135Z AUTO 12004KT 10SM -RA BKN013 OVC019 18/18 A3011 RMK P0002 T01800180 MADISHF
LAF,2021-10-07 11:40,KLAF 071140Z AUTO 00000KT 8SM -RA BKN013 BKN019 OVC048 18/18 A3011 RMK P0002 T01800180 MADISHF
LAF,2021-10-07 11:45,KLAF 071145Z AUTO 00000KT 8SM -RA BKN016 BKN042 OVC055 18/18 A3011 RMK P0002 T01800180 MADISHF
LAF,2021-10-07 11:47,KLAF 071147Z 00000KT 9SM -RA SCT013 BKN042 OVC055 18/18 A3011 RMK AO2 P0003 T01830183
LAF,2021-10-07 11:50,KLAF 071150Z AUTO 00000KT 10SM -RA SCT016 OVC042 18/18 A3011 RMK P0003 T01800180 MADISHF
LAF,2021-10-07 11:54,KLAF 071154Z 00000KT 10SM -RA SCT018 BKN042 OVC100 18/18 A3011 RMK AO2 SLP191 P0004 60039 70045 T01830183 10189 20183 51007
LAF,2021-10-07 11:55,KLAF 071155Z AUTO 00000KT 9SM -RA SCT018 BKN042 OVC095 18/18 A3011 RMK T01800180 MADISHF
LAF,2021-10-07 12:00,KLAF 071200Z AUTO 00000KT 5SM RA BR FEW018 BKN041 OVC095 18/18 A3011 RMK P0000 T01800180 MADISHF
LAF,2021-10-07 12:05,KLAF 071205Z AUTO 00000KT 4SM RA BR SCT041 BKN055 OVC100 18/18 A3011 RMK P0001 T01800180 MADISHF
LAF,2021-10-07 12:10,KLAF 071210Z AUTO 00000KT 6SM -RA BR FEW009 BKN038 OVC075 18/18 A3011 RMK P0001 T01800180 MADISHF
LAF,2021-10-07 12:12,KLAF 071212Z 00000KT 8SM -RA FEW009 BKN036 OVC075 18/18 A3011 RMK AO2 P0002 T01830183
LAF,2021-10-07 12:15,KLAF 071215Z AUTO 15002KT 10SM -RA BKN036 BKN055 OVC095 18/18 A3011 RMK P0001 T01800180 MADISHF
LAF,2021-10-07 12:20,KLAF 071220Z AUTO 15002KT 10SM FEW016 BKN036 OVC095 18/18 A3011 RMK P0001 T01800180 VRB03KT  MADISHF
LAF,2021-10-07 12:25,KLAF 071225Z AUTO 16002KT 10SM BKN036 BKN050 OVC070 18/18 A3011 RMK P0001 T01800180 MADISHF
LAF,2021-10-07 12:30,KLAF 071230Z AUTO 16004KT 10SM FEW016 BKN036 OVC060 18/18 A3011 RMK P0001 T01800180 MADISHF
LAF,2021-10-07 12:35,KLAF 071235Z AUTO 15004KT 10SM -RA SCT019 BKN036 OVC047 18/18 A3011 RMK P0001 T01800180 MADISHF
LAF,2021-10-07 12:40,KLAF 071240Z AUTO 15004KT 10SM -RA FEW019 BKN043 OVC050 18/18 A3011 RMK P0001 T01800180 MADISHF
LAF,2021-10-07 12:45,KLAF 071245Z AUTO 17004KT 10SM -RA FEW019 BKN043 OVC110 19/18 A3012 RMK P0001 T01900180 VRB04KT  MADISHF
LAF,2021-10-07 12:50,KLAF 071250Z AUTO 15004KT 10SM FEW019 BKN046 OVC110 19/18 A3012 RMK P0001 T01900180 MADISHF
LAF,2021-10-07 12:54,KLAF 071254Z 15004KT 10SM FEW020 BKN043 OVC110 19/18 A3012 RMK AO2 RAE16B35E48 SLP194 P0002 T01890183
LAF,2021-10-07 12:55,KLAF 071255Z AUTO 15004KT 10SM FEW019 BKN033 OVC110 19/18 A3012 RMK T01900180 MADISHF
LAF,2021-10-07 13:00,KLAF 071300Z AUTO 14002KT 10SM FEW022 BKN033 OVC110 19/18 A3011 RMK T01900180 VRB03KT  MADISHF
LAF,2021-10-07 13:05,KLAF 071305Z AUTO 14004KT 10SM SCT029 BKN043 OVC110 19/18 A3011 RMK T01900180 MADISHF
LAF,2021-10-07 13:10,KLAF 071310Z AUTO 13004KT 10SM SCT031 BKN070 OVC110 19/18 A3012 RMK T01900180 MADISHF
LAF,2021-10-07 13:15,KLAF 071315Z AUTO 14002KT 9SM -RA SCT029 BKN055 OVC085 19/18 A3012 RMK T01900180 MADISHF
LAF,2021-10-07 13:20,KLAF 071320Z AUTO 14004KT 10SM -RA BKN027 BKN055 OVC070 19/18 A3012 RMK T01900180 MADISHF
LAF,2021-10-07 13:22,KLAF 071322Z 15006KT 10SM -RA BKN027 BKN055 OVC070 19/18 A3012 RMK AO2 RAB12 P0000 T01890183
LAF,2021-10-07 13:25,KLAF 071325Z AUTO 15004KT 10SM BKN025 BKN055 OVC070 19/18 A3012 RMK T01900180 MADISHF
LAF,2021-10-07 13:30,KLAF 071330Z AUTO 14004KT 10SM BKN025 BKN055 OVC070 19/18 A3012 RMK T01900180 MADISHF
LAF,2021-10-07 13:35,KLAF 071335Z AUTO 15004KT 10SM BKN025 OVC075 19/18 A3012 RMK T01900180 MADISHF
LAF,2021-10-07 13:40,KLAF 071340Z AUTO 16004KT 10SM OVC026 20/19 A3012 RMK T02000190 VRB04KT  MADISHF
LAF,2021-10-07 13:45,KLAF 071345Z AUTO 15004KT 10SM OVC026 19/19 A3012 RMK T01900190 MADISHF
LAF,2021-10-07 13:50,KLAF 071350Z AUTO 15005KT 10SM OVC028 20/19 A3012 RMK T02000190 VRB05KT  MADISHF
LAF,2021-10-07 13:54,KLAF 071354Z 00000KT 10SM OVC028 19/19 A3012 RMK AO2 RAB12E23 SLP197 P0000 T01940189
LAF,2021-10-07 13:55,KLAF 071355Z AUTO 16002KT 10SM OVC028 20/19 A3012 RMK T02000190 VRB03KT  MADISHF
LAF,2021-10-07 14:00,KLAF 071400Z AUTO 15004KT 10SM OVC028 19/19 A3012 RMK T01900190 MADISHF
LAF,2021-10-07 14:05,KLAF 071405Z AUTO 18004KT 10SM FEW011 OVC030 19/18 A3012 RMK T01900180 MADISHF
LAF,2021-10-07 14:10,KLAF 071410Z 18004KT 10SM FEW011 OVC030 19/18 A3012 RMK AO2 T01940183
LAF,2021-10-07 14:10,KLAF 071410Z AUTO 18004KT 10SM FEW011 OVC030 19/18 A3012 RMK T01900180 MADISHF
LAF,2021-10-07 14:15,KLAF 071415Z AUTO 17002KT 10SM FEW011 OVC030 20/18 A3012 RMK T02000180 MADISHF
LAF,2021-10-07 14:20,KLAF 071420Z AUTO 19002KT 10SM FEW011 BKN030 OVC055 21/19 A3012 RMK T02100190 MADISHF
LAF,2021-10-07 14:25,KLAF 071425Z AUTO 22004KT 10SM FEW011 BKN031 BKN055 21/19 A3012 RMK T02100190 MADISHF
LAF,2021-10-07 14:30,KLAF 071430Z AUTO 18004KT 10SM SCT031 BKN055 21/18 A3012 RMK T02100180 MADISHF
LAF,2021-10-07 14:35,KLAF 071435Z AUTO 19004KT 10SM FEW031 SCT055 20/18 A3012 RMK T02000180 MADISHF
LAF,2021-10-07 14:40,KLAF 071440Z AUTO 20004KT 10SM FEW031 FEW055 20/18 A3012 RMK T02000180 MADISHF
LAF,2021-10-07 14:45,KLAF 071445Z AUTO 18004KT 10SM FEW055 21/18 A3012 RMK T02100180 MADISHF
LAF,2021-10-07 14:50,KLAF 071450Z AUTO 17005KT 10SM SCT055 21/18 A3012 RMK T02100180 MADISHF
LAF,2021-10-07 14:54,KLAF 071454Z 18005KT 10SM SCT060 21/18 A3013 RMK AO2 SLP199 60002 T02060183 51008
LAF,2021-10-07 14:55,KLAF 071455Z AUTO 19005KT 10SM FEW036 SCT065 21/18 A3012 RMK T02100180 MADISHF
LAF,2021-10-07 15:00,KLAF 071500Z AUTO 19002KT 10SM BKN036 BKN065 21/18 A3012 RMK T02100180 MADISHF
LAF,2021-10-07 15:05,KLAF 071505Z AUTO 19004KT 10SM BKN036 BKN065 21/18 A3012 RMK T02100180 MADISHF
LAF,2021-10-07 15:10,KLAF 071510Z AUTO 19002KT 10SM BKN036 BKN065 21/18 A3012 RMK T02100180 MADISHF
LAF,2021-10-07 15:15,KLAF 071515Z AUTO 19005KT 10SM BKN036 OVC065 21/18 A3012 RMK T02100180 MADISHF
LAF,2021-10-07 15:20,KLAF 071520Z AUTO 19005KT 10SM BKN036 21/18 A3012 RMK T02100180 MADISHF
LAF,2021-10-07 15:25,KLAF 071525Z AUTO 18002KT 10SM BKN036 21/18 A3012 RMK T02100180 MADISHF
LAF,2021-10-07 15:30,KLAF 071530Z AUTO 18002KT 10SM FEW018 BKN036 BKN055 21/18 A3012 RMK T02100180 MADISHF
LAF,2021-10-07 15:35,KLAF 071535Z AUTO 20002KT 10SM FEW018 BKN036 BKN048 21/18 A3012 RMK T02100180 MADISHF
LAF,2021-10-07 15:40,KLAF 071540Z AUTO 19002KT 10SM SCT018 SCT036 BKN048 21/18 A3012 RMK T02100180 VRB03KT  MADISHF
LAF,2021-10-07 15:45,KLAF 071545Z AUTO 00000KT 10SM FEW018 BKN048 BKN060 21/18 A3012 RMK T02100180 MADISHF
LAF,2021-10-07 15:50,KLAF 071550Z AUTO 17004KT 10SM SCT018 BKN048 BKN060 22/19 A3012 RMK T02200190 MADISHF
LAF,2021-10-07 15:54,KLAF 071554Z VRB04KT 10SM SCT018 BKN046 OVC060 22/19 A3013 RMK AO2 SLP199 T02220189
LAF,2021-10-07 15:55,KLAF 071555Z AUTO 16004KT 10SM SCT018 BKN048 OVC060 22/19 A3012 RMK T02200190 VRB04KT  MADISHF
LAF,2021-10-07 16:00,KLAF 071600Z AUTO 19007KT 10SM SCT019 BKN048 OVC060 22/18 A3012 RMK T02200180 MADISHF
LAF,2021-10-07 16:05,KLAF 071605Z AUTO 20005KT 10SM SCT019 BKN048 OVC060 22/18 A3012 RMK T02200180 VRB06KT  MADISHF
LAF,2021-10-07 16:10,KLAF 071610Z AUTO 19005KT 10SM SCT019 BKN025 OVC060 22/18 A3012 RMK T02200180 VRB06KT  MADISHF
LAF,2021-10-07 16:15,KLAF 071615Z AUTO 19005KT 10SM FEW019 BKN025 OVC060 22/18 A3012 RMK T02200180 MADISHF
LAF,2021-10-07 16:15,KLAF 071615Z 19005KT 10SM FEW020 BKN025 OVC060 22/18 A3012 RMK AO2 T02170183
LAF,2021-10-07 16:20,KLAF 071620Z AUTO 16005KT 10SM BKN023 BKN049 OVC060 22/18 A3012 RMK T02200180 MADISHF
LAF,2021-10-07 16:25,KLAF 071625Z AUTO 15005KT 10SM SCT023 BKN049 OVC060 22/18 A3012 RMK T02200180 MADISHF
LAF,2021-10-07 16:30,KLAF 071630Z 16007KT 10SM SCT023 OVC060 22/18 A3012 RMK AO2 T02220183
LAF,2021-10-07 16:30,KLAF 071630Z AUTO 16007KT 10SM SCT023 OVC060 22/18 A3012 RMK T02200180 MADISHF
LAF,2021-10-07 16:35,KLAF 071635Z AUTO 18007KT 10SM SCT023 BKN030 OVC060 22/18 A3012 RMK T02200180 MADISHF
LAF,2021-10-07 16:40,KLAF 071640Z AUTO 17005KT 10SM SCT023 BKN030 OVC060 22/18 A3012 RMK T02200180 MADISHF
LAF,2021-10-07 16:45,KLAF 071645Z AUTO 19007KT 10SM FEW019 BKN030 OVC060 22/18 A3012 RMK T02200180 MADISHF
LAF,2021-10-07 16:50,KLAF 071650Z AUTO 17004KT 10SM FEW023 BKN035 OVC060 22/18 A3012 RMK T02200180 MADISHF
LAF,2021-10-07 16:54,KLAF 071654Z 19005KT 10SM FEW023 BKN029 OVC060 23/18 A3012 RMK AO2 SLP196 T02280183
LAF,2021-10-07 16:55,KLAF 071655Z AUTO 19005KT 10SM FEW023 BKN029 OVC060 23/18 A3012 RMK T02300180 MADISHF
LAF,2021-10-07 17:00,KLAF 071700Z AUTO 18005KT 10SM SCT025 BKN029 OVC060 22/18 A3012 RMK T02200180 MADISHF
LAF,2021-10-07 17:05,KLAF 071705Z AUTO 19005KT 10SM SCT025 BKN029 OVC060 23/18 A3012 RMK T02300180 MADISHF
LAF,2021-10-07 17:10,KLAF 071710Z AUTO 16005KT 10SM SCT025 BKN032 OVC060 23/18 A3011 RMK T02300180 VRB06KT  MADISHF
LAF,2021-10-07 17:15,KLAF 071715Z AUTO 17007KT 10SM SCT025 BKN032 OVC060 23/18 A3011 RMK T02300180 MADISHF
LAF,2021-10-07 17:18,KLAF 071718Z 16004KT 10SM SCT025 BKN032 OVC060 23/18 A3011 RMK AO2 T02280178
LAF,2021-10-07 17:20,KLAF 071720Z AUTO 18004KT 10SM SCT025 SCT032 OVC060 23/18 A3011 RMK T02300180 MADISHF
LAF,2021-10-07 17:25,KLAF 071725Z AUTO 17005KT 10SM FEW025 SCT032 OVC060 23/18 A3011 RMK T02300180 MADISHF
LAF,2021-10-07 17:30,KLAF 071730Z AUTO 16005KT 10SM FEW023 SCT030 OVC060 23/18 A3010 RMK T02300180 MADISHF
LAF,2021-10-07 17:35,KLAF 071735Z AUTO 15004KT 10SM SCT028 BKN050 OVC065 23/18 A3010 RMK T02300180 VRB04KT  MADISHF
LAF,2021-10-07 17:40,KLAF 071740Z AUTO 16005KT 10SM SCT028 SCT033 OVC060 23/18 A3010 RMK T02300180 MADISHF
LAF,2021-10-07 17:45,KLAF 071745Z AUTO 12005KT 10SM FEW028 SCT033 OVC065 24/18 A3010 RMK T02400180 VRB06KT  MADISHF
LAF,2021-10-07 17:50,KLAF 071750Z AUTO 15005KT 10SM SCT028 BKN050 OVC065 23/18 A3009 RMK T02300180 MADISHF
LAF,2021-10-07 17:54,KLAF 071754Z 14008KT 10SM SCT028 BKN034 OVC065 23/18 A3009 RMK AO2 SLP186 60002 T02330178 10239 20183 58012
LAF,2021-10-07 17:55,KLAF 071755Z AUTO 15009KT 10SM SCT028 BKN033 OVC065 23/18 A3009 RMK T02300180 MADISHF
LAF,2021-10-07 18:00,KLAF 071800Z AUTO 15005KT 10SM SCT028 BKN036 OVC065 23/18 A3009 RMK T02300180 VRB06KT  MADISHF
LAF,2021-10-07 18:05,KLAF 071805Z AUTO 14005KT 10SM SCT030 BKN038 OVC060 23/18 A3009 RMK T02300180 MADISHF
LAF,2021-10-07 18:10,KLAF 071810Z AUTO 12005KT 10SM FEW030 BKN038 OVC060 23/18 A3009 RMK T02300180 MADISHF
LAF,2021-10-07 18:15,KLAF 071815Z AUTO 16007KT 10SM SCT030 BKN038 OVC060 23/18 A3007 RMK T02300180 WND 12V21  MADISHF
LAF,2021-10-07 18:20,KLAF 071820Z AUTO 14007KT 10SM SCT030 BKN038 OVC060 23/17 A3007 RMK T02300170 MADISHF
LAF,2021-10-07 18:25,KLAF 071825Z AUTO 15008KT 10SM FEW030 BKN038 OVC060 23/17 A3007 RMK T02300170 MADISHF
LAF,2021-10-07 18:30,KLAF 071830Z AUTO 13009KT 10SM FEW030 BKN038 OVC060 24/18 A3007 RMK T02400180 MADISHF
LAF,2021-10-07 18:35,KLAF 071835Z AUTO 13009KT 10SM BKN036 BKN050 OVC060 23/17 A3007 RMK T02300170 MADISHF
LAF,2021-10-07 18:40,KLAF 071840Z AUTO 14011KT 10SM BKN036 BKN042 OVC060 24/18 A3007 RMK T02400180 MADISHF
LAF,2021-10-07 18:45,KLAF 071845Z AUTO 14009KT 10SM BKN033 BKN043 OVC060 24/18 A3006 RMK T02400180 MADISHF
LAF,2021-10-07 18:50,KLAF 071850Z AUTO 14005KT 10SM SCT033 BKN039 OVC060 23/17 A3006 RMK T02300170 VRB06KT  MADISHF
LAF,2021-10-07 18:54,KLAF 071854Z 13010G15KT 10SM BKN037 OVC060 24/18 A3007 RMK AO2 SLP179 T02390178
LAF,2021-10-07 18:55,KLAF 071855Z AUTO 14009G14KT 10SM SCT033 OVC041 24/18 A3006 RMK T02400180 MADISHF
LAF,2021-10-07 19:00,KLAF 071900Z AUTO 14010KT 10SM BKN036 OVC043 23/17 A3006 RMK T02300170 MADISHF
LAF,2021-10-07 19:05,KLAF 071905Z AUTO 14007KT 10SM BKN033 OVC046 23/17 A3006 RMK T02300170 MADISHF
LAF,2021-10-07 19:10,KLAF 071910Z AUTO 14005KT 10SM BKN036 BKN043 OVC050 23/18 A3006 RMK T02300180 MADISHF
LAF,2021-10-07 19:15,KLAF 071915Z AUTO 13007KT 10SM BKN036 BKN045 OVC050 24/18 A3006 RMK T02400180 MADISHF
LAF,2021-10-07 19:20,KLAF 071920Z AUTO 15007KT 10SM BKN036 BKN046 OVC055 24/18 A3006 RMK T02400180 MADISHF
LAF,2021-10-07 19:25,KLAF 071925Z AUTO 17005KT 10SM FEW029 BKN044 OVC055 23/17 A3006 RMK T02300170 MADISHF
LAF,2021-10-07 19:30,KLAF 071930Z AUTO 18005KT 10SM FEW029 SCT033 OVC050 23/18 A3006 RMK T02300180 MADISHF
LAF,2021-10-07 19:35,KLAF 071935Z AUTO 18007KT 10SM FEW029 SCT033 OVC050 23/18 A3006 RMK T02300180 MADISHF
LAF,2021-10-07 19:40,KLAF 071940Z AUTO 17007KT 10SM FEW033 OVC050 23/18 A3005 RMK T02300180 MADISHF
LAF,2021-10-07 19:45,KLAF 071945Z AUTO 17008KT 10SM FEW029 FEW036 OVC050 23/18 A3005 RMK T02300180 MADISHF
LAF,2021-10-07 19:50,KLAF 071950Z AUTO 16005KT 10SM FEW031 OVC050 23/18 A3005 RMK T02300180 MADISHF
LAF,2021-10-07 19:54,KLAF 071954Z 17006KT 10SM OVC050 23/18 A3006 RMK AO2 SLP176 T02330178
LAF,2021-10-07 19:55,KLAF 071955Z AUTO 17005KT 10SM OVC050 23/18 A3005 RMK T02300180 MADISHF
LAF,2021-10-07 20:00,KLAF 072000Z AUTO 17005KT 10SM OVC055 23/18 A3005 RMK T02300180 MADISHF
LAF,2021-10-07 20:05,KLAF 072005Z AUTO 16005KT 10SM OVC055 23/18 A3005 RMK T02300180 MADISHF
LAF,2021-10-07 20:10,KLAF 072010Z AUTO 15005KT 10SM OVC055 23/18 A3005 RMK T02300180 MADISHF
LAF,2021-10-07 20:15,KLAF 072015Z AUTO 16005KT 10SM BKN055 23/18 A3004 RMK T02300180 MADISHF
LAF,2021-10-07 20:20,KLAF 072020Z AUTO 18005KT 10SM FEW030 BKN055 23/18 A3004 RMK T02300180 MADISHF
LAF,2021-10-07 20:25,KLAF 072025Z AUTO 18004KT 10SM FEW030 SCT047 OVC060 23/18 A3004 RMK T02300180 MADISHF
LAF,2021-10-07 20:30,KLAF 072030Z AUTO 16005KT 10SM FEW035 SCT048 OVC060 23/18 A3004 RMK T02300180 VRB05KT  MADISHF
LAF,2021-10-07 20:35,KLAF 072035Z AUTO 16004KT 10SM FEW033 SCT048 BKN060 23/18 A3004 RMK T02300180 MADISHF
LAF,2021-10-07 20:40,KLAF 072040Z AUTO 15005KT 10SM FEW030 SCT039 BKN055 23/18 A3004 RMK T02300180 MADISHF
LAF,2021-10-07 20:45,KLAF 072045Z AUTO 17007KT 10SM FEW030 BKN039 OVC060 23/18 A3004 RMK T02300180 MADISHF
LAF,2021-10-07 20:50,KLAF 072050Z AUTO 17002KT 10SM SCT033 BKN047 BKN060 23/18 A3004 RMK T02300180 MADISHF
LAF,2021-10-07 20:54,KLAF 072054Z 17005KT 10SM FEW031 SCT041 BKN060 23/18 A3005 RMK AO2 SLP171 T02280178 56016
LAF,2021-10-07 20:55,KLAF 072055Z AUTO 18005KT 10SM FEW031 SCT041 BKN060 23/18 A3004 RMK T02300180 MADISHF
LAF,2021-10-07 21:00,KLAF 072100Z AUTO 18005KT 10SM SCT031 BKN043 BKN055 23/18 A3004 RMK T02300180 MADISHF
LAF,2021-10-07 21:05,KLAF 072105Z AUTO 19005KT 10SM SCT031 BKN043 BKN110 23/18 A3004 RMK T02300180 MADISHF
LAF,2021-10-07 21:10,KLAF 072110Z AUTO 17005KT 10SM SCT032 SCT047 BKN100 23/18 A3004 RMK T02300180 MADISHF
LAF,2021-10-07 21:15,KLAF 072115Z AUTO 17005KT 10SM FEW032 BKN100 23/18 A3004 RMK T02300180 MADISHF
LAF,2021-10-07 21:20,KLAF 072120Z AUTO 16005KT 10SM FEW032 BKN100 23/18 A3004 RMK T02300180 MADISHF
LAF,2021-10-07 21:25,KLAF 072125Z AUTO 17005KT 10SM FEW031 SCT046 BKN100 23/18 A3004 RMK T02300180 VRB05KT  MADISHF
LAF,2021-10-07 21:30,KLAF 072130Z AUTO 17005KT 10SM FEW046 BKN100 23/18 A3004 RMK T02300180 MADISHF
LAF,2021-10-07 21:35,KLAF 072135Z AUTO 17005KT 10SM FEW046 BKN110 23/18 A3004 RMK T02300180 MADISHF
LAF,2021-10-07 21:40,KLAF 072140Z AUTO 15005KT 10SM FEW046 BKN110 23/18 A3004 RMK T02300180 VRB05KT  MADISHF
LAF,2021-10-07 21:45,KLAF 072145Z AUTO 17004KT 10SM FEW047 OVC110 23/18 A3004 RMK T02300180 MADISHF
LAF,2021-10-07 21:50,KLAF 072150Z AUTO 17004KT 10SM FEW047 OVC110 23/18 A3004 RMK T02300180 MADISHF
LAF,2021-10-07 21:54,KLAF 072154Z VRB05KT 10SM OVC110 23/18 A3004 RMK AO2 SLP168 T02280178
LAF,2021-10-07 21:55,KLAF 072155Z AUTO 18005KT 10SM OVC110 23/18 A3004 RMK T02300180 MADISHF
LAF,2021-10-07 22:00,KLAF 072200Z AUTO 17004KT 10SM OVC110 22/18 A3004 RMK T02200180 MADISHF
LAF,2021-10-07 22:05,KLAF 072205Z AUTO 19004KT 10SM OVC110 22/18 A3004 RMK T02200180 MADISHF
LAF,2021-10-07 22:10,KLAF 072210Z AUTO 17004KT 10SM BKN110 23/18 A3004 RMK T02300180 VRB04KT  MADISHF
LAF,2021-10-07 22:15,KLAF 072215Z AUTO 18004KT 10SM BKN110 22/17 A3004 RMK T02200170 MADISHF
LAF,2021-10-07 22:20,KLAF 072220Z AUTO 19004KT 10SM BKN100 23/18 A3004 RMK T02300180 MADISHF
LAF,2021-10-07 22:25,KLAF 072225Z AUTO 19002KT 10SM FEW055 BKN100 23/18 A3004 RMK T02300180 MADISHF
LAF,2021-10-07 22:30,KLAF 072230Z AUTO 18002KT 10SM FEW055 BKN100 23/18 A3004 RMK T02300180 MADISHF
LAF,2021-10-07 22:35,KLAF 072235Z AUTO 15002KT 10SM BKN100 23/18 A3003 RMK T02300180 MADISHF
LAF,2021-10-07 22:40,KLAF 072240Z AUTO 17002KT 10SM BKN110 22/18 A3003 RMK T02200180 MADISHF
LAF,2021-10-07 22:45,KLAF 072245Z AUTO 16002KT 10SM OVC110 22/18 A3004 RMK T02200180 MADISHF
LAF,2021-10-07 22:50,KLAF 072250Z AUTO 16002KT 10SM OVC110 22/18 A3004 RMK T02200180 MADISHF
LAF,2021-10-07 22:54,KLAF 072254Z 18003KT 10SM OVC110 22/18 A3004 RMK AO2 SLP169 T02220178
LAF,2021-10-07 22:55,KLAF 072255Z AUTO 15002KT 10SM BKN110 22/18 A3004 RMK T02200180 VRB03KT  MADISHF
LAF,2021-10-07 23:00,KLAF 072300Z AUTO 19002KT 10SM BKN110 22/18 A3004 RMK T02200180 VRB03KT  MADISHF
LAF,2021-10-07 23:05,KLAF 072305Z AUTO 17002KT 10SM BKN110 22/18 A3004 RMK T02200180 MADISHF
LAF,2021-10-07 23:10,KLAF 072310Z AUTO 00000KT 10SM SCT110 22/17 A3004 RMK T02200170 MADISHF
LAF,2021-10-07 23:15,KLAF 072315Z AUTO 00000KT 10SM FEW110 22/17 A3004 RMK T02200170 MADISHF
LAF,2021-10-07 23:20,KLAF 072320Z AUTO 00000KT 10SM FEW110 22/17 A3004 RMK T02200170 MADISHF
LAF,2021-10-07 23:25,KLAF 072325Z AUTO 00000KT 10SM FEW100 21/17 A3004 RMK T02100170 MADISHF
LAF,2021-10-07 23:30,KLAF 072330Z AUTO 00000KT 10SM CLR 21/17 A3004 RMK T02100170 MADISHF
LAF,2021-10-07 23:35,KLAF 072335Z AUTO 00000KT 10SM CLR 21/17 A3004 RMK T02100170 MADISHF
LAF,2021-10-07 23:40,KLAF 072340Z AUTO 00000KT 10SM CLR 21/17 A3004 RMK T02100170 MADISHF
LAF,2021-10-07 23:45,KLAF 072345Z AUTO 00000KT 10SM CLR 21/17 A3004 RMK T02100170 MADISHF
LAF,2021-10-07 23:50,KLAF 072350Z AUTO 00000KT 10SM CLR 20/17 A3004 RMK T02000170 MADISHF
LAF,2021-10-07 23:54,KLAF 072354Z 00000KT 10SM CLR 19/17 A3005 RMK AO2 SLP173 T01940172 10239 20194 53001
LAF,2021-10-07 23:55,KLAF 072355Z AUTO 00000KT 10SM CLR 19/17 A3004 RMK T01900170 MADISHF
LAF,2021-10-08 00:00,KLAF 080000Z AUTO 16002KT 10SM CLR 20/18 A3004 RMK T02000180 MADISHF
LAF,2021-10-08 00:05,KLAF 080005Z AUTO 18002KT 10SM CLR 21/18 A3004 RMK T02100180 MADISHF
LAF,2021-10-08 00:10,KLAF 080010Z AUTO 00000KT 10SM CLR 20/18 A3004 RMK T02000180 MADISHF
LAF,2021-10-08 00:15,KLAF 080015Z AUTO 00000KT 10SM CLR 20/18 A3004 RMK T02000180 MADISHF
LAF,2021-10-08 00:20,KLAF 080020Z AUTO 00000KT 10SM CLR 20/18 A3005 RMK T02000180 MADISHF
LAF,2021-10-08 00:25,KLAF 080025Z AUTO 18002KT 10SM CLR 20/18 A3005 RMK T02000180 MADISHF
LAF,2021-10-08 00:30,KLAF 080030Z AUTO 00000KT 10SM CLR 20/17 A3005 RMK T02000170 MADISHF
LAF,2021-10-08 00:35,KLAF 080035Z AUTO 00000KT 10SM FEW120 20/18 A3005 RMK T02000180 MADISHF
LAF,2021-10-08 00:40,KLAF 080040Z AUTO 00000KT 10SM SCT120 20/18 A3005 RMK T02000180 MADISHF
LAF,2021-10-08 00:45,KLAF 080045Z AUTO 00000KT 10SM BKN120 20/17 A3005 RMK T02000170 MADISHF
LAF,2021-10-08 00:50,KLAF 080050Z AUTO 00000KT 10SM BKN120 20/17 A3005 RMK T02000170 MADISHF
LAF,2021-10-08 00:54,KLAF 080054Z AUTO 00000KT 10SM BKN120 20/18 A3006 RMK AO2 SLP176 T02000178
LAF,2021-10-08 00:55,KLAF 080055Z AUTO 00000KT 10SM BKN120 20/18 A3005 RMK T02000180 MADISHF
LAF,2021-10-08 01:00,KLAF 080100Z AUTO 00000KT 10SM BKN120 20/18 A3005 RMK T02000180 MADISHF
LAF,2021-10-08 01:05,KLAF 080105Z AUTO 00000KT 10SM OVC120 20/18 A3005 RMK T02000180 MADISHF
LAF,2021-10-08 01:10,KLAF 080110Z AUTO 00000KT 10SM OVC120 20/18 A3005 RMK T02000180 MADISHF
LAF,2021-10-08 01:15,KLAF 080115Z AUTO 00000KT 10SM OVC120 19/18 A3005 RMK T01900180 MADISHF
LAF,2021-10-08 01:20,KLAF 080120Z AUTO 00000KT 10SM OVC110 19/18 A3005 RMK T01900180 MADISHF
LAF,2021-10-08 01:25,KLAF 080125Z AUTO 00000KT 10SM OVC110 19/18 A3005 RMK T01900180 MADISHF
LAF,2021-10-08 01:30,KLAF 080130Z AUTO 18002KT 10SM OVC110 19/18 A3005 RMK T01900180 MADISHF
LAF,2021-10-08 01:35,KLAF 080135Z AUTO 18002KT 10SM FEW041 OVC110 19/18 A3005 RMK T01900180 MADISHF
LAF,2021-10-08 01:40,KLAF 080140Z AUTO 00000KT 10SM FEW041 BKN110 19/18 A3005 RMK T01900180 MADISHF
LAF,2021-10-08 01:45,KLAF 080145Z AUTO 00000KT 10SM FEW041 BKN110 19/18 A3005 RMK T01900180 MADISHF
LAF,2021-10-08 01:50,KLAF 080150Z AUTO 00000KT 10SM FEW041 SCT110 19/18 A3005 RMK T01900180 MADISHF
LAF,2021-10-08 01:54,KLAF 080154Z AUTO 00000KT 10SM FEW041 SCT120 19/18 A3006 RMK AO2 SLP176 T01890178
LAF,2021-10-08 01:55,KLAF 080155Z AUTO 00000KT 10SM FEW041 SCT120 19/18 A3005 RMK T01900180 MADISHF
LAF,2021-10-08 02:00,KLAF 080200Z AUTO 00000KT 10SM FEW041 FEW120 18/18 A3005 RMK T01800180 MADISHF
LAF,2021-10-08 02:05,KLAF 080205Z AUTO 00000KT 10SM FEW120 18/17 A3005 RMK T01800170 MADISHF
LAF,2021-10-08 02:10,KLAF 080210Z AUTO 11002KT 10SM FEW120 18/17 A3005 RMK T01800170 MADISHF
LAF,2021-10-08 02:15,KLAF 080215Z AUTO 13002KT 10SM FEW120 18/17 A3005 RMK T01800170 MADISHF
LAF,2021-10-08 02:20,KLAF 080220Z AUTO 12004KT 10SM FEW120 18/17 A3005 RMK T01800170 MADISHF
LAF,2021-10-08 02:25,KLAF 080225Z AUTO 12002KT 10SM CLR 18/18 A3005 RMK T01800180 MADISHF
LAF,2021-10-08 02:30,KLAF 080230Z AUTO 13002KT 10SM CLR 18/18 A3005 RMK T01800180 MADISHF
LAF,2021-10-08 02:35,KLAF 080235Z AUTO 13002KT 10SM CLR 18/18 A3005 RMK T01800180 MADISHF
LAF,2021-10-08 02:40,KLAF 080240Z AUTO 00000KT 10SM FEW079 18/18 A3004 RMK T01800180 MADISHF
LAF,2021-10-08 02:45,KLAF 080245Z AUTO 00000KT 10SM FEW079 19/18 A3004 RMK T01900180 MADISHF
LAF,2021-10-08 02:50,KLAF 080250Z AUTO 00000KT 10SM FEW079 FEW110 19/18 A3004 RMK T01900180 MADISHF
LAF,2021-10-08 02:54,KLAF 080254Z AUTO 00000KT 10SM FEW080 FEW110 19/18 A3005 RMK AO2 SLP173 T01890178 50001
LAF,2021-10-08 02:55,KLAF 080255Z AUTO 00000KT 10SM FEW079 FEW110 19/18 A3004 RMK T01900180 MADISHF
LAF,2021-10-08 03:00,KLAF 080300Z AUTO 00000KT 10SM FEW079 19/18 A3004 RMK T01900180 MADISHF
LAF,2021-10-08 03:05,KLAF 080305Z AUTO 00000KT 10SM SCT120 18/18 A3004 RMK T01800180 MADISHF
LAF,2021-10-08 03:10,KLAF 080310Z AUTO 00000KT 10SM FEW090 SCT120 18/18 A3004 RMK T01800180 MADISHF
LAF,2021-10-08 03:15,KLAF 080315Z AUTO 00000KT 10SM FEW090 BKN120 19/18 A3004 RMK T01900180 MADISHF
LAF,2021-10-08 03:20,KLAF 080320Z AUTO 00000KT 10SM FEW090 BKN120 19/18 A3004 RMK T01900180 MADISHF
LAF,2021-10-08 03:25,KLAF 080325Z AUTO 00000KT 10SM FEW090 BKN120 18/18 A3004 RMK T01800180 MADISHF
LAF,2021-10-08 03:30,KLAF 080330Z AUTO 00000KT 10SM FEW090 BKN120 18/18 A3004 RMK T01800180 MADISHF
LAF,2021-10-08 03:35,KLAF 080335Z AUTO 00000KT 10SM FEW090 BKN120 18/18 A3004 RMK T01800180 MADISHF
LAF,2021-10-08 03:40,KLAF 080340Z AUTO 00000KT 10SM SCT120 18/18 A3004 RMK T01800180 MADISHF
LAF,2021-10-08 03:45,KLAF 080345Z AUTO 00000KT 10SM SCT120 18/18 A3004 RMK T01800180 MADISHF
LAF,2021-10-08 03:50,KLAF 080350Z AUTO 00000KT 10SM SCT110 18/17 A3004 RMK T01800170 MADISHF
LAF,2021-10-08 03:54,KLAF 080354Z AUTO 00000KT 10SM SCT100 18/17 A3004 RMK AO2 SLP170 T01780172
LAF,2021-10-08 03:55,KLAF 080355Z AUTO 00000KT 10SM BKN100 18/17 A3004 RMK T01800170 MADISHF
LAF,2021-10-08 04:00,KLAF 080400Z AUTO 00000KT 10SM BKN100 18/17 A3004 RMK T01800170 MADISHF
LAF,2021-10-08 04:05,KLAF 080405Z AUTO 00000KT 10SM BKN100 18/17 A3004 RMK T01800170 MADISHF
LAF,2021-10-08 04:10,KLAF 080410Z AUTO 00000KT 10SM BKN100 18/17 A3004 RMK T01800170 MADISHF
LAF,2021-10-08 04:15,KLAF 080415Z AUTO 00000KT 10SM BKN100 17/17 A3004 RMK T01700170 MADISHF
LAF,2021-10-08 04:20,KLAF 080420Z AUTO 00000KT 10SM BKN100 17/17 A3004 RMK T01700170 MADISHF
LAF,2021-10-08 04:25,KLAF 080425Z AUTO 00000KT 10SM BKN100 17/17 A3004 RMK T01700170 MADISHF
LAF,2021-10-08 04:30,KLAF 080430Z AUTO 00000KT 10SM FEW075 BKN100 17/17 A3004 RMK T01700170 MADISHF
LAF,2021-10-08 04:35,KLAF 080435Z AUTO 00000KT 10SM FEW075 BKN100 18/17 A3004 RMK T01800170 MADISHF
LAF,2021-10-08 04:40,KLAF 080440Z AUTO 00000KT 10SM FEW075 OVC100 18/17 A3004 RMK T01800170 MADISHF
LAF,2021-10-08 04:45,KLAF 080445Z AUTO 00000KT 10SM FEW075 OVC100 18/17 A3004 RMK T01800170 MADISHF
LAF,2021-10-08 04:50,KLAF 080450Z AUTO 10002KT 10SM FEW075 OVC110 17/17 A3004 RMK T01700170 MADISHF
LAF,2021-10-08 04:54,KLAF 080454Z AUTO 12003KT 10SM FEW075 OVC100 17/17 A3005 RMK AO2 SLP172 T01720172 402390167
LAF,2021-10-08 04:55,KLAF 080455Z AUTO 12002KT 10SM FEW075 OVC100 17/17 A3004 RMK T01700170 MADISHF
LAF,2021-10-08 05:00,KLAF 080500Z AUTO 00000KT 10SM FEW079 OVC100 17/17 A3004 RMK T01700170 MADISHF
LAF,2021-10-08 05:05,KLAF 080505Z AUTO 00000KT 10SM OVC100 18/17 A3004 RMK T01800170 MADISHF
LAF,2021-10-08 05:10,KLAF 080510Z AUTO 00000KT 10SM BKN100 18/17 A3004 RMK T01800170 MADISHF
LAF,2021-10-08 05:15,KLAF 080515Z AUTO 00000KT 10SM BKN100 18/17 A3004 RMK T01800170 MADISHF
LAF,2021-10-08 05:20,KLAF 080520Z AUTO 00000KT 10SM SCT100 18/17 A3004 RMK T01800170 MADISHF
LAF,2021-10-08 05:25,KLAF 080525Z AUTO 00000KT 10SM SCT100 17/17 A3004 RMK T01700170 MADISHF
LAF,2021-10-08 05:30,KLAF 080530Z AUTO 00000KT 10SM FEW100 18/17 A3004 RMK T01800170 MADISHF
LAF,2021-10-08 05:35,KLAF 080535Z AUTO 00000KT 10SM FEW100 18/17 A3004 RMK T01800170 MADISHF
LAF,2021-10-08 05:40,KLAF 080540Z AUTO 00000KT 10SM SCT110 18/17 A3004 RMK T01800170 MADISHF
LAF,2021-10-08 05:45,KLAF 080545Z AUTO 00000KT 10SM SCT110 18/17 A3003 RMK T01800170 MADISHF
LAF,2021-10-08 05:50,KLAF 080550Z AUTO 00000KT 10SM BKN110 18/17 A3003 RMK T01800170 MADISHF
LAF,2021-10-08 05:54,KLAF 080554Z AUTO 00000KT 10SM BKN110 17/17 A3004 RMK AO2 SLP167 T01720172 10206 20167 58005
LAF,2021-10-08 05:55,KLAF 080555Z AUTO 00000KT 10SM BKN110 17/17 A3004 RMK T01700170 MADISHF
LAF,2021-10-08 06:00,KLAF 080600Z AUTO 00000KT 10SM BKN110 17/17 A3003 RMK T01700170 MADISHF
LAF,2021-10-08 06:05,KLAF 080605Z AUTO 00000KT 10SM BKN110 17/17 A3003 RMK T01700170 MADISHF
LAF,2021-10-08 06:10,KLAF 080610Z AUTO 00000KT 10SM BKN110 17/17 A3004 RMK T01700170 MADISHF
LAF,2021-10-08 06:15,KLAF 080615Z AUTO 00000KT 9SM SCT110 17/17 A3003 RMK T01700170 MADISHF
LAF,2021-10-08 06:20,KLAF 080620Z AUTO 09004KT 2 1/2SM BR FEW055 BKN110 17/17 A3003 RMK T01700170 MADISHF
LAF,2021-10-08 06:22,KLAF 080622Z AUTO 10003KT 1 1/2SM BR FEW055 BKN110 17/17 A3003 RMK AO2 T01670167
LAF,2021-10-08 06:25,KLAF 080625Z AUTO 13003KT 3/4SM BR FEW003 SCT055 BKN110 17/17 A3003 RMK AO2 T01670167
LAF,2021-10-08 06:25,KLAF 080625Z AUTO 13002KT 1SM BR FEW003 SCT055 BKN110 17/17 A3003 RMK T01700170 MADISHF
LAF,2021-10-08 06:30,KLAF 080630Z AUTO 12002KT 1SM BR FEW003 FEW055 SCT100 17/17 A3003 RMK T01700170 MADISHF
LAF,2021-10-08 06:33,KLAF 080633Z AUTO 11003KT 2SM BR FEW002 SCT080 SCT100 17/17 A3003 RMK AO2 T01670167
LAF,2021-10-08 06:35,KLAF 080635Z AUTO 11002KT 5SM BR FEW002 SCT079 SCT100 17/17 A3003 RMK T01700170 MADISHF
LAF,2021-10-08 06:40,KLAF 080640Z AUTO 10003KT 7SM FEW002 BKN080 BKN100 17/17 A3003 RMK AO2 T01670167
LAF,2021-10-08 06:40,KLAF 080640Z AUTO 10002KT 7SM FEW002 BKN079 BKN100 17/17 A3003 RMK T01700170 MADISHF
LAF,2021-10-08 06:44,KLAF 080644Z AUTO 00000KT 1 3/4SM BR FEW002 FEW055 BKN080 17/17 A3003 RMK AO2 T01670167
LAF,2021-10-08 06:45,KLAF 080645Z AUTO 08002KT 2SM BR FEW002 FEW055 BKN079 17/17 A3003 RMK T01700170 MADISHF
LAF,2021-10-08 06:50,KLAF 080650Z AUTO 09002KT 2SM BR FEW002 BKN079 17/17 A3003 RMK T01700170 MADISHF
LAF,2021-10-08 06:54,KLAF 080654Z AUTO 00000KT 7SM BKN080 17/17 A3003 RMK AO2 SLP165 T01670167
LAF,2021-10-08 06:55,KLAF 080655Z AUTO 00000KT 9SM OVC079 17/17 A3003 RMK T01700170 MADISHF
LAF,2021-10-08 07:00,KLAF 080700Z AUTO 00000KT 10SM OVC079 17/17 A3003 RMK T01700170 MADISHF
LAF,2021-10-08 07:05,KLAF 080705Z AUTO 00000KT 10SM OVC079 17/17 A3003 RMK T01700170 MADISHF
LAF,2021-10-08 07:10,KLAF 080710Z AUTO 00000KT 10SM OVC079 17/17 A3003 RMK T01700170 MADISHF
LAF,2021-10-08 07:15,KLAF 080715Z AUTO 00000KT 10SM OVC075 17/17 A3003 RMK T01700170 MADISHF
LAF,2021-10-08 07:20,KLAF 080720Z AUTO 00000KT 10SM OVC075 17/17 A3003 RMK T01700170 MADISHF
LAF,2021-10-08 07:25,KLAF 080725Z AUTO 00000KT 10SM OVC075 17/17 A3003 RMK T01700170 MADISHF
LAF,2021-10-08 07:30,KLAF 080730Z AUTO 00000KT 10SM OVC075 17/17 A3003 RMK T01700170 MADISHF
LAF,2021-10-08 07:35,KLAF 080735Z AUTO 00000KT 10SM OVC070 17/17 A3003 RMK T01700170 MADISHF
LAF,2021-10-08 07:40,KLAF 080740Z AUTO 00000KT 10SM OVC070 17/17 A3003 RMK T01700170 MADISHF
LAF,2021-10-08 07:45,KLAF 080745Z AUTO 00000KT 10SM OVC070 17/17 A3003 RMK T01700170 MADISHF
LAF,2021-10-08 07:50,KLAF 080750Z AUTO 00000KT 10SM OVC070 18/17 A3003 RMK T01800170 MADISHF
LAF,2021-10-08 07:54,KLAF 080754Z AUTO 00000KT 10SM OVC070 17/17 A3003 RMK AO2 SLP165 T01720172
LAF,2021-10-08 07:55,KLAF 080755Z AUTO 00000KT 10SM OVC070 17/17 A3003 RMK T01700170 MADISHF
LAF,2021-10-08 08:00,KLAF 080800Z AUTO 00000KT 10SM OVC070 17/17 A3003 RMK T01700170 MADISHF
LAF,2021-10-08 08:05,KLAF 080805Z AUTO 00000KT 10SM OVC065 17/17 A3003 RMK T01700170 MADISHF
LAF,2021-10-08 08:10,KLAF 080810Z AUTO 00000KT 10SM OVC065 18/17 A3003 RMK T01800170 MADISHF
LAF,2021-10-08 08:15,KLAF 080815Z AUTO 00000KT 10SM OVC065 18/17 A3003 RMK T01800170 MADISHF
LAF,2021-10-08 08:20,KLAF 080820Z AUTO 00000KT 10SM OVC065 18/17 A3003 RMK T01800170 MADISHF
LAF,2021-10-08 08:25,KLAF 080825Z AUTO 00000KT 10SM BKN065 18/17 A3002 RMK T01800170 MADISHF
LAF,2021-10-08 08:30,KLAF 080830Z AUTO 00000KT 9SM BKN065 17/17 A3002 RMK T01700170 MADISHF
LAF,2021-10-08 08:35,KLAF 080835Z AUTO 00000KT 10SM SCT065 17/17 A3002 RMK T01700170 MADISHF
LAF,2021-10-08 08:40,KLAF 080840Z AUTO 00000KT 10SM SCT065 17/17 A3002 RMK T01700170 MADISHF
LAF,2021-10-08 08:45,KLAF 080845Z AUTO 00000KT 10SM FEW065 17/17 A3002 RMK T01700170 MADISHF
LAF,2021-10-08 08:50,KLAF 080850Z AUTO 00000KT 9SM CLR 17/17 A3002 RMK T01700170 MADISHF
LAF,2021-10-08 08:54,KLAF 080854Z AUTO 00000KT 9SM FEW060 17/17 A3002 RMK AO2 SLP162 T01720167 58005
LAF,2021-10-08 08:55,KLAF 080855Z AUTO 00000KT 8SM FEW060 17/17 A3002 RMK T01700170 MADISHF
LAF,2021-10-08 09:00,KLAF 080900Z AUTO 00000KT 7SM FEW060 17/17 A3002 RMK T01700170 MADISHF
LAF,2021-10-08 09:05,KLAF 080905Z AUTO 00000KT 6SM BR FEW055 17/17 A3002 RMK T01700170 MADISHF
LAF,2021-10-08 09:10,KLAF 080910Z AUTO 00000KT 2 1/2SM BR FEW055 17/17 A3002 RMK T01700170 MADISHF
LAF,2021-10-08 09:11,KLAF 080911Z AUTO 00000KT 1 3/4SM BR FEW055 17/17 A3002 RMK AO2 VIS 1/2V5 T01670167
LAF,2021-10-08 09:15,KLAF 080915Z AUTO 00000KT 1 1/2SM BR SCT055 17/17 A3002 RMK T01700170 MADISHF
LAF,2021-10-08 09:20,KLAF 080920Z AUTO 00000KT 1 1/2SM BR SCT055 17/17 A3002 RMK T01700170 MADISHF
LAF,2021-10-08 09:25,KLAF 080925Z AUTO 00000KT 2SM BR SCT055 17/17 A3002 RMK T01700170 MADISHF
LAF,2021-10-08 09:28,KLAF 080928Z AUTO 00000KT 3SM BR FEW055 17/17 A3002 RMK AO2 T01670167
LAF,2021-10-08 09:30,KLAF 080930Z AUTO 00000KT 3SM BR SCT055 17/17 A3002 RMK T01700170 MADISHF
LAF,2021-10-08 09:35,KLAF 080935Z AUTO 00000KT 2 1/2SM BR SCT055 16/16 A3002 RMK T01600160 MADISHF
LAF,2021-10-08 09:40,KLAF 080940Z AUTO 00000KT 4SM BR BKN055 16/16 A3003 RMK T01600160 MADISHF
LAF,2021-10-08 09:45,KLAF 080945Z AUTO 00000KT 8SM BKN055 17/17 A3003 RMK T01700170 MADISHF
LAF,2021-10-08 09:50,KLAF 080950Z AUTO 00000KT 9SM BKN055 16/16 A3003 RMK T01600160 MADISHF
LAF,2021-10-08 09:54,KLAF 080954Z AUTO 00000KT 7SM BKN055 17/17 A3003 RMK AO2 SLP164 T01670167
LAF,2021-10-08 09:55,KLAF 080955Z AUTO 00000KT 7SM BKN055 17/17 A3003 RMK T01700170 MADISHF
LAF,2021-10-08 10:00,KLAF 081000Z AUTO 00000KT 4SM BR FEW009 BKN055 17/17 A3003 RMK T01700170 MADISHF
LAF,2021-10-08 10:04,KLAF 081004Z AUTO 00000KT 2 1/2SM BR FEW009 BKN055 17/17 A3003 RMK AO2 VIS 1 1/4V5 T01670167
LAF,2021-10-08 10:05,KLAF 081005Z AUTO 00000KT 2 1/2SM BR FEW009 BKN055 17/17 A3003 RMK T01700170 MADISHF
LAF,2021-10-08 10:10,KLAF 081010Z AUTO 00000KT 2 1/2SM BR BKN055 17/17 A3003 RMK T01700170 MADISHF
LAF,2021-10-08 10:15,KLAF 081015Z AUTO 10002KT 2 1/2SM BR BKN050 16/16 A3003 RMK T01600160 MADISHF
LAF,2021-10-08 10:20,KLAF 081020Z AUTO 10002KT 3SM BR BKN050 17/16 A3003 RMK T01700160 MADISHF
LAF,2021-10-08 10:22,KLAF 081022Z AUTO 09003KT 4SM BR BKN050 17/16 A3003 RMK AO2 T01670161
LAF,2021-10-08 10:25,KLAF 081025Z AUTO 10002KT 7SM FEW008 BKN050 16/16 A3004 RMK T01600160 MADISHF
LAF,2021-10-08 10:30,KLAF 081030Z AUTO 11002KT 6SM BR BKN050 16/16 A3004 RMK T01600160 MADISHF
LAF,2021-10-08 10:35,KLAF 081035Z AUTO 11002KT 2 1/2SM BR OVC050 16/16 A3004 RMK T01600160 MADISHF
LAF,2021-10-08 10:40,KLAF 081040Z AUTO 11002KT 4SM BR OVC049 16/16 A3004 RMK T01600160 MADISHF
LAF,2021-10-08 10:45,KLAF 081045Z AUTO 08002KT 4SM BR OVC049 16/16 A3004 RMK T01600160 MADISHF
LAF,2021-10-08 10:50,KLAF 081050Z AUTO 09002KT 4SM BR OVC047 16/16 A3004 RMK T01600160 MADISHF
LAF,2021-10-08 10:54,KLAF 081054Z 00000KT 4SM BR OVC047 16/16 A3004 RMK AO2 SLP168 T01610161
LAF,2021-10-08 10:55,KLAF 081055Z AUTO 00000KT 5SM BR OVC047 17/17 A3004 RMK T01700170 MADISHF
LAF,2021-10-08 11:00,KLAF 081100Z AUTO 00000KT 10SM OVC047 17/17 A3004 RMK T01700170 MADISHF
LAF,2021-10-08 11:05,KLAF 081105Z AUTO 00000KT 9SM OVC047 17/17 A3004 RMK T01700170 MADISHF
LAF,2021-10-08 11:10,KLAF 081110Z AUTO 00000KT 7SM OVC046 17/17 A3004 RMK T01700170 MADISHF
LAF,2021-10-08 11:15,KLAF 081115Z AUTO 00000KT 6SM BR FEW009 OVC046 17/17 A3004 RMK T01700170 MADISHF
LAF,2021-10-08 11:20,KLAF 081120Z 00000KT 6SM BR SCT009 OVC046 17/17 A3004 RMK AO2 T01670167
LAF,2021-10-08 11:20,KLAF 081120Z AUTO 00000KT 6SM BR FEW009 OVC046 17/17 A3004 RMK T01700170 MADISHF
LAF,2021-10-08 11:25,KLAF 081125Z AUTO 00000KT 7SM FEW009 OVC046 17/17 A3004 RMK T01700170 MADISHF
LAF,2021-10-08 11:30,KLAF 081130Z AUTO 00000KT 7SM FEW009 OVC046 17/17 A3004 RMK T01700170 MADISHF
LAF,2021-10-08 11:35,KLAF 081135Z AUTO 00000KT 7SM FEW009 OVC046 17/17 A3004 RMK T01700170 MADISHF
LAF,2021-10-08 11:40,KLAF 081140Z AUTO 00000KT 8SM FEW009 OVC046 17/17 A3004 RMK T01700170 MADISHF
LAF,2021-10-08 11:45,KLAF 081145Z AUTO 00000KT 8SM OVC006 17/17 A3004 RMK T01700170 MADISHF
LAF,2021-10-08 11:49,KLAF 081149Z 00000KT 8SM OVC006 17/17 A3005 RMK AO2
LAF,2021-10-08 11:50,KLAF 081150Z AUTO 00000KT 8SM OVC006 17/17 A3004 RMK T01700170 MADISHF
LAF,2021-10-08 11:54,KLAF 081154Z 00000KT 9SM OVC006 17/17 A3005 RMK AO2 SLP172 70002 T01720167 10178 20161 51007
LAF,2021-10-08 11:55,KLAF 081155Z AUTO 00000KT 9SM OVC006 17/17 A3004 RMK T01700170 MADISHF
LAF,2021-10-08 12:00,KLAF 081200Z AUTO 00000KT 9SM OVC004 17/17 A3004 RMK T01700170 MADISHF
LAF,2021-10-08 12:05,KLAF 081205Z AUTO 00000KT 9SM OVC004 17/17 A3004 RMK T01700170 MADISHF
LAF,2021-10-08 12:10,KLAF 081210Z AUTO 00000KT 8SM OVC004 17/17 A3004 RMK T01700170 MADISHF
LAF,2021-10-08 12:15,KLAF 081215Z AUTO 00000KT 8SM OVC004 17/17 A3004 RMK T01700170 MADISHF
LAF,2021-10-08 12:17,KLAF 081217Z 00000KT 7SM OVC004 17/17 A3005 RMK AO2 T01720172
LAF,2021-10-08 12:20,KLAF 081220Z AUTO 00000KT 1SM BR OVC004 17/17 A3004 RMK T01700170 MADISHF
LAF,2021-10-08 12:23,KLAF 081223Z 25003KT 3/4SM BR OVC003 17/17 A3005 RMK AO2 T01720172
LAF,2021-10-08 12:25,KLAF 081225Z AUTO 25002KT 1SM BR OVC003 17/17 A3004 RMK T01700170 MADISHF
LAF,2021-10-08 12:30,KLAF 081230Z AUTO 27002KT 1SM BR OVC003 17/17 A3004 RMK T01700170 MADISHF
LAF,2021-10-08 12:35,KLAF 081235Z AUTO 25002KT 1/2SM FG VV002 17/17 A3004 RMK T01700170 MADISHF
LAF,2021-10-08 12:40,KLAF 081240Z AUTO 27004KT 1/2SM FG VV002 17/17 A3004 RMK T01700170 MADISHF
LAF,2021-10-08 12:45,KLAF 081245Z AUTO 24002KT 1/2SM FG VV002 17/17 A3004 RMK T01700170 MADISHF
LAF,2021-10-08 12:50,KLAF 081250Z AUTO 00000KT 1/2SM FG VV002 17/17 A3004 RMK T01700170 MADISHF
LAF,2021-10-08 12:54,KLAF 081254Z 21003KT 1/2SM FG VV002 17/17 A3005 RMK AO2 SLP174 T01720172
LAF,2021-10-08 12:55,KLAF 081255Z AUTO 22002KT 1/2SM FG VV002 17/17 A3004 RMK T01700170 MADISHF
LAF,2021-10-08 13:00,KLAF 081300Z AUTO 22002KT 1/2SM FG VV002 17/17 A3004 RMK T01700170 MADISHF
LAF,2021-10-08 13:05,KLAF 081305Z AUTO 00000KT 1/2SM FG VV002 17/17 A3004 RMK T01700170 MADISHF
LAF,2021-10-08 13:10,KLAF 081310Z AUTO 00000KT 1SM BR VV002 17/17 A3004 RMK T01700170 MADISHF
LAF,2021-10-08 13:15,KLAF 081315Z AUTO 00000KT 1SM BR OVC002 17/17 A3004 RMK T01700170 MADISHF
LAF,2021-10-08 13:16,KLAF 081316Z 29003KT 1SM BR OVC002 17/17 A3005 RMK AO2 T01720172
LAF,2021-10-08 13:20,KLAF 081320Z AUTO 28002KT 1SM BR OVC002 17/17 A3005 RMK T01700170 MADISHF
LAF,2021-10-08 13:25,KLAF 081325Z AUTO 00000KT 1SM BR OVC002 17/17 A3005 RMK T01700170 MADISHF
LAF,2021-10-08 13:30,KLAF 081330Z AUTO 00000KT 1SM BR OVC002 17/17 A3005 RMK T01700170 MADISHF
LAF,2021-10-08 13:35,KLAF 081335Z AUTO 00000KT 1SM BR OVC002 17/17 A3005 RMK T01700170 MADISHF
LAF,2021-10-08 13:40,KLAF 081340Z AUTO 26002KT 1SM BR OVC002 17/17 A3005 RMK T01700170 MADISHF
LAF,2021-10-08 13:45,KLAF 081345Z AUTO 27002KT 1SM BR OVC002 17/17 A3005 RMK T01700170 MADISHF
LAF,2021-10-08 13:50,KLAF 081350Z AUTO 27002KT 2SM BR OVC002 17/17 A3005 RMK T01700170 MADISHF
LAF,2021-10-08 13:54,KLAF 081354Z 00000KT 2SM BR OVC002 17/17 A3006 RMK AO2 SLP176 T01720172
LAF,2021-10-08 13:55,KLAF 081355Z AUTO 00000KT 2 1/2SM BR OVC002 17/17 A3005 RMK T01700170 MADISHF
LAF,2021-10-08 14:00,KLAF 081400Z AUTO 00000KT 2SM BR BKN002 OVC006 18/18 A3005 RMK T01800180 CIG 2V5  MADISHF
LAF,2021-10-08 14:05,KLAF 081405Z AUTO 00000KT 2SM BR OVC004 18/18 A3005 RMK T01800180 CIG 2V8  MADISHF
LAF,2021-10-08 14:10,KLAF 081410Z AUTO 00000KT 3SM BR OVC004 18/18 A3005 RMK T01800180 CIG 2V8  MADISHF
LAF,2021-10-08 14:15,KLAF 081415Z AUTO 00000KT 3SM BR OVC004 18/18 A3005 RMK T01800180 CIG 2V8  MADISHF
LAF,2021-10-08 14:16,KLAF 081416Z 00000KT 3SM BR OVC004 18/18 A3006 RMK AO2 CIG 002V008 T01830178
LAF,2021-10-08 14:20,KLAF 081420Z AUTO 00000KT 3SM BR OVC004 19/18 A3005 RMK T01900180 CIG 2V8  MADISHF
LAF,2021-10-08 14:25,KLAF 081425Z AUTO 00000KT 4SM BR OVC004 19/18 A3005 RMK T01900180 MADISHF
LAF,2021-10-08 14:26,KLAF 081426Z 00000KT 4SM BR OVC005 19/18 A3006 RMK AO2 T01890178
LAF,2021-10-08 14:30,KLAF 081430Z AUTO 00000KT 4SM BR OVC006 19/18 A3005 RMK T01900180 MADISHF
LAF,2021-10-08 14:35,KLAF 081435Z AUTO 00000KT 4SM BR OVC006 19/17 A3005 RMK T01900170 MADISHF
LAF,2021-10-08 14:40,KLAF 081440Z AUTO 00000KT 4SM BR OVC006 19/18 A3005 RMK T01900180 MADISHF
LAF,2021-10-08 14:45,KLAF 081445Z AUTO 00000KT 4SM BR OVC007 18/17 A3005 RMK T01800170 MADISHF
LAF,2021-10-08 14:50,KLAF 081450Z AUTO 23002KT 4SM BR OVC007 19/18 A3005 RMK T01900180 MADISHF
LAF,2021-10-08 14:54,KLAF 081454Z 00000KT 7SM OVC007 19/17 A3006 RMK AO2 SLP175 T01890172 50003
LAF,2021-10-08 14:55,KLAF 081455Z AUTO 24004KT 10SM OVC007 19/17 A3005 RMK T01900170 MADISHF
LAF,2021-10-08 15:00,KLAF 081500Z AUTO 24002KT 10SM OVC007 19/17 A3005 RMK T01900170 MADISHF
LAF,2021-10-08 15:05,KLAF 081505Z AUTO 21002KT 10SM OVC007 19/18 A3005 RMK T01900180 CIG 6V10  MADISHF
LAF,2021-10-08 15:10,KLAF 081510Z AUTO 22004KT 10SM OVC007 19/17 A3004 RMK T01900170 CIG 6V10  MADISHF
LAF,2021-10-08 15:15,KLAF 081515Z AUTO 21002KT 10SM OVC007 19/17 A3004 RMK T01900170 MADISHF
LAF,2021-10-08 15:20,KLAF 081520Z AUTO 21002KT 10SM OVC007 19/17 A3004 RMK T01900170 VRB03KT  MADISHF
LAF,2021-10-08 15:25,KLAF 081525Z AUTO 25002KT 10SM OVC007 19/17 A3004 RMK T01900170 MADISHF
LAF,2021-10-08 15:30,KLAF 081530Z AUTO 00000KT 10SM OVC007 19/17 A3004 RMK T01900170 MADISHF
LAF,2021-10-08 15:35,KLAF 081535Z AUTO 25005KT 10SM OVC007 19/17 A3004 RMK T01900170 MADISHF
LAF,2021-10-08 15:40,KLAF 081540Z AUTO 00000KT 10SM OVC007 19/17 A3004 RMK T01900170 MADISHF
LAF,2021-10-08 15:45,KLAF 081545Z AUTO 19002KT 10SM OVC007 19/17 A3004 RMK T01900170 VRB03KT  MADISHF
LAF,2021-10-08 15:50,KLAF 081550Z AUTO 19002KT 10SM OVC007 19/17 A3004 RMK T01900170 MADISHF
LAF,2021-10-08 15:54,KLAF 081554Z 16003KT 10SM BKN007 19/17 A3005 RMK AO2 SLP173 T01890172
LAF,2021-10-08 15:55,KLAF 081555Z AUTO 16002KT 10SM BKN007 19/18 A3004 RMK T01900180 VRB03KT  MADISHF
LAF,2021-10-08 16:00,KLAF 081600Z AUTO 15002KT 10SM BKN008 20/18 A3004 RMK T02000180 MADISHF
LAF,2021-10-08 16:05,KLAF 081605Z AUTO 18004KT 10SM BKN008 20/18 A3004 RMK T02000180 VRB04KT CIG 7V12  MADISHF
LAF,2021-10-08 16:10,KLAF 081610Z AUTO 00000KT 10SM BKN008 19/17 A3004 RMK T01900170 MADISHF
LAF,2021-10-08 16:15,KLAF 081615Z AUTO 20002KT 10SM BKN009 20/18 A3004 RMK T02000180 MADISHF
LAF,2021-10-08 16:20,KLAF 081620Z AUTO 00000KT 10SM BKN009 20/18 A3004 RMK T02000180 CIG 8V12  MADISHF
LAF,2021-10-08 16:25,KLAF 081625Z AUTO 00000KT 10SM BKN009 20/18 A3004 RMK T02000180 CIG 8V14  MADISHF
LAF,2021-10-08 16:30,KLAF 081630Z AUTO 25002KT 10SM BKN011 BKN070 21/18 A3004 RMK T02100180 MADISHF
LAF,2021-10-08 16:33,KLAF 081633Z 21003KT 10SM BKN011 BKN070 21/18 A3004 RMK AO2 T02060178
LAF,2021-10-08 16:35,KLAF 081635Z AUTO 22002KT 10SM SCT011 BKN070 21/18 A3004 RMK T02100180 VRB03KT  MADISHF
LAF,2021-10-08 16:40,KLAF 081640Z AUTO 23005KT 10SM BKN011 BKN070 21/18 A3004 RMK T02100180 MADISHF
LAF,2021-10-08 16:45,KLAF 081645Z AUTO 00000KT 10SM BKN011 BKN070 22/18 A3004 RMK T02200180 MADISHF
LAF,2021-10-08 16:50,KLAF 081650Z AUTO 18004KT 10SM BKN015 BKN070 22/18 A3004 RMK T02200180 MADISHF
LAF,2021-10-08 16:54,KLAF 081654Z VRB03KT 10SM BKN015 22/18 A3004 RMK AO2 SLP169 T02170183
LAF,2021-10-08 16:55,KLAF 081655Z AUTO 26002KT 10SM BKN015 22/18 A3004 RMK T02200180 VRB03KT  MADISHF
LAF,2021-10-08 17:00,KLAF 081700Z AUTO 00000KT 10SM BKN015 22/18 A3004 RMK T02200180 MADISHF
LAF,2021-10-08 17:05,KLAF 081705Z AUTO 25004KT 10SM BKN016 22/18 A3003 RMK T02200180 MADISHF
LAF,2021-10-08 17:10,KLAF 081710Z AUTO 27005KT 10SM SCT016 22/18 A3003 RMK T02200180 MADISHF
LAF,2021-10-08 17:15,KLAF 081715Z AUTO 25002KT 10SM SCT016 22/18 A3003 RMK T02200180 MADISHF
LAF,2021-10-08 17:20,KLAF 081720Z AUTO 00000KT 10SM BKN016 22/18 A3003 RMK T02200180 MADISHF
LAF,2021-10-08 17:25,KLAF 081725Z AUTO 21004KT 10SM BKN016 23/18 A3003 RMK T02300180  LTG DSNT S! MADISHF
LAF,2021-10-08 17:30,KLAF 081730Z AUTO 21002KT 10SM BKN016 BKN079 23/18 A3003 RMK T02300180 VRB03KT  MADISHF
LAF,2021-10-08 17:35,KLAF 081735Z AUTO 21004KT 10SM BKN016 BKN079 23/18 A3003 RMK T02300180  LTG DSNT S! MADISHF
LAF,2021-10-08 17:40,KLAF 081740Z AUTO 26005KT 10SM BKN075 23/17 A3002 RMK T02300170 VRB05KT  MADISHF
LAF,2021-10-08 17:42,KLAF 081742Z VRB03KT 10SM SCT032 SCT075 23/17 A3002 RMK AO2 T02280172
LAF,2021-10-08 17:45,KLAF 081745Z AUTO 25004KT 10SM SCT030 SCT075 23/17 A3002 RMK T02300170 MADISHF
LAF,2021-10-08 17:50,KLAF 081750Z AUTO 28004KT 10SM SCT030 SCT075 24/17 A3002 RMK T02400170 VRB04KT  MADISHF
LAF,2021-10-08 17:54,KLAF 081754Z 31003KT 10SM SCT030 SCT036 BKN075 24/18 A3002 RMK AO2 SLP163 T02390178 10239 20172 58012
LAF,2021-10-08 17:55,KLAF 081755Z AUTO 31004KT 10SM SCT032 BKN075 24/18 A3002 RMK T02400180 VRB04KT  MADISHF
LAF,2021-10-08 18:00,KLAF 081800Z AUTO 29005KT 10SM BKN031 BKN047 BKN075 24/18 A3002 RMK T02400180 VRB05KT  MADISHF
LAF,2021-10-08 18:05,KLAF 081805Z AUTO 28005KT 10SM BKN033 BKN047 BKN065 24/18 A3002 RMK T02400180 MADISHF
LAF,2021-10-08 18:10,KLAF 081810Z AUTO 25005KT 10SM FEW029 BKN033 BKN048 23/17 A3001 RMK T02300170 MADISHF
LAF,2021-10-08 18:15,KLAF 081815Z AUTO 00000KT 10SM SCT032 SCT044 BKN050 23/17 A3001 RMK T02300170 MADISHF
LAF,2021-10-08 18:20,KLAF 081820Z AUTO 24005KT 10SM FEW032 SCT046 SCT060 23/17 A3001 RMK T02300170 VRB05KT  MADISHF
LAF,2021-10-08 18:25,KLAF 081825Z AUTO 22005KT 10SM SCT033 SCT046 SCT060 24/17 A3001 RMK T02400170 MADISHF
LAF,2021-10-08 18:30,KLAF 081830Z AUTO 23005KT 10SM FEW033 FEW046 SCT060 24/17 A3000 RMK T02400170 MADISHF
LAF,2021-10-08 18:35,KLAF 081835Z AUTO 26005KT 10SM FEW033 23/17 A3000 RMK T02300170 MADISHF
LAF,2021-10-08 18:40,KLAF 081840Z AUTO 26009KT 10SM CLR 24/17 A3000 RMK T02400170 MADISHF
LAF,2021-10-08 18:45,KLAF 081845Z AUTO 26005KT 10SM FEW035 FEW045 FEW055 24/17 A3000 RMK T02400170 VRB06KT  MADISHF
LAF,2021-10-08 18:50,KLAF 081850Z AUTO 26007KT 10SM FEW035 SCT045 SCT055 24/17 A3000 RMK T02400170 WND 20V30  MADISHF
LAF,2021-10-08 18:54,KLAF 081854Z 26009KT 10SM FEW035 SCT045 SCT080 24/17 A3000 RMK AO2 SLP154 T02440167
LAF,2021-10-08 18:55,KLAF 081855Z AUTO 25009KT 10SM FEW037 SCT075 SCT085 24/17 A3000 RMK T02400170 MADISHF
LAF,2021-10-08 19:00,KLAF 081900Z AUTO 25007KT 10SM FEW037 BKN075 BKN085 24/17 A2998 RMK T02400170 MADISHF
LAF,2021-10-08 19:05,KLAF 081905Z AUTO 24005KT 10SM FEW037 FEW045 SCT075 24/16 A2998 RMK T02400160 MADISHF
LAF,2021-10-08 19:10,KLAF 081910Z AUTO /////KT 10SM SCT037 SCT045 BKN075 24/16 A2998 RMK T02400160 MADISHF
LAF,2021-10-08 19:15,KLAF 081915Z AUTO 22005KT 10SM FEW037 SCT045 BKN070 24/16 A2997 RMK T02400160 MADISHF
LAF,2021-10-08 19:20,KLAF 081920Z AUTO 23005KT 10SM FEW038 FEW046 BKN070 24/17 A2997 RMK T02400170 VRB05KT  MADISHF
LAF,2021-10-08 19:25,KLAF 081925Z AUTO 23007KT 10SM FEW038 FEW046 SCT070 25/17 A2997 RMK T02500170 WND 20V27  MADISHF
LAF,2021-10-08 19:30,KLAF 081930Z AUTO 23005KT 10SM FEW039 FEW047 FEW070 24/16 A2997 RMK T02400160 MADISHF
LAF,2021-10-08 19:35,KLAF 081935Z AUTO 25005KT 10SM FEW039 SCT047 SCT070 25/17 A2997 RMK T02500170 MADISHF
LAF,2021-10-08 19:40,KLAF 081940Z AUTO 25004KT 10SM SCT042 SCT055 24/17 A2997 RMK T02400170 MADISHF
LAF,2021-10-08 19:45,KLAF 081945Z AUTO 26005KT 10SM SCT042 SCT055 24/17 A2997 RMK T02400170 MADISHF
LAF,2021-10-08 19:50,KLAF 081950Z AUTO 27009KT 10SM BKN041 BKN050 25/17 A2997 RMK T02500170 MADISHF
LAF,2021-10-08 19:54,KLAF 081954Z 23005KT 10SM BKN041 BKN050 25/17 A2998 RMK AO2 SLP148 T02500167
LAF,2021-10-08 19:55,KLAF 081955Z AUTO 24005KT 10SM BKN041 BKN050 25/17 A2997 RMK T02500170 VRB06KT  MADISHF
LAF,2021-10-08 20:00,KLAF 082000Z AUTO 26010KT 10SM SCT041 BKN050 25/16 A2997 RMK T02500160 MADISHF
LAF,2021-10-08 20:05,KLAF 082005Z AUTO 26008KT 10SM SCT041 SCT055 25/16 A2996 RMK T02500160 MADISHF
LAF,2021-10-08 20:10,KLAF 082010Z AUTO 25008KT 10SM SCT041 SCT050 25/16 A2996 RMK T02500160 WND 22V28  MADISHF
LAF,2021-10-08 20:15,KLAF 082015Z AUTO 24005KT 10SM FEW041 24/16 A2996 RMK T02400160 MADISHF
LAF,2021-10-08 20:20,KLAF 082020Z AUTO 24009KT 10SM FEW043 25/16 A2996 RMK T02500160 MADISHF
LAF,2021-10-08 20:25,KLAF 082025Z AUTO 22005KT 10SM CLR 25/16 A2996 RMK T02500160 MADISHF
LAF,2021-10-08 20:30,KLAF 082030Z AUTO 24008KT 10SM CLR 25/16 A2996 RMK T02500160 MADISHF
LAF,2021-10-08 20:35,KLAF 082035Z AUTO 26005KT 10SM CLR 24/16 A2995 RMK T02400160 MADISHF
LAF,2021-10-08 20:40,KLAF 082040Z AUTO 27009KT 10SM CLR 24/16 A2995 RMK T02400160 MADISHF
LAF,2021-10-08 20:45,KLAF 082045Z AUTO 25008KT 10SM CLR 24/16 A2995 RMK T02400160 MADISHF
LAF,2021-10-08 20:50,KLAF 082050Z AUTO 25007KT 10SM CLR 24/16 A2996 RMK T02400160 MADISHF
LAF,2021-10-08 20:54,KLAF 082054Z 27010KT 10SM CLR 24/16 A2997 RMK AO2 SLP144 T02440156 56019
LAF,2021-10-08 20:55,KLAF 082055Z AUTO 27008KT 10SM CLR 24/16 A2995 RMK T02400160 MADISHF
LAF,2021-10-08 21:00,KLAF 082100Z AUTO 27009KT 10SM CLR 24/16 A2995 RMK T02400160 MADISHF
LAF,2021-10-08 21:05,KLAF 082105Z AUTO 27005KT 10SM CLR 24/16 A2996 RMK T02400160 MADISHF
LAF,2021-10-08 21:10,KLAF 082110Z AUTO 26005KT 10SM CLR 24/16 A2996 RMK T02400160 MADISHF
LAF,2021-10-08 21:15,KLAF 082115Z AUTO 27005KT 10SM CLR 24/16 A2995 RMK T02400160 MADISHF
LAF,2021-10-08 21:20,KLAF 082120Z AUTO 25005KT 10SM FEW041 24/16 A2995 RMK T02400160 MADISHF
LAF,2021-10-08 21:25,KLAF 082125Z AUTO 26005KT 10SM FEW041 24/16 A2996 RMK T02400160 MADISHF
LAF,2021-10-08 21:30,KLAF 082130Z AUTO 26004KT 10SM FEW041 24/16 A2996 RMK T02400160 MADISHF
LAF,2021-10-08 21:35,KLAF 082135Z AUTO 27005KT 10SM FEW041 24/17 A2996 RMK T02400170 MADISHF
LAF,2021-10-08 21:40,KLAF 082140Z AUTO 26005KT 10SM FEW041 23/16 A2996 RMK T02300160 MADISHF
LAF,2021-10-08 21:45,KLAF 082145Z AUTO 26005KT 10SM FEW041 23/16 A2996 RMK T02300160 MADISHF
LAF,2021-10-08 21:50,KLAF 082150Z AUTO 25005KT 10SM FEW041 24/16 A2996 RMK T02400160 MADISHF
LAF,2021-10-08 21:54,KLAF 082154Z 25005KT 10SM CLR 24/16 A2997 RMK AO2 SLP144 T02390161
LAF,2021-10-08 21:55,KLAF 082155Z AUTO 25004KT 10SM CLR 24/16 A2995 RMK T02400160 MADISHF
LAF,2021-10-08 22:00,KLAF 082200Z AUTO 27007KT 10SM CLR 24/16 A2995 RMK T02400160 MADISHF
LAF,2021-10-08 22:05,KLAF 082205Z AUTO 26005KT 10SM CLR 24/16 A2995 RMK T02400160 MADISHF
LAF,2021-10-08 22:10,KLAF 082210Z AUTO 26005KT 10SM CLR 24/16 A2995 RMK T02400160 MADISHF
LAF,2021-10-08 22:15,KLAF 082215Z AUTO 24005KT 10SM CLR 24/16 A2996 RMK T02400160 MADISHF
LAF,2021-10-08 22:20,KLAF 082220Z AUTO 26005KT 10SM CLR 24/16 A2996 RMK T02400160 MADISHF
LAF,2021-10-08 22:25,KLAF 082225Z AUTO 26005KT 10SM CLR 23/16 A2995 RMK T02300160 MADISHF
LAF,2021-10-08 22:30,KLAF 082230Z AUTO 25005KT 10SM FEW002 23/16 A2995 RMK T02300160 MADISHF
LAF,2021-10-08 22:35,KLAF 082235Z AUTO 26005KT 10SM FEW002 23/16 A2996 RMK T02300160 MADISHF
LAF,2021-10-08 22:36,KLAF 082236Z 26005KT 10SM FEW002 23/16 A2997 RMK AO2 T02330156
LAF,2021-10-08 22:40,KLAF 082240Z AUTO 26007KT 10SM FEW002 23/16 A2996 RMK T02300160 MADISHF
LAF,2021-10-08 22:45,KLAF 082245Z AUTO 26005KT 10SM FEW002 23/16 A2996 RMK T02300160 MADISHF
LAF,2021-10-08 22:50,KLAF 082250Z AUTO 28005KT 10SM FEW003 22/16 A2996 RMK T02200160 MADISHF
LAF,2021-10-08 22:54,KLAF 082254Z 28004KT 10SM FEW003 22/16 A2997 RMK AO2 SLP147 T02170161
LAF,2021-10-08 22:55,KLAF 082255Z AUTO 28004KT 10SM FEW003 22/16 A2996 RMK T02200160 MADISHF
LAF,2021-10-08 23:00,KLAF 082300Z AUTO 27002KT 10SM SCT028 21/16 A2996 RMK T02100160 MADISHF
LAF,2021-10-08 23:05,KLAF 082305Z AUTO 00000KT 10SM SCT028 22/16 A2996 RMK T02200160 MADISHF
LAF,2021-10-08 23:10,KLAF 082310Z AUTO 00000KT 10SM SCT028 22/16 A2996 RMK T02200160 MADISHF
LAF,2021-10-08 23:15,KLAF 082315Z AUTO 31002KT 10SM SCT028 21/16 A2996 RMK T02100160 MADISHF
LAF,2021-10-08 23:20,KLAF 082320Z AUTO 00000KT 10SM SCT028 21/16 A2997 RMK T02100160 MADISHF
LAF,2021-10-08 23:25,KLAF 082325Z AUTO 29002KT 10SM SCT028 21/16 A2997 RMK T02100160 MADISHF
LAF,2021-10-08 23:30,KLAF 082330Z AUTO 30002KT 10SM SCT028 21/16 A2997 RMK T02100160 MADISHF
LAF,2021-10-08 23:35,KLAF 082335Z AUTO 31002KT 10SM SCT028 20/16 A2997 RMK T02000160 MADISHF
LAF,2021-10-08 23:40,KLAF 082340Z AUTO 31002KT 10SM SCT028 20/16 A2997 RMK T02000160 MADISHF
LAF,2021-10-08 23:45,KLAF 082345Z AUTO 30002KT 10SM SCT028 21/16 A2997 RMK T02100160 MADISHF
LAF,2021-10-08 23:50,KLAF 082350Z AUTO 00000KT 10SM CLR 21/16 A2997 RMK T02100160 MADISHF
LAF,2021-10-08 23:54,KLAF 082354Z 00000KT 10SM CLR 21/16 A2998 RMK AO2 SLP149 T02060156 10250 20200 53004
LAF,2021-10-08 23:55,KLAF 082355Z AUTO 00000KT 10SM CLR 21/16 A2997 RMK T02100160 MADISHF
LAF,2021-10-09 00:00,KLAF 090000Z AUTO 00000KT 10SM CLR 20/16 A2997 RMK T02000160 MADISHF
LAF,2021-10-09 00:05,KLAF 090005Z AUTO 00000KT 10SM CLR 19/16 A2997 RMK T01900160 MADISHF
LAF,2021-10-09 00:10,KLAF 090010Z AUTO 00000KT 10SM CLR 19/16 A2997 RMK T01900160 MADISHF
LAF,2021-10-09 00:15,KLAF 090015Z AUTO 23002KT 10SM CLR 18/17 A2997 RMK T01800170 MADISHF
LAF,2021-10-09 00:20,KLAF 090020Z AUTO 00000KT 10SM CLR 18/17 A2997 RMK T01800170 MADISHF
LAF,2021-10-09 00:25,KLAF 090025Z AUTO 00000KT 10SM FEW120 18/17 A2998 RMK T01800170 MADISHF
LAF,2021-10-09 00:30,KLAF 090030Z AUTO 00000KT 10SM BKN120 18/17 A2998 RMK T01800170 MADISHF
LAF,2021-10-09 00:35,KLAF 090035Z AUTO 00000KT 10SM BKN120 18/17 A2998 RMK T01800170 MADISHF
LAF,2021-10-09 00:40,KLAF 090040Z AUTO 00000KT 10SM BKN110 18/17 A2998 RMK T01800170 MADISHF
LAF,2021-10-09 00:45,KLAF 090045Z AUTO 00000KT 10SM BKN110 19/17 A2998 RMK T01900170 MADISHF
LAF,2021-10-09 00:50,KLAF 090050Z AUTO 00000KT 10SM OVC110 18/17 A3000 RMK T01800170 MADISHF
LAF,2021-10-09 00:54,KLAF 090054Z AUTO 00000KT 10SM OVC110 18/17 A2999 RMK AO2 SLP154 T01780167
LAF,2021-10-09 00:55,KLAF 090055Z AUTO 00000KT 10SM OVC110 18/17 A2998 RMK T01800170 MADISHF
LAF,2021-10-09 01:00,KLAF 090100Z AUTO 00000KT 10SM OVC100 18/17 A3000 RMK T01800170 MADISHF
LAF,2021-10-09 01:05,KLAF 090105Z AUTO 00000KT 10SM OVC100 19/17 A2998 RMK T01900170 MADISHF
LAF,2021-10-09 01:10,KLAF 090110Z AUTO 00000KT 10SM BKN100 19/17 A2998 RMK T01900170 MADISHF
LAF,2021-10-09 01:15,KLAF 090115Z AUTO 00000KT 10SM BKN100 18/17 A2998 RMK T01800170 MADISHF
LAF,2021-10-09 01:20,KLAF 090120Z AUTO 00000KT 10SM BKN100 18/17 A2998 RMK T01800170 MADISHF
LAF,2021-10-09 01:25,KLAF 090125Z AUTO 00000KT 10SM BKN100 18/17 A2998 RMK T01800170 MADISHF
LAF,2021-10-09 01:30,KLAF 090130Z AUTO 00000KT 10SM BKN100 18/17 A2998 RMK T01800170 MADISHF
LAF,2021-10-09 01:35,KLAF 090135Z AUTO 00000KT 10SM BKN100 18/16 A3000 RMK T01800160 MADISHF
LAF,2021-10-09 01:40,KLAF 090140Z AUTO 00000KT 10SM BKN100 18/16 A3000 RMK T01800160 MADISHF
LAF,2021-10-09 01:45,KLAF 090145Z AUTO 00000KT 10SM BKN100 18/16 A3000 RMK T01800160 MADISHF
LAF,2021-10-09 01:50,KLAF 090150Z AUTO 00000KT 10SM OVC100 18/16 A3000 RMK T01800160 MADISHF
LAF,2021-10-09 01:54,KLAF 090154Z AUTO 00000KT 10SM OVC100 18/16 A3000 RMK AO2 SLP156 T01780161
LAF,2021-10-09 01:55,KLAF 090155Z AUTO 00000KT 10SM OVC100 18/17 A3000 RMK T01800170 MADISHF
LAF,2021-10-09 02:00,KLAF 090200Z AUTO 00000KT 10SM OVC100 18/17 A3000 RMK T01800170 MADISHF
LAF,2021-10-09 02:05,KLAF 090205Z AUTO 00000KT 10SM BKN100 18/16 A3000 RMK T01800160 MADISHF
LAF,2021-10-09 02:10,KLAF 090210Z AUTO 00000KT 10SM BKN100 BKN110 18/16 A3000 RMK T01800160 MADISHF
LAF,2021-10-09 02:15,KLAF 090215Z AUTO 00000KT 10SM SCT100 BKN110 18/16 A3000 RMK T01800160 MADISHF
LAF,2021-10-09 02:20,KLAF 090220Z AUTO 00000KT 10SM SCT100 BKN110 18/17 A3000 RMK T01800170 MADISHF
LAF,2021-10-09 02:25,KLAF 090225Z AUTO 00000KT 10SM SCT095 BKN110 17/17 A3000 RMK T01700170 MADISHF
LAF,2021-10-09 02:30,KLAF 090230Z AUTO 00000KT 10SM SCT095 BKN110 17/17 A3000 RMK T01700170 MADISHF
LAF,2021-10-09 02:35,KLAF 090235Z AUTO 00000KT 9SM BKN100 BKN110 17/17 A3000 RMK T01700170 MADISHF
LAF,2021-10-09 02:40,KLAF 090240Z AUTO 00000KT 10SM BKN100 17/17 A3000 RMK T01700170 MADISHF
LAF,2021-10-09 02:45,KLAF 090245Z AUTO 00000KT 10SM OVC100 17/17 A3000 RMK T01700170 MADISHF
LAF,2021-10-09 02:50,KLAF 090250Z AUTO 00000KT 10SM OVC100 17/17 A3000 RMK T01700170 MADISHF
LAF,2021-10-09 02:54,KLAF 090254Z AUTO 00000KT 10SM OVC100 17/17 A3000 RMK AO2 SLP157 T01720167 51008
LAF,2021-10-09 02:55,KLAF 090255Z AUTO 00000KT 10SM OVC100 17/17 A3000 RMK T01700170 MADISHF
LAF,2021-10-09 03:00,KLAF 090300Z AUTO 00000KT 8SM OVC100 17/17 A3000 RMK T01700170 MADISHF
LAF,2021-10-09 03:05,KLAF 090305Z AUTO 00000KT 8SM OVC100 17/17 A3000 RMK T01700170 MADISHF
LAF,2021-10-09 03:10,KLAF 090310Z AUTO 00000KT 9SM OVC100 17/17 A3000 RMK T01700170 MADISHF
LAF,2021-10-09 03:15,KLAF 090315Z AUTO 00000KT 10SM OVC100 17/17 A3000 RMK T01700170 MADISHF
LAF,2021-10-09 03:20,KLAF 090320Z AUTO 00000KT 10SM OVC100 17/16 A3000 RMK T01700160 MADISHF
LAF,2021-10-09 03:25,KLAF 090325Z AUTO 00000KT 10SM OVC100 17/17 A3000 RMK T01700170 MADISHF
LAF,2021-10-09 03:30,KLAF 090330Z AUTO 00000KT 10SM OVC100 17/16 A3001 RMK T01700160 MADISHF
LAF,2021-10-09 03:35,KLAF 090335Z AUTO 00000KT 10SM OVC100 17/17 A3000 RMK T01700170 MADISHF
LAF,2021-10-09 03:40,KLAF 090340Z AUTO 00000KT 10SM OVC100 17/17 A3000 RMK T01700170 MADISHF
LAF,2021-10-09 03:45,KLAF 090345Z AUTO 00000KT 10SM OVC100 17/17 A3000 RMK T01700170 MADISHF
LAF,2021-10-09 03:50,KLAF 090350Z AUTO 00000KT 10SM OVC100 17/17 A3000 RMK T01700170 MADISHF
LAF,2021-10-09 03:54,KLAF 090354Z AUTO 00000KT 10SM OVC100 17/17 A3000 RMK AO2 SLP158 T01720167
LAF,2021-10-09 03:55,KLAF 090355Z AUTO 00000KT 10SM OVC100 17/17 A3000 RMK T01700170 MADISHF
LAF,2021-10-09 04:00,KLAF 090400Z AUTO 00000KT 10SM OVC100 18/17 A3001 RMK T01800170 MADISHF
LAF,2021-10-09 04:05,KLAF 090405Z AUTO 00000KT 10SM OVC100 18/17 A3000 RMK T01800170 MADISHF
LAF,2021-10-09 04:10,KLAF 090410Z AUTO 00000KT 10SM OVC100 18/17 A3000 RMK T01800170 MADISHF
LAF,2021-10-09 04:15,KLAF 090415Z AUTO 00000KT 10SM OVC100 18/17 A3000 RMK T01800170 MADISHF
LAF,2021-10-09 04:20,KLAF 090420Z AUTO 00000KT 10SM BKN100 17/17 A3000 RMK T01700170 MADISHF
LAF,2021-10-09 04:25,KLAF 090425Z AUTO 00000KT 10SM SCT100 17/17 A3000 RMK T01700170 MADISHF
LAF,2021-10-09 04:30,KLAF 090430Z AUTO 00000KT 10SM SCT100 17/17 A3000 RMK T01700170 MADISHF
LAF,2021-10-09 04:35,KLAF 090435Z AUTO 00000KT 9SM FEW100 17/17 A3000 RMK T01700170 MADISHF
LAF,2021-10-09 04:40,KLAF 090440Z AUTO 00000KT 7SM FEW100 17/17 A3000 RMK T01700170 MADISHF
LAF,2021-10-09 04:45,KLAF 090445Z AUTO 00000KT 7SM CLR 17/17 A3000 RMK T01700170 MADISHF
LAF,2021-10-09 04:50,KLAF 090450Z AUTO 00000KT 5SM BR CLR 17/17 A3000 RMK T01700170 MADISHF
LAF,2021-10-09 04:54,KLAF 090454Z AUTO 00000KT 4SM BR CLR 17/16 A3000 RMK AO2 SLP155 T01670161 402500161
LAF,2021-10-09 04:55,KLAF 090455Z AUTO 00000KT 4SM BR CLR 17/16 A3000 RMK T01700160 MADISHF
LAF,2021-10-09 05:00,KLAF 090500Z AUTO 00000KT 5SM BR CLR 17/16 A3000 RMK T01700160 MADISHF
LAF,2021-10-09 05:05,KLAF 090505Z AUTO 00000KT 7SM CLR 17/16 A3000 RMK T01700160 MADISHF
LAF,2021-10-09 05:10,KLAF 090510Z AUTO 29002KT 8SM CLR 16/16 A3000 RMK T01600160 MADISHF
LAF,2021-10-09 05:15,KLAF 090515Z AUTO 00000KT 10SM CLR 16/16 A3000 RMK T01600160 MADISHF
LAF,2021-10-09 05:20,KLAF 090520Z AUTO 00000KT 10SM CLR 16/16 A2998 RMK T01600160 MADISHF
LAF,2021-10-09 05:25,KLAF 090525Z AUTO 00000KT 10SM CLR 16/16 A2998 RMK T01600160 MADISHF
LAF,2021-10-09 05:30,KLAF 090530Z AUTO 00000KT 10SM CLR 16/16 A3000 RMK T01600160 MADISHF
LAF,2021-10-09 05:35,KLAF 090535Z AUTO 00000KT 7SM CLR 16/16 A3000 RMK T01600160 MADISHF
LAF,2021-10-09 05:40,KLAF 090540Z AUTO 00000KT 5SM BR CLR 16/16 A3000 RMK T01600160 MADISHF
LAF,2021-10-09 05:45,KLAF 090545Z AUTO 00000KT 5SM BR CLR 16/16 A2998 RMK T01600160 MADISHF
LAF,2021-10-09 05:50,KLAF 090550Z AUTO 00000KT 7SM CLR 16/16 A3000 RMK T01600160 MADISHF
LAF,2021-10-09 05:54,KLAF 090554Z AUTO 00000KT 8SM CLR 16/16 A3000 RMK AO2 SLP154 T01610161 10206 20156 58003
LAF,2021-10-09 05:55,KLAF 090555Z AUTO 00000KT 8SM CLR 16/16 A3000 RMK T01600160 MADISHF
LAF,2021-10-09 06:00,KLAF 090600Z AUTO 00000KT 9SM CLR 16/16 A2998 RMK T01600160 MADISHF
LAF,2021-10-09 06:05,KLAF 090605Z AUTO 00000KT 10SM CLR 16/16 A2998 RMK T01600160 MADISHF
LAF,2021-10-09 06:10,KLAF 090610Z AUTO 00000KT 10SM CLR 16/16 A3000 RMK T01600160 MADISHF
LAF,2021-10-09 06:15,KLAF 090615Z AUTO 00000KT 10SM CLR 16/16 A3000 RMK T01600160 MADISHF
LAF,2021-10-09 06:20,KLAF 090620Z AUTO 00000KT 10SM CLR 16/16 A2998 RMK T01600160 MADISHF
LAF,2021-10-09 06:25,KLAF 090625Z AUTO 00000KT 9SM CLR 16/16 A2998 RMK T01600160 MADISHF
LAF,2021-10-09 06:30,KLAF 090630Z AUTO 00000KT 7SM SCT090 16/16 A3000 RMK T01600160 MADISHF
LAF,2021-10-09 06:35,KLAF 090635Z AUTO 00000KT 7SM BKN090 16/16 A3000 RMK T01600160 MADISHF
LAF,2021-10-09 06:40,KLAF 090640Z AUTO 00000KT 9SM BKN090 16/16 A3000 RMK T01600160 MADISHF
LAF,2021-10-09 06:45,KLAF 090645Z AUTO 00000KT 8SM BKN090 17/16 A3000 RMK T01700160 MADISHF
LAF,2021-10-09 06:50,KLAF 090650Z AUTO 00000KT 9SM OVC090 17/16 A3000 RMK T01700160 MADISHF
LAF,2021-10-09 06:54,KLAF 090654Z AUTO 00000KT 9SM OVC090 17/16 A2999 RMK AO2 SLP153 T01670161
LAF,2021-10-09 06:55,KLAF 090655Z AUTO 00000KT 9SM OVC090 17/16 A2998 RMK T01700160 MADISHF
LAF,2021-10-09 07:00,KLAF 090700Z AUTO 00000KT 10SM OVC095 17/16 A2998 RMK T01700160 MADISHF
LAF,2021-10-09 07:05,KLAF 090705Z AUTO 00000KT 10SM OVC095 17/16 A3000 RMK T01700160 MADISHF
LAF,2021-10-09 07:10,KLAF 090710Z AUTO 00000KT 10SM OVC095 17/16 A3000 RMK T01700160 MADISHF
LAF,2021-10-09 07:15,KLAF 090715Z AUTO 00000KT 10SM BKN090 OVC100 17/16 A3000 RMK T01700160 MADISHF
LAF,2021-10-09 07:20,KLAF 090720Z AUTO 00000KT 10SM BKN085 OVC100 17/16 A2998 RMK T01700160 MADISHF
LAF,2021-10-09 07:25,KLAF 090725Z AUTO 00000KT 10SM BKN090 OVC100 17/16 A2998 RMK T01700160 MADISHF
LAF,2021-10-09 07:30,KLAF 090730Z AUTO 00000KT 10SM OVC090 17/16 A2998 RMK T01700160 MADISHF
LAF,2021-10-09 07:35,KLAF 090735Z AUTO 00000KT 10SM OVC090 17/17 A2998 RMK T01700170 MADISHF
LAF,2021-10-09 07:40,KLAF 090740Z AUTO 00000KT 10SM OVC090 17/16 A2998 RMK T01700160 MADISHF
LAF,2021-10-09 07:45,KLAF 090745Z AUTO 00000KT 10SM OVC090 17/17 A2998 RMK T01700170 MADISHF
LAF,2021-10-09 07:50,KLAF 090750Z AUTO 00000KT 10SM OVC090 17/17 A2997 RMK T01700170 MADISHF
LAF,2021-10-09 07:54,KLAF 090754Z AUTO 00000KT 10SM BKN090 OVC110 17/17 A2998 RMK AO2 SLP150 T01720167
LAF,2021-10-09 07:55,KLAF 090755Z AUTO 00000KT 10SM BKN090 OVC110 17/17 A2997 RMK T01700170 MADISHF
LAF,2021-10-09 08:00,KLAF 090800Z AUTO 00000KT 10SM BKN090 OVC110 17/16 A2997 RMK T01700160 MADISHF
LAF,2021-10-09 08:05,KLAF 090805Z AUTO 00000KT 10SM SCT090 OVC110 17/16 A2997 RMK T01700160 MADISHF
LAF,2021-10-09 08:10,KLAF 090810Z AUTO 00000KT 10SM SCT090 OVC110 17/16 A2997 RMK T01700160 MADISHF
LAF,2021-10-09 08:15,KLAF 090815Z AUTO 00000KT 10SM FEW090 OVC110 17/16 A2997 RMK T01700160 MADISHF
LAF,2021-10-09 08:20,KLAF 090820Z AUTO 00000KT 10SM OVC110 17/16 A2997 RMK T01700160 MADISHF
LAF,2021-10-09 08:25,KLAF 090825Z AUTO 00000KT 10SM BKN110 17/16 A2997 RMK T01700160 MADISHF
LAF,2021-10-09 08:30,KLAF 090830Z AUTO 00000KT 10SM BKN110 16/16 A2997 RMK T01600160 MADISHF
LAF,2021-10-09 08:35,KLAF 090835Z AUTO 00000KT 9SM SCT110 17/16 A2997 RMK T01700160 MADISHF
LAF,2021-10-09 08:40,KLAF 090840Z AUTO 00000KT 9SM FEW110 17/16 A2997 RMK T01700160 MADISHF
LAF,2021-10-09 08:45,KLAF 090845Z AUTO 00000KT 10SM FEW110 17/16 A2997 RMK T01700160 MADISHF
LAF,2021-10-09 08:50,KLAF 090850Z AUTO 04002KT 10SM CLR 17/16 A2996 RMK T01700160 MADISHF
LAF,2021-10-09 08:54,KLAF 090854Z AUTO 00000KT 10SM CLR 17/16 A2997 RMK AO2 SLP146 T01670156 58007
LAF,2021-10-09 08:55,KLAF 090855Z AUTO 05002KT 10SM FEW110 16/16 A2996 RMK T01600160 MADISHF
LAF,2021-10-09 09:00,KLAF 090900Z AUTO 06002KT 10SM FEW110 16/16 A2996 RMK T01600160 MADISHF
LAF,2021-10-09 09:05,KLAF 090905Z AUTO 07002KT 10SM FEW110 16/16 A2996 RMK T01600160 MADISHF
LAF,2021-10-09 09:10,KLAF 090910Z AUTO 08002KT 10SM CLR 16/15 A2996 RMK T01600150 MADISHF
LAF,2021-10-09 09:15,KLAF 090915Z AUTO 09002KT 10SM CLR 16/15 A2996 RMK T01600150 MADISHF
LAF,2021-10-09 09:20,KLAF 090920Z AUTO 00000KT 10SM CLR 16/15 A2996 RMK T01600150 MADISHF
LAF,2021-10-09 09:25,KLAF 090925Z AUTO 00000KT 10SM CLR 16/15 A2996 RMK T01600150 MADISHF
LAF,2021-10-09 09:30,KLAF 090930Z AUTO 11002KT 8SM CLR 16/15 A2996 RMK T01600150 MADISHF
LAF,2021-10-09 09:35,KLAF 090935Z AUTO 00000KT 7SM CLR 15/15 A2996 RMK T01500150 MADISHF
LAF,2021-10-09 09:40,KLAF 090940Z AUTO 00000KT 7SM CLR 16/15 A2996 RMK T01600150 MADISHF
LAF,2021-10-09 09:45,KLAF 090945Z AUTO 00000KT 7SM CLR 16/15 A2996 RMK T01600150 MADISHF
LAF,2021-10-09 09:50,KLAF 090950Z AUTO 00000KT 7SM CLR 16/16 A2996 RMK T01600160 MADISHF
LAF,2021-10-09 09:54,KLAF 090954Z AUTO 00000KT 7SM CLR 16/15 A2996 RMK AO2 SLP143 T01560150
LAF,2021-10-09 09:55,KLAF 090955Z AUTO 00000KT 7SM CLR 16/15 A2995 RMK T01600150 MADISHF
LAF,2021-10-09 10:00,KLAF 091000Z AUTO 00000KT 7SM CLR 16/16 A2996 RMK T01600160 MADISHF
LAF,2021-10-09 10:05,KLAF 091005Z AUTO 00000KT 7SM CLR 16/15 A2996 RMK T01600150 MADISHF
LAF,2021-10-09 10:10,KLAF 091010Z AUTO 00000KT 8SM CLR 16/15 A2996 RMK T01600150 MADISHF
LAF,2021-10-09 10:15,KLAF 091015Z AUTO 00000KT 8SM CLR 16/16 A2996 RMK T01600160 MADISHF
LAF,2021-10-09 10:20,KLAF 091020Z AUTO 00000KT 8SM CLR 16/15 A2996 RMK T01600150 MADISHF
LAF,2021-10-09 10:25,KLAF 091025Z AUTO 00000KT 8SM CLR 16/15 A2997 RMK T01600150 MADISHF
LAF,2021-10-09 10:30,KLAF 091030Z AUTO 00000KT 8SM CLR 15/15 A2997 RMK T01500150 MADISHF
LAF,2021-10-09 10:35,KLAF 091035Z AUTO 00000KT 9SM CLR 16/15 A2997 RMK T01600150 MADISHF
LAF,2021-10-09 10:40,KLAF 091040Z AUTO 00000KT 10SM CLR 16/15 A2997 RMK T01600150 MADISHF
LAF,2021-10-09 10:45,KLAF 091045Z AUTO 00000KT 10SM CLR 15/15 A2997 RMK T01500150 MADISHF
LAF,2021-10-09 10:50,KLAF 091050Z AUTO 10002KT 10SM CLR 16/15 A2996 RMK T01600150 MADISHF
LAF,2021-10-09 10:54,KLAF 091054Z 00000KT 10SM CLR 16/15 A2997 RMK AO2 SLP147 T01560150
LAF,2021-10-09 10:55,KLAF 091055Z AUTO 00000KT 10SM CLR 16/15 A2996 RMK T01600150 MADISHF
LAF,2021-10-09 11:00,KLAF 091100Z AUTO 00000KT 10SM CLR 16/15 A2997 RMK T01600150 MADISHF
LAF,2021-10-09 11:05,KLAF 091105Z AUTO 00000KT 10SM CLR 16/15 A2997 RMK T01600150 MADISHF
LAF,2021-10-09 11:10,KLAF 091110Z AUTO 00000KT 10SM CLR 15/14 A2997 RMK T01500140 MADISHF
LAF,2021-10-09 11:15,KLAF 091115Z AUTO 00000KT 10SM CLR 16/14 A2997 RMK T01600140 MADISHF
LAF,2021-10-09 11:20,KLAF 091120Z AUTO 00000KT 10SM CLR 15/14 A2997 RMK T01500140 MADISHF
LAF,2021-10-09 11:25,KLAF 091125Z AUTO 00000KT 9SM CLR 16/15 A2997 RMK T01600150 MADISHF
LAF,2021-10-09 11:30,KLAF 091130Z AUTO 00000KT 8SM CLR 15/14 A2997 RMK T01500140 MADISHF
LAF,2021-10-09 11:35,KLAF 091135Z AUTO 00000KT 6SM BR CLR 15/14 A2997 RMK T01500140 MADISHF
LAF,2021-10-09 11:40,KLAF 091140Z AUTO 00000KT 2 1/2SM BR CLR 15/15 A2997 RMK T01500150 MADISHF
LAF,2021-10-09 11:45,KLAF 091145Z AUTO 00000KT 10SM CLR 15/15 A2997 RMK T01500150 MADISHF
LAF,2021-10-09 11:50,KLAF 091150Z AUTO 00000KT 10SM CLR 15/15 A2997 RMK T01500150 MADISHF
LAF,2021-10-09 11:54,KLAF 091154Z 00000KT 10SM CLR 15/15 A2998 RMK AO2 SLP151 T01500150 10172 20150 53003
LAF,2021-10-09 11:55,KLAF 091155Z AUTO 00000KT 6SM BR CLR 15/15 A2997 RMK T01500150 MADISHF
LAF,2021-10-09 12:00,KLAF 091200Z AUTO 00000KT 6SM BR CLR 15/15 A2997 RMK T01500150 MADISHF
LAF,2021-10-09 12:05,KLAF 091205Z AUTO 00000KT 6SM BR CLR 15/15 A2997 RMK T01500150 MADISHF
LAF,2021-10-09 12:10,KLAF 091210Z AUTO 00000KT 7SM CLR 15/14 A2997 RMK T01500140 MADISHF
LAF,2021-10-09 12:15,KLAF 091215Z AUTO 00000KT 8SM CLR 15/15 A2997 RMK T01500150 MADISHF
LAF,2021-10-09 12:20,KLAF 091220Z AUTO 00000KT 9SM CLR 15/15 A2997 RMK T01500150 MADISHF
LAF,2021-10-09 12:25,KLAF 091225Z AUTO 00000KT 9SM CLR 16/15 A2997 RMK T01600150 MADISHF
LAF,2021-10-09 12:30,KLAF 091230Z AUTO 00000KT 9SM CLR 16/15 A2997 RMK T01600150 MADISHF
LAF,2021-10-09 12:35,KLAF 091235Z AUTO 00000KT 9SM CLR 16/15 A2997 RMK T01600150 MADISHF
LAF,2021-10-09 12:40,KLAF 091240Z AUTO 00000KT 10SM CLR 16/16 A2997 RMK T01600160 MADISHF
LAF,2021-10-09 12:45,KLAF 091245Z AUTO 00000KT 10SM CLR 17/16 A2997 RMK T01700160 MADISHF
LAF,2021-10-09 12:50,KLAF 091250Z AUTO 00000KT 10SM CLR 17/16 A2997 RMK T01700160 MADISHF
LAF,2021-10-09 12:54,KLAF 091254Z 00000KT 10SM CLR 17/16 A2998 RMK AO2 SLP150 T01670156
LAF,2021-10-09 12:55,KLAF 091255Z AUTO 00000KT 10SM CLR 17/16 A2997 RMK T01700160 MADISHF
LAF,2021-10-09 13:00,KLAF 091300Z AUTO 00000KT 10SM CLR 17/16 A2998 RMK T01700160 MADISHF
LAF,2021-10-09 13:05,KLAF 091305Z AUTO 00000KT 10SM CLR 17/16 A2998 RMK T01700160 MADISHF
LAF,2021-10-09 13:10,KLAF 091310Z AUTO 00000KT 10SM CLR 17/16 A2997 RMK T01700160 MADISHF
LAF,2021-10-09 13:15,KLAF 091315Z AUTO 00000KT 10SM CLR 18/16 A2997 RMK T01800160 MADISHF
LAF,2021-10-09 13:20,KLAF 091320Z AUTO 00000KT 10SM CLR 18/16 A2997 RMK T01800160 MADISHF
LAF,2021-10-09 13:25,KLAF 091325Z AUTO 00000KT 10SM CLR 18/16 A2997 RMK T01800160 MADISHF
LAF,2021-10-09 13:30,KLAF 091330Z AUTO 00000KT 10SM CLR 18/16 A2997 RMK T01800160 MADISHF
LAF,2021-10-09 13:35,KLAF 091335Z AUTO 00000KT 10SM CLR 18/16 A2997 RMK T01800160 MADISHF
LAF,2021-10-09 13:40,KLAF 091340Z AUTO 00000KT 10SM CLR 18/16 A2997 RMK T01800160 MADISHF
LAF,2021-10-09 13:45,KLAF 091345Z AUTO 00000KT 10SM CLR 18/16 A2997 RMK T01800160 MADISHF
LAF,2021-10-09 13:50,KLAF 091350Z AUTO 00000KT 10SM CLR 19/16 A2997 RMK T01900160 MADISHF
LAF,2021-10-09 13:54,KLAF 091354Z 00000KT 10SM CLR 19/17 A2998 RMK AO2 SLP149 T01890167
LAF,2021-10-09 13:55,KLAF 091355Z AUTO 13002KT 10SM CLR 19/17 A2997 RMK T01900170 VRB03KT  MADISHF
LAF,2021-10-09 14:00,KLAF 091400Z AUTO 00000KT 10SM CLR 19/17 A2997 RMK T01900170 MADISHF
LAF,2021-10-09 14:05,KLAF 091405Z AUTO 16002KT 10SM CLR 20/17 A2997 RMK T02000170 VRB03KT  MADISHF
LAF,2021-10-09 14:10,KLAF 091410Z AUTO 00000KT 10SM CLR 20/17 A2997 RMK T02000170 MADISHF
LAF,2021-10-09 14:15,KLAF 091415Z AUTO 00000KT 10SM CLR 20/17 A2997 RMK T02000170 MADISHF
LAF,2021-10-09 14:20,KLAF 091420Z AUTO 00000KT 10SM CLR 21/17 A2996 RMK T02100170 MADISHF
LAF,2021-10-09 14:25,KLAF 091425Z AUTO 16002KT 10SM CLR 21/17 A2996 RMK T02100170 MADISHF
LAF,2021-10-09 14:30,KLAF 091430Z AUTO 00000KT 10SM CLR 21/17 A2996 RMK T02100170 MADISHF
LAF,2021-10-09 14:35,KLAF 091435Z AUTO 14004KT 10SM CLR 22/17 A2996 RMK T02200170 MADISHF
LAF,2021-10-09 14:40,KLAF 091440Z AUTO 13002KT 10SM CLR 22/17 A2996 RMK T02200170 VRB03KT  MADISHF
LAF,2021-10-09 14:45,KLAF 091445Z AUTO 11004KT 10SM CLR 22/17 A2996 RMK T02200170 MADISHF
LAF,2021-10-09 14:50,KLAF 091450Z AUTO 13005KT 10SM CLR 22/17 A2996 RMK T02200170 MADISHF
LAF,2021-10-09 14:54,KLAF 091454Z 12005KT 10SM CLR 22/17 A2997 RMK AO2 SLP145 T02220172 58005
LAF,2021-10-09 14:55,KLAF 091455Z AUTO 14005KT 10SM CLR 23/17 A2996 RMK T02300170 MADISHF
LAF,2021-10-09 15:00,KLAF 091500Z AUTO 13004KT 10SM CLR 23/17 A2996 RMK T02300170 MADISHF
LAF,2021-10-09 15:05,KLAF 091505Z AUTO 14004KT 10SM CLR 23/17 A2996 RMK T02300170 MADISHF
LAF,2021-10-09 15:10,KLAF 091510Z AUTO 15004KT 10SM CLR 23/17 A2996 RMK T02300170 MADISHF
LAF,2021-10-09 15:15,KLAF 091515Z AUTO 14005KT 10SM CLR 23/17 A2996 RMK T02300170 MADISHF
LAF,2021-10-09 15:20,KLAF 091520Z AUTO 14005KT 10SM CLR 23/17 A2996 RMK T02300170 MADISHF
LAF,2021-10-09 15:25,KLAF 091525Z AUTO 14005KT 10SM CLR 24/17 A2996 RMK T02400170 MADISHF
LAF,2021-10-09 15:30,KLAF 091530Z AUTO 17004KT 10SM CLR 24/17 A2996 RMK T02400170 MADISHF
LAF,2021-10-09 15:35,KLAF 091535Z AUTO 16007KT 10SM CLR 24/17 A2995 RMK T02400170 MADISHF
LAF,2021-10-09 15:40,KLAF 091540Z AUTO 14008KT 10SM CLR 24/16 A2995 RMK T02400160 MADISHF
LAF,2021-10-09 15:45,KLAF 091545Z AUTO 15007KT 10SM CLR 24/17 A2995 RMK T02400170 MADISHF
LAF,2021-10-09 15:50,KLAF 091550Z AUTO 16004KT 10SM CLR 25/17 A2995 RMK T02500170 MADISHF
LAF,2021-10-09 15:54,KLAF 091554Z VRB06KT 10SM CLR 25/17 A2996 RMK AO2 SLP141 T02500172
LAF,2021-10-09 15:55,KLAF 091555Z AUTO 16005KT 10SM CLR 25/17 A2995 RMK T02500170 MADISHF
LAF,2021-10-09 16:00,KLAF 091600Z AUTO 14005KT 10SM CLR 25/17 A2995 RMK T02500170 MADISHF
LAF,2021-10-09 16:05,KLAF 091605Z AUTO 15005KT 10SM CLR 25/17 A2995 RMK T02500170 VRB06KT  MADISHF
LAF,2021-10-09 16:10,KLAF 091610Z AUTO 16005KT 10SM CLR 26/17 A2995 RMK T02600170 VRB05KT  MADISHF
LAF,2021-10-09 16:15,KLAF 091615Z AUTO 16005KT 10SM CLR 26/17 A2995 RMK T02600170 MADISHF
LAF,2021-10-09 16:20,KLAF 091620Z AUTO 17008KT 10SM CLR 26/17 A2995 RMK T02600170 MADISHF
LAF,2021-10-09 16:25,KLAF 091625Z AUTO 16005KT 10SM CLR 26/17 A2995 RMK T02600170 MADISHF
LAF,2021-10-09 16:30,KLAF 091630Z AUTO 17008KT 10SM CLR 26/17 A2995 RMK T02600170 WND 14V20  MADISHF
LAF,2021-10-09 16:35,KLAF 091635Z AUTO 16008KT 10SM CLR 26/16 A2995 RMK T02600160 MADISHF
LAF,2021-10-09 16:40,KLAF 091640Z AUTO 17005KT 10SM CLR 26/16 A2995 RMK T02600160 MADISHF
LAF,2021-10-09 16:45,KLAF 091645Z AUTO 20007KT 10SM CLR 26/17 A2995 RMK T02600170 MADISHF
LAF,2021-10-09 16:50,KLAF 091650Z AUTO 17005KT 10SM CLR 26/17 A2995 RMK T02600170 VRB05KT  MADISHF
LAF,2021-10-09 16:54,KLAF 091654Z 19006KT 10SM CLR 27/17 A2995 RMK AO2 SLP136 T02670172
LAF,2021-10-09 16:55,KLAF 091655Z AUTO 19005KT 10SM CLR 27/17 A2995 RMK T02700170 MADISHF
LAF,2021-10-09 17:00,KLAF 091700Z AUTO 14005KT 10SM CLR 26/17 A2994 RMK T02600170 VRB06KT  MADISHF
LAF,2021-10-09 17:05,KLAF 091705Z AUTO 14007KT 10SM CLR 26/17 A2994 RMK T02600170 MADISHF
LAF,2021-10-09 17:10,KLAF 091710Z AUTO 16007KT 10SM FEW044 27/17 A2994 RMK T02700170 WND 12V19  MADISHF
LAF,2021-10-09 17:15,KLAF 091715Z AUTO 16005KT 10SM FEW044 27/17 A2994 RMK T02700170 MADISHF
LAF,2021-10-09 17:20,KLAF 091720Z AUTO 14005KT 10SM CLR 27/17 A2993 RMK T02700170 MADISHF
LAF,2021-10-09 17:25,KLAF 091725Z AUTO 12008KT 10SM CLR 27/17 A2993 RMK T02700170 MADISHF
LAF,2021-10-09 17:30,KLAF 091730Z AUTO 12007KT 10SM FEW047 27/18 A2993 RMK T02700180 MADISHF
LAF,2021-10-09 17:35,KLAF 091735Z AUTO 12009KT 10SM FEW047 27/17 A2993 RMK T02700170 MADISHF
LAF,2021-10-09 17:40,KLAF 091740Z AUTO 14005KT 10SM SCT047 26/17 A2992 RMK T02600170 MADISHF
LAF,2021-10-09 17:45,KLAF 091745Z AUTO 14005KT 10SM BKN047 26/17 A2992 RMK T02600170 MADISHF
LAF,2021-10-09 17:50,KLAF 091750Z AUTO 17005KT 10SM BKN047 26/17 A2992 RMK T02600170 MADISHF
LAF,2021-10-09 17:54,KLAF 091754Z 14006KT 10SM BKN047 27/18 A2992 RMK AO2 SLP128 T02670178 10272 20150 58016
LAF,2021-10-09 17:55,KLAF 091755Z AUTO 13005KT 10SM BKN047 27/18 A2992 RMK T02700180 MADISHF
LAF,2021-10-09 18:00,KLAF 091800Z AUTO 16007KT 10SM OVC047 27/18 A2992 RMK T02700180 MADISHF
LAF,2021-10-09 18:05,KLAF 091805Z AUTO 14005KT 10SM OVC047 27/17 A2992 RMK T02700170 MADISHF
LAF,2021-10-09 18:10,KLAF 091810Z AUTO 15009G14KT 10SM BKN048 27/17 A2992 RMK T02700170 MADISHF
LAF,2021-10-09 18:15,KLAF 091815Z AUTO 13005KT 10SM BKN048 28/18 A2990 RMK T02800180 MADISHF
LAF,2021-10-09 18:20,KLAF 091820Z AUTO 17009KT 10SM BKN048 27/17 A2990 RMK T02700170 MADISHF
LAF,2021-10-09 18:25,KLAF 091825Z AUTO 14005KT 10SM SCT048 27/17 A2989 RMK T02700170 MADISHF
LAF,2021-10-09 18:30,KLAF 091830Z AUTO 11009KT 10SM FEW048 27/17 A2989 RMK T02700170 MADISHF
LAF,2021-10-09 18:35,KLAF 091835Z AUTO 18009KT 10SM FEW049 28/17 A2989 RMK T02800170 MADISHF
LAF,2021-10-09 18:40,KLAF 091840Z AUTO 19004KT 10SM FEW049 27/17 A2988 RMK T02700170 VRB04G16KT  MADISHF
LAF,2021-10-09 18:45,KLAF 091845Z AUTO 14005KT 10SM CLR 28/17 A2988 RMK T02800170 MADISHF
LAF,2021-10-09 18:50,KLAF 091850Z AUTO 13005KT 10SM CLR 28/17 A2988 RMK T02800170 MADISHF
LAF,2021-10-09 18:54,KLAF 091854Z VRB06KT 10SM CLR 28/18 A2989 RMK AO2 SLP117 T02780183
LAF,2021-10-09 18:55,KLAF 091855Z AUTO 17005KT 10SM CLR 28/18 A2988 RMK T02800180 MADISHF
LAF,2021-10-09 19:00,KLAF 091900Z AUTO 15005KT 10SM CLR 28/17 A2988 RMK T02800170 VRB05KT  MADISHF
LAF,2021-10-09 19:05,KLAF 091905Z AUTO 17005KT 10SM CLR 27/17 A2988 RMK T02700170 MADISHF
LAF,2021-10-09 19:10,KLAF 091910Z AUTO 19007KT 10SM CLR 27/17 A2987 RMK T02700170 MADISHF
LAF,2021-10-09 19:15,KLAF 091915Z AUTO 18007KT 10SM FEW060 27/17 A2987 RMK T02700170 MADISHF
LAF,2021-10-09 19:20,KLAF 091920Z AUTO 18004KT 10SM CLR 27/17 A2987 RMK T02700170 MADISHF
LAF,2021-10-09 19:25,KLAF 091925Z AUTO /////KT 10SM FEW075 27/17 A2987 RMK T02700170 MADISHF
LAF,2021-10-09 19:30,KLAF 091930Z AUTO 15005KT 10SM SCT075 28/17 A2987 RMK T02800170 MADISHF
LAF,2021-10-09 19:35,KLAF 091935Z AUTO 13007KT 10SM FEW055 SCT075 28/17 A2987 RMK T02800170 MADISHF
LAF,2021-10-09 19:40,KLAF 091940Z AUTO 14007KT 10SM FEW055 SCT075 27/18 A2987 RMK T02700180 MADISHF
LAF,2021-10-09 19:45,KLAF 091945Z AUTO 14007KT 10SM BKN075 27/17 A2987 RMK T02700170 WND 11V18  MADISHF
LAF,2021-10-09 19:50,KLAF 091950Z AUTO 14005KT 10SM BKN075 27/17 A2987 RMK T02700170 MADISHF
LAF,2021-10-09 19:54,KLAF 091954Z 16005KT 10SM SCT075 27/17 A2987 RMK AO2 SLP111 T02670172
LAF,2021-10-09 19:55,KLAF 091955Z AUTO 16004KT 10SM SCT075 27/17 A2987 RMK T02700170 MADISHF
LAF,2021-10-09 20:00,KLAF 092000Z AUTO 17005KT 10SM SCT070 27/18 A2987 RMK T02700180 MADISHF
LAF,2021-10-09 20:05,KLAF 092005Z AUTO 15005KT 10SM SCT070 28/18 A2987 RMK T02800180 MADISHF
LAF,2021-10-09 20:10,KLAF 092010Z AUTO 15008KT 10SM SCT070 28/18 A2987 RMK T02800180 MADISHF
LAF,2021-10-09 20:15,KLAF 092015Z AUTO 16008KT 10SM FEW070 28/17 A2987 RMK T02800170 WND 12V20  MADISHF
LAF,2021-10-09 20:20,KLAF 092020Z AUTO 17005KT 10SM SCT065 SCT079 27/17 A2987 RMK T02700170 MADISHF
LAF,2021-10-09 20:25,KLAF 092025Z AUTO 14007KT 10SM SCT065 BKN079 27/17 A2987 RMK T02700170 MADISHF
LAF,2021-10-09 20:30,KLAF 092030Z AUTO 14007KT 10SM SCT060 BKN075 28/17 A2987 RMK T02800170 MADISHF
LAF,2021-10-09 20:35,KLAF 092035Z AUTO 14007KT 10SM SCT060 BKN075 28/18 A2987 RMK T02800180 MADISHF
LAF,2021-10-09 20:40,KLAF 092040Z AUTO 12008KT 10SM SCT060 BKN075 27/18 A2987 RMK T02700180 MADISHF
LAF,2021-10-09 20:45,KLAF 092045Z AUTO 13005KT 10SM SCT060 BKN075 27/18 A2987 RMK T02700180 MADISHF
LAF,2021-10-09 20:50,KLAF 092050Z AUTO 13007KT 10SM SCT060 BKN075 27/18 A2987 RMK T02700180 MADISHF
LAF,2021-10-09 20:54,KLAF 092054Z 14006KT 10SM BKN070 27/18 A2987 RMK AO2 SLP109 T02720178 56018
LAF,2021-10-09 20:55,KLAF 092055Z AUTO 14007KT 10SM BKN070 27/18 A2987 RMK T02700180 MADISHF
LAF,2021-10-09 21:00,KLAF 092100Z AUTO 14007KT 10SM BKN070 27/18 A2987 RMK T02700180 MADISHF
LAF,2021-10-09 21:05,KLAF 092105Z AUTO 13005KT 10SM BKN070 27/18 A2987 RMK T02700180 MADISHF
LAF,2021-10-09 21:10,KLAF 092110Z AUTO 13008KT 10SM BKN070 27/18 A2987 RMK T02700180 MADISHF
LAF,2021-10-09 21:15,KLAF 092115Z AUTO 14008KT 10SM BKN070 27/18 A2986 RMK T02700180 MADISHF
LAF,2021-10-09 21:20,KLAF 092120Z AUTO 16005KT 10SM SCT070 27/18 A2986 RMK T02700180 MADISHF
LAF,2021-10-09 21:25,KLAF 092125Z AUTO 15004KT 10SM SCT070 27/18 A2987 RMK T02700180 MADISHF
LAF,2021-10-09 21:30,KLAF 092130Z AUTO 14007KT 10SM FEW075 27/18 A2986 RMK T02700180 MADISHF
LAF,2021-10-09 21:35,KLAF 092135Z AUTO 14005KT 10SM CLR 26/18 A2987 RMK T02600180 MADISHF
LAF,2021-10-09 21:40,KLAF 092140Z AUTO 14005KT 10SM FEW075 26/18 A2987 RMK T02600180 MADISHF
LAF,2021-10-09 21:45,KLAF 092145Z AUTO 13005KT 10SM SCT079 26/18 A2987 RMK T02600180 MADISHF
LAF,2021-10-09 21:50,KLAF 092150Z AUTO 15004KT 10SM SCT075 26/18 A2987 RMK T02600180 MADISHF
LAF,2021-10-09 21:54,KLAF 092154Z 15005KT 10SM BKN075 26/18 A2987 RMK AO2 SLP111 T02610178
LAF,2021-10-09 21:55,KLAF 092155Z AUTO 14005KT 10SM BKN075 26/18 A2987 RMK T02600180 MADISHF
LAF,2021-10-09 22:00,KLAF 092200Z AUTO 15004KT 10SM SCT075 26/18 A2987 RMK T02600180 MADISHF
LAF,2021-10-09 22:05,KLAF 092205Z AUTO 14004KT 10SM SCT075 26/18 A2987 RMK T02600180 MADISHF
LAF,2021-10-09 22:10,KLAF 092210Z AUTO 14002KT 10SM BKN075 26/18 A2987 RMK T02600180 MADISHF
LAF,2021-10-09 22:15,KLAF 092215Z AUTO 13002KT 10SM BKN070 26/18 A2987 RMK T02600180 MADISHF
LAF,2021-10-09 22:20,KLAF 092220Z AUTO 14004KT 10SM BKN070 26/18 A2987 RMK T02600180 MADISHF
LAF,2021-10-09 22:25,KLAF 092225Z AUTO 13004KT 10SM BKN070 26/18 A2987 RMK T02600180 MADISHF
LAF,2021-10-09 22:30,KLAF 092230Z AUTO 13005KT 10SM BKN070 25/18 A2987 RMK T02500180 MADISHF
LAF,2021-10-09 22:35,KLAF 092235Z AUTO 13004KT 10SM BKN070 25/18 A2987 RMK T02500180 MADISHF
LAF,2021-10-09 22:40,KLAF 092240Z AUTO 14004KT 10SM BKN070 25/18 A2987 RMK T02500180 MADISHF
LAF,2021-10-09 22:45,KLAF 092245Z AUTO 14005KT 10SM BKN070 25/18 A2986 RMK T02500180 MADISHF
LAF,2021-10-09 22:50,KLAF 092250Z AUTO 13005KT 10SM SCT070 25/18 A2986 RMK T02500180 MADISHF
LAF,2021-10-09 22:54,KLAF 092254Z 14006KT 10SM SCT070 25/18 A2986 RMK AO2 SLP109 T02500183
LAF,2021-10-09 22:55,KLAF 092255Z AUTO 14005KT 10SM SCT070 25/18 A2986 RMK T02500180 MADISHF
LAF,2021-10-09 23:00,KLAF 092300Z AUTO 14005KT 10SM FEW070 25/18 A2987 RMK T02500180 MADISHF
LAF,2021-10-09 23:05,KLAF 092305Z AUTO 13005KT 10SM FEW070 25/18 A2987 RMK T02500180 MADISHF
LAF,2021-10-09 23:10,KLAF 092310Z AUTO 14004KT 10SM CLR 24/18 A2987 RMK T02400180 MADISHF
LAF,2021-10-09 23:15,KLAF 092315Z AUTO 13004KT 10SM CLR 25/18 A2987 RMK T02500180 MADISHF
LAF,2021-10-09 23:20,KLAF 092320Z AUTO 13005KT 10SM CLR 24/18 A2987 RMK T02400180 MADISHF
LAF,2021-10-09 23:25,KLAF 092325Z AUTO 14005KT 10SM CLR 24/18 A2987 RMK T02400180 MADISHF
LAF,2021-10-09 23:30,KLAF 092330Z AUTO 14005KT 10SM CLR 24/18 A2987 RMK T02400180 MADISHF
LAF,2021-10-09 23:35,KLAF 092335Z AUTO 14004KT 10SM CLR 24/18 A2987 RMK T02400180 MADISHF
LAF,2021-10-09 23:40,KLAF 092340Z AUTO 14004KT 10SM CLR 24/18 A2987 RMK T02400180 MADISHF
LAF,2021-10-09 23:45,KLAF 092345Z AUTO 14004KT 10SM CLR 24/18 A2987 RMK T02400180 MADISHF
LAF,2021-10-09 23:50,KLAF 092350Z AUTO 13004KT 10SM CLR 24/18 A2986 RMK T02400180 MADISHF
LAF,2021-10-09 23:54,KLAF 092354Z 13004KT 10SM CLR 24/18 A2987 RMK AO2 SLP110 T02390183 10283 20239 55000
LAF,2021-10-09 23:55,KLAF 092355Z AUTO 13004KT 10SM CLR 24/18 A2987 RMK T02400180 MADISHF
LAF,2021-10-10 00:00,KLAF 100000Z AUTO 14005KT 10SM CLR 24/18 A2987 RMK T02400180 MADISHF
LAF,2021-10-10 00:05,KLAF 100005Z AUTO 14005KT 10SM CLR 24/18 A2986 RMK T02400180 MADISHF
LAF,2021-10-10 00:10,KLAF 100010Z AUTO 14005KT 10SM CLR 24/18 A2987 RMK T02400180 MADISHF
LAF,2021-10-10 00:15,KLAF 100015Z AUTO 14005KT 10SM CLR 24/18 A2987 RMK T02400180 MADISHF
LAF,2021-10-10 00:20,KLAF 100020Z AUTO 14005KT 10SM CLR 24/18 A2986 RMK T02400180 MADISHF
LAF,2021-10-10 00:25,KLAF 100025Z AUTO 14005KT 10SM CLR 24/18 A2987 RMK T02400180 MADISHF
LAF,2021-10-10 00:30,KLAF 100030Z AUTO 14005KT 10SM CLR 24/18 A2986 RMK T02400180 MADISHF
LAF,2021-10-10 00:35,KLAF 100035Z AUTO 14004KT 10SM CLR 24/18 A2986 RMK T02400180 MADISHF
LAF,2021-10-10 00:40,KLAF 100040Z AUTO 15004KT 10SM CLR 23/18 A2986 RMK T02300180 MADISHF
LAF,2021-10-10 00:45,KLAF 100045Z AUTO 14005KT 10SM CLR 23/18 A2986 RMK T02300180 MADISHF
LAF,2021-10-10 00:50,KLAF 100050Z AUTO 14005KT 10SM CLR 23/18 A2986 RMK T02300180 MADISHF
LAF,2021-10-10 00:54,KLAF 100054Z AUTO 14006KT 10SM CLR 23/18 A2986 RMK AO2 SLP108 T02330183
LAF,2021-10-10 00:55,KLAF 100055Z AUTO 14005KT 10SM CLR 23/18 A2986 RMK T02300180 MADISHF
LAF,2021-10-10 01:00,KLAF 100100Z AUTO 14005KT 10SM CLR 23/18 A2986 RMK T02300180 MADISHF
LAF,2021-10-10 01:05,KLAF 100105Z AUTO 14007KT 10SM CLR 23/18 A2986 RMK T02300180 MADISHF
LAF,2021-10-10 01:10,KLAF 100110Z AUTO 15005KT 10SM CLR 23/18 A2986 RMK T02300180 MADISHF
LAF,2021-10-10 01:15,KLAF 100115Z AUTO 14007KT 10SM CLR 23/18 A2986 RMK T02300180 MADISHF
LAF,2021-10-10 01:20,KLAF 100120Z AUTO 14005KT 10SM CLR 23/18 A2985 RMK T02300180 MADISHF
LAF,2021-10-10 01:25,KLAF 100125Z AUTO 15005KT 10SM CLR 23/18 A2985 RMK T02300180 MADISHF
LAF,2021-10-10 01:30,KLAF 100130Z AUTO 15005KT 10SM CLR 23/18 A2985 RMK T02300180 VRB05KT  MADISHF
LAF,2021-10-10 01:35,KLAF 100135Z AUTO 15005KT 10SM CLR 23/18 A2985 RMK T02300180 MADISHF
LAF,2021-10-10 01:40,KLAF 100140Z AUTO 16005KT 10SM CLR 23/18 A2985 RMK T02300180 VRB05KT  MADISHF
LAF,2021-10-10 01:45,KLAF 100145Z AUTO 15005KT 10SM CLR 23/18 A2985 RMK T02300180 MADISHF
LAF,2021-10-10 01:50,KLAF 100150Z AUTO 15007KT 10SM CLR 23/18 A2985 RMK T02300180 MADISHF
LAF,2021-10-10 01:54,KLAF 100154Z AUTO VRB06KT 10SM CLR 23/18 A2985 RMK AO2 SLP104 T02330183
LAF,2021-10-10 01:55,KLAF 100155Z AUTO 15005KT 10SM CLR 23/18 A2985 RMK T02300180 MADISHF
LAF,2021-10-10 02:00,KLAF 100200Z AUTO 16005KT 10SM CLR 23/18 A2985 RMK T02300180 MADISHF
LAF,2021-10-10 02:05,KLAF 100205Z AUTO 16002KT 10SM CLR 23/18 A2985 RMK T02300180 MADISHF
LAF,2021-10-10 02:10,KLAF 100210Z AUTO 15005KT 10SM CLR 23/18 A2985 RMK T02300180 MADISHF
LAF,2021-10-10 02:15,KLAF 100215Z AUTO 15005KT 10SM CLR 23/19 A2985 RMK T02300190 MADISHF
LAF,2021-10-10 02:20,KLAF 100220Z AUTO 16005KT 10SM CLR 23/19 A2985 RMK T02300190 VRB05KT  MADISHF
LAF,2021-10-10 02:25,KLAF 100225Z AUTO 16005KT 10SM CLR 23/19 A2985 RMK T02300190 MADISHF
LAF,2021-10-10 02:30,KLAF 100230Z AUTO 16007KT 10SM CLR 23/19 A2985 RMK T02300190 MADISHF
LAF,2021-10-10 02:35,KLAF 100235Z AUTO 16005KT 10SM CLR 23/19 A2985 RMK T02300190 MADISHF
LAF,2021-10-10 02:40,KLAF 100240Z AUTO 17005KT 10SM CLR 23/19 A2985 RMK T02300190 MADISHF
LAF,2021-10-10 02:45,KLAF 100245Z AUTO 16005KT 10SM CLR 23/19 A2986 RMK T02300190 MADISHF
LAF,2021-10-10 02:50,KLAF 100250Z AUTO 16005KT 10SM CLR 23/19 A2986 RMK T02300190 VRB06KT  MADISHF
LAF,2021-10-10 02:54,KLAF 100254Z AUTO 17004KT 10SM CLR 23/19 A2986 RMK AO2 SLP106 T02280189 55003
LAF,2021-10-10 02:55,KLAF 100255Z AUTO 15004KT 10SM CLR 23/19 A2986 RMK T02300190 MADISHF
LAF,2021-10-10 03:00,KLAF 100300Z AUTO 16005KT 10SM CLR 23/19 A2986 RMK T02300190 MADISHF
LAF,2021-10-10 03:05,KLAF 100305Z AUTO 16005KT 10SM CLR 23/19 A2986 RMK T02300190 VRB05KT  MADISHF
LAF,2021-10-10 03:10,KLAF 100310Z AUTO 15005KT 10SM CLR 23/19 A2986 RMK T02300190 MADISHF
LAF,2021-10-10 03:15,KLAF 100315Z AUTO 15004KT 10SM CLR 23/19 A2986 RMK T02300190 MADISHF
LAF,2021-10-10 03:20,KLAF 100320Z AUTO 15004KT 10SM CLR 23/19 A2986 RMK T02300190 MADISHF
LAF,2021-10-10 03:25,KLAF 100325Z AUTO 16002KT 10SM CLR 23/19 A2986 RMK T02300190 VRB03KT  MADISHF
LAF,2021-10-10 03:30,KLAF 100330Z AUTO 16005KT 10SM CLR 23/19 A2985 RMK T02300190 MADISHF
LAF,2021-10-10 03:35,KLAF 100335Z AUTO 16005KT 10SM CLR 23/19 A2986 RMK T02300190 MADISHF
LAF,2021-10-10 03:40,KLAF 100340Z AUTO 17004KT 10SM CLR 23/19 A2985 RMK T02300190 VRB04KT  MADISHF
LAF,2021-10-10 03:45,KLAF 100345Z AUTO 17005KT 10SM CLR 23/19 A2986 RMK T02300190 VRB05KT  MADISHF
LAF,2021-10-10 03:50,KLAF 100350Z AUTO 16005KT 10SM CLR 23/19 A2985 RMK T02300190 VRB05KT  MADISHF
LAF,2021-10-10 03:54,KLAF 100354Z AUTO 16005KT 10SM FEW120 23/19 A2985 RMK AO2 SLP104 T02280189
LAF,2021-10-10 03:55,KLAF 100355Z AUTO 16005KT 10SM FEW120 23/19 A2985 RMK T02300190 MADISHF
LAF,2021-10-10 04:00,KLAF 100400Z AUTO 15005KT 10SM FEW120 23/19 A2985 RMK T02300190 VRB05KT  MADISHF
LAF,2021-10-10 04:05,KLAF 100405Z AUTO 17005KT 10SM SCT110 23/19 A2985 RMK T02300190 MADISHF
LAF,2021-10-10 04:10,KLAF 100410Z AUTO 16005KT 10SM SCT110 23/19 A2985 RMK T02300190 VRB06KT  MADISHF
LAF,2021-10-10 04:15,KLAF 100415Z AUTO 16005KT 10SM SCT110 23/19 A2985 RMK T02300190 MADISHF
LAF,2021-10-10 04:20,KLAF 100420Z AUTO 16005KT 10SM SCT110 23/19 A2985 RMK T02300190 MADISHF
LAF,2021-10-10 04:25,KLAF 100425Z AUTO 17005KT 10SM FEW090 SCT110 23/19 A2985 RMK T02300190 MADISHF
LAF,2021-10-10 04:30,KLAF 100430Z AUTO 16005KT 10SM FEW065 FEW090 SCT110 23/19 A2985 RMK T02300190 MADISHF
LAF,2021-10-10 04:35,KLAF 100435Z AUTO 16005KT 10SM SCT100 BKN120 23/19 A2985 RMK T02300190 MADISHF
LAF,2021-10-10 04:40,KLAF 100440Z AUTO 17005KT 10SM SCT100 23/19 A2985 RMK T02300190 MADISHF
LAF,2021-10-10 04:45,KLAF 100445Z AUTO 19007KT 10SM SCT100 23/19 A2985 RMK T02300190 MADISHF
LAF,2021-10-10 04:50,KLAF 100450Z AUTO 18005KT 10SM FEW100 23/19 A2985 RMK T02300190 MADISHF
LAF,2021-10-10 04:54,KLAF 100454Z AUTO 18007KT 10SM FEW100 23/19 A2985 RMK AO2 SLP101 T02280189 402830150
LAF,2021-10-10 04:55,KLAF 100455Z AUTO 18007KT 10SM FEW100 23/19 A2985 RMK T02300190 MADISHF
LAF,2021-10-10 05:00,KLAF 100500Z AUTO 18007KT 10SM FEW100 23/19 A2984 RMK T02300190 MADISHF
LAF,2021-10-10 05:05,KLAF 100505Z AUTO 18005KT 10SM CLR 23/19 A2984 RMK T02300190 MADISHF
LAF,2021-10-10 05:10,KLAF 100510Z AUTO 18005KT 10SM CLR 23/19 A2984 RMK T02300190 MADISHF
LAF,2021-10-10 05:15,KLAF 100515Z AUTO 18007KT 10SM CLR 23/19 A2984 RMK T02300190 MADISHF
LAF,2021-10-10 05:20,KLAF 100520Z AUTO 17005KT 10SM CLR 23/19 A2984 RMK T02300190 MADISHF
LAF,2021-10-10 05:25,KLAF 100525Z AUTO 17005KT 10SM CLR 23/19 A2984 RMK T02300190 MADISHF
LAF,2021-10-10 05:30,KLAF 100530Z AUTO 18007KT 10SM CLR 23/18 A2984 RMK T02300180 MADISHF
LAF,2021-10-10 05:35,KLAF 100535Z AUTO 18007KT 10SM CLR 23/18 A2984 RMK T02300180  LTG DSNT W! MADISHF
LAF,2021-10-10 05:40,KLAF 100540Z AUTO 18007KT 10SM CLR 23/18 A2984 RMK T02300180  LTG DSNT W! MADISHF
LAF,2021-10-10 05:45,KLAF 100545Z AUTO 18007KT 10SM CLR 23/18 A2985 RMK T02300180  LTG DSNT W AND NW! MADISHF
LAF,2021-10-10 05:50,KLAF 100550Z AUTO 19008KT 10SM CLR 23/18 A2985 RMK T02300180  LTG DSNT NW! MADISHF
LAF,2021-10-10 05:54,KLAF 100554Z AUTO 19006KT 10SM CLR 23/18 A2985 RMK AO2 LTG DSNT NW SLP103 T02280183 10239 20228 55002
LAF,2021-10-10 05:55,KLAF 100555Z AUTO 20005KT 10SM CLR 23/18 A2985 RMK T02300180  LTG DSNT NW! MADISHF
LAF,2021-10-10 06:00,KLAF 100600Z AUTO 20005KT 10SM FEW120 23/18 A2986 RMK T02300180  LTG DSNT NW! MADISHF
LAF,2021-10-10 06:05,KLAF 100605Z AUTO 25004KT 10SM SCT120 23/18 A2987 RMK T02300180  LTG DSNT NW! MADISHF
LAF,2021-10-10 06:10,KLAF 100610Z AUTO 26004KT 10SM SCT120 23/18 A2987 RMK T02300180 MADISHF
LAF,2021-10-10 06:15,KLAF 100615Z AUTO 30002KT 10SM BKN120 23/19 A2987 RMK T02300190 MADISHF
LAF,2021-10-10 06:20,KLAF 100620Z AUTO 27002KT 10SM BKN120 23/18 A2987 RMK T02300180 MADISHF
LAF,2021-10-10 06:25,KLAF 100625Z AUTO 27004KT 10SM BKN120 23/18 A2987 RMK T02300180 MADISHF
LAF,2021-10-10 06:29,KLAF 100629Z AUTO 27004KT 9SM -TSRA OVC120 23/19 A2989 RMK AO2 RAB26 TSB23 P0001 T02280189
LAF,2021-10-10 06:30,KLAF 100630Z AUTO 27002KT 8SM -RA OVC120 22/19 A2988 RMK P0000 T02200190 MADISHF
LAF,2021-10-10 06:35,KLAF 100635Z AUTO 00000KT 7SM -RA OVC120 22/19 A2988 RMK P0000 T02200190 MADISHF
LAF,2021-10-10 06:40,KLAF 100640Z AUTO 22002KT 7SM -RA OVC120 22/19 A2988 RMK P0000 T02200190 MADISHF
LAF,2021-10-10 06:44,KLAF 100644Z AUTO 00000KT 8SM VCTS -RA OVC120 22/19 A2989 RMK AO2 RAB26 TSB23E38 P0001 T02170189
LAF,2021-10-10 06:45,KLAF 100645Z AUTO 00000KT 9SM -RA OVC120 22/19 A2988 RMK P0000 T02200190 MADISHF
LAF,2021-10-10 06:50,KLAF 100650Z AUTO 00000KT 10SM -RA BKN120 22/19 A2988 RMK P0000 T02200190 MADISHF
LAF,2021-10-10 06:54,KLAF 100654Z AUTO VRB04KT 10SM VCTS -RA BKN120 21/19 A2988 RMK AO2 RAB26 TSB23E38 SLP114 P0001 T02110194
LAF,2021-10-10 06:55,KLAF 100655Z AUTO 17004KT 10SM -RA BKN110 21/19 A2987 RMK T02100190 VRB04KT  MADISHF
LAF,2021-10-10 07:00,KLAF 100700Z AUTO 16002KT 9SM -RA FEW075 FEW095 BKN120 21/19 A2987 RMK P0000 T02100190 MADISHF
LAF,2021-10-10 07:04,KLAF 100704Z AUTO VRB03KT 7SM -RA FEW075 FEW090 OVC120 21/19 A2988 RMK AO2 P0001 T02110194
LAF,2021-10-10 07:05,KLAF 100705Z AUTO 00000KT 6SM -RA BR FEW075 FEW090 OVC120 21/19 A2987 RMK P0000 T02100190 MADISHF
LAF,2021-10-10 07:10,KLAF 100710Z AUTO 00000KT 7SM -RA FEW075 BKN120 21/19 A2987 RMK P0000 T02100190 MADISHF
LAF,2021-10-10 07:15,KLAF 100715Z AUTO 10004KT 10SM -RA BKN120 21/19 A2987 RMK P0000 T02100190 MADISHF
LAF,2021-10-10 07:20,KLAF 100720Z AUTO 11002KT 10SM BKN120 21/19 A2987 RMK P0000 T02100190 MADISHF
LAF,2021-10-10 07:25,KLAF 100725Z AUTO 11004KT 10SM FEW079 BKN120 21/19 A2987 RMK P0000 T02100190 MADISHF
LAF,2021-10-10 07:30,KLAF 100730Z AUTO 12002KT 10SM BKN120 21/19 A2987 RMK P0000 T02100190 MADISHF
LAF,2021-10-10 07:35,KLAF 100735Z AUTO 11002KT 10SM BKN120 21/19 A2987 RMK P0000 T02100190 MADISHF
LAF,2021-10-10 07:40,KLAF 100740Z AUTO 12002KT 10SM BKN120 21/19 A2987 RMK P0000 T02100190 MADISHF
LAF,2021-10-10 07:45,KLAF 100745Z AUTO 12002KT 10SM BKN120 21/19 A2987 RMK P0000 T02100190 MADISHF
LAF,2021-10-10 07:50,KLAF 100750Z AUTO 13002KT 10SM BKN120 21/19 A2987 RMK P0000 T02100190 MADISHF
LAF,2021-10-10 07:54,KLAF 100754Z AUTO 13003KT 10SM BKN120 21/19 A2987 RMK AO2 RAE18 SLP108 P0001 T02060189
LAF,2021-10-10 07:55,KLAF 100755Z AUTO 13002KT 10SM BKN120 21/19 A2987 RMK T02100190 MADISHF
LAF,2021-10-10 08:00,KLAF 100800Z AUTO 00000KT 10SM SCT120 21/19 A2987 RMK T02100190 MADISHF
LAF,2021-10-10 08:05,KLAF 100805Z AUTO 14002KT 10SM SCT120 21/19 A2986 RMK T02100190 MADISHF
LAF,2021-10-10 08:10,KLAF 100810Z AUTO 13004KT 10SM FEW120 21/19 A2986 RMK T02100190 MADISHF
LAF,2021-10-10 08:15,KLAF 100815Z AUTO 14004KT 10SM FEW120 21/19 A2986 RMK T02100190 MADISHF
LAF,2021-10-10 08:20,KLAF 100820Z AUTO 14002KT 10SM SCT120 21/19 A2986 RMK T02100190 MADISHF
LAF,2021-10-10 08:25,KLAF 100825Z AUTO 15002KT 10SM SCT120 21/19 A2986 RMK T02100190 MADISHF
LAF,2021-10-10 08:30,KLAF 100830Z AUTO 00000KT 10SM SCT120 21/19 A2986 RMK T02100190 MADISHF
LAF,2021-10-10 08:35,KLAF 100835Z AUTO 15002KT 10SM SCT120 21/19 A2986 RMK T02100190 MADISHF
LAF,2021-10-10 08:40,KLAF 100840Z AUTO 15004KT 10SM SCT120 21/19 A2986 RMK T02100190 MADISHF
LAF,2021-10-10 08:45,KLAF 100845Z AUTO 14005KT 10SM BKN120 21/19 A2986 RMK T02100190 MADISHF
LAF,2021-10-10 08:50,KLAF 100850Z AUTO 14005KT 10SM SCT120 21/19 A2986 RMK T02100190 MADISHF
LAF,2021-10-10 08:54,KLAF 100854Z AUTO 15005KT 10SM SCT120 21/19 A2986 RMK AO2 SLP105 60002 T02060189 50002
LAF,2021-10-10 08:55,KLAF 100855Z AUTO 15004KT 10SM SCT120 21/19 A2986 RMK T02100190 MADISHF
LAF,2021-10-10 09:00,KLAF 100900Z AUTO 15004KT 10SM SCT120 21/19 A2986 RMK T02100190 MADISHF
LAF,2021-10-10 09:05,KLAF 100905Z AUTO 16002KT 10SM BKN120 21/19 A2986 RMK T02100190 MADISHF
LAF,2021-10-10 09:10,KLAF 100910Z AUTO 16004KT 10SM BKN120 21/19 A2985 RMK T02100190 VRB04KT  MADISHF
LAF,2021-10-10 09:15,KLAF 100915Z AUTO 17004KT 10SM BKN120 21/19 A2986 RMK T02100190 MADISHF
LAF,2021-10-10 09:20,KLAF 100920Z AUTO 17004KT 10SM BKN110 21/19 A2986 RMK T02100190 MADISHF
LAF,2021-10-10 09:25,KLAF 100925Z AUTO 17005KT 10SM BKN110 21/19 A2986 RMK T02100190 MADISHF
LAF,2021-10-10 09:30,KLAF 100930Z AUTO 17005KT 10SM BKN110 21/19 A2986 RMK T02100190 MADISHF
LAF,2021-10-10 09:35,KLAF 100935Z AUTO 17005KT 10SM -RA BKN110 21/19 A2986 RMK T02100190 MADISHF
LAF,2021-10-10 09:40,KLAF 100940Z AUTO 15004KT 10SM -RA FEW100 BKN120 21/19 A2985 RMK T02100190 MADISHF
LAF,2021-10-10 09:45,KLAF 100945Z AUTO 17004KT 8SM -RA BKN110 21/19 A2985 RMK P0000 T02100190 VRB04KT  MADISHF
LAF,2021-10-10 09:50,KLAF 100950Z AUTO 16005KT 9SM -RA FEW100 BKN120 21/19 A2985 RMK P0000 T02100190 VRB05KT  MADISHF
LAF,2021-10-10 09:54,KLAF 100954Z AUTO 15006KT 10SM -RA FEW100 BKN120 21/19 A2985 RMK AO2 RAB35 SLP103 P0001 T02060189
LAF,2021-10-10 09:55,KLAF 100955Z AUTO 16005KT 10SM -RA FEW100 BKN120 21/19 A2985 RMK T02100190 MADISHF
LAF,2021-10-10 10:00,KLAF 101000Z AUTO 17005KT 10SM FEW100 BKN120 21/19 A2985 RMK T02100190 MADISHF
LAF,2021-10-10 10:05,KLAF 101005Z AUTO 17005KT 10SM FEW100 SCT120 21/19 A2985 RMK T02100190 MADISHF
LAF,2021-10-10 10:10,KLAF 101010Z AUTO 17005KT 10SM SCT110 21/19 A2985 RMK T02100190 MADISHF
LAF,2021-10-10 10:15,KLAF 101015Z AUTO 17005KT 10SM SCT120 21/18 A2985 RMK T02100180 MADISHF
LAF,2021-10-10 10:20,KLAF 101020Z AUTO 17005KT 10SM FEW120 21/18 A2985 RMK T02100180 MADISHF
LAF,2021-10-10 10:25,KLAF 101025Z AUTO 17005KT 10SM FEW120 21/18 A2985 RMK T02100180 MADISHF
LAF,2021-10-10 10:30,KLAF 101030Z AUTO 17005KT 10SM FEW120 21/18 A2985 RMK T02100180 MADISHF
LAF,2021-10-10 10:35,KLAF 101035Z AUTO 17007KT 10SM FEW120 21/18 A2985 RMK T02100180 MADISHF
LAF,2021-10-10 10:40,KLAF 101040Z AUTO 17005KT 10SM CLR 21/18 A2984 RMK T02100180 MADISHF
LAF,2021-10-10 10:45,KLAF 101045Z AUTO 17004KT 10SM CLR 21/18 A2985 RMK T02100180 MADISHF
LAF,2021-10-10 10:50,KLAF 101050Z AUTO 17005KT 10SM CLR 21/18 A2985 RMK T02100180 MADISHF
LAF,2021-10-10 10:54,KLAF 101054Z 18005KT 10SM CLR 21/18 A2985 RMK AO2 RAE0958 SLP102 P0000 T02060183
LAF,2021-10-10 10:55,KLAF 101055Z AUTO 16005KT 10SM CLR 21/18 A2984 RMK T02100180 MADISHF
LAF,2021-10-10 11:00,KLAF 101100Z AUTO 17005KT 10SM CLR 21/18 A2984 RMK T02100180 VRB05KT  MADISHF
LAF,2021-10-10 11:05,KLAF 101105Z AUTO 17005KT 10SM CLR 21/18 A2984 RMK T02100180 MADISHF
LAF,2021-10-10 11:10,KLAF 101110Z AUTO 17005KT 10SM CLR 21/18 A2984 RMK T02100180 MADISHF
LAF,2021-10-10 11:15,KLAF 101115Z AUTO 18005KT 10SM CLR 21/18 A2984 RMK T02100180 MADISHF
LAF,2021-10-10 11:20,KLAF 101120Z AUTO 18007KT 10SM CLR 21/18 A2984 RMK T02100180 MADISHF
LAF,2021-10-10 11:25,KLAF 101125Z AUTO 18005KT 10SM CLR 21/18 A2984 RMK T02100180 MADISHF
LAF,2021-10-10 11:30,KLAF 101130Z AUTO 17009KT 10SM CLR 21/18 A2984 RMK T02100180 MADISHF
LAF,2021-10-10 11:35,KLAF 101135Z AUTO 18005KT 10SM CLR 21/18 A2984 RMK T02100180 MADISHF
LAF,2021-10-10 11:40,KLAF 101140Z AUTO /////KT A2984 RMK MADISHF
LAF,2021-10-10 11:45,KLAF 101145Z AUTO /////KT A2984 RMK MADISHF
LAF,2021-10-10 11:50,KLAF 101150Z AUTO /////KT A2984 RMK MADISHF
LAF,2021-10-10 11:54,KLAF 101154Z A2984 RMK AO2 SLPNO 60003 70003 10228 20206 56004 $
LAF,2021-10-10 11:55,KLAF 101155Z AUTO /////KT A2984 RMK MADISHF
LAF,2021-10-10 12:00,KLAF 101200Z AUTO /////KT A2985 RMK MADISHF
LAF,2021-10-10 12:05,KLAF 101205Z AUTO /////KT A2985 RMK MADISHF
LAF,2021-10-10 12:10,KLAF 101210Z AUTO /////KT A2985 RMK MADISHF
LAF,2021-10-10 12:15,KLAF 101215Z AUTO /////KT A2985 RMK MADISHF
LAF,2021-10-10 12:20,KLAF 101220Z AUTO /////KT A2985 RMK MADISHF
LAF,2021-10-10 12:25,KLAF 101225Z AUTO /////KT A2985 RMK MADISHF
LAF,2021-10-10 12:30,KLAF 101230Z AUTO /////KT A2985 RMK MADISHF
LAF,2021-10-10 12:35,KLAF 101235Z AUTO /////KT A2985 RMK MADISHF
LAF,2021-10-10 12:40,KLAF 101240Z AUTO /////KT A2985 RMK MADISHF
LAF,2021-10-10 12:45,KLAF 101245Z AUTO /////KT A2985 RMK MADISHF
LAF,2021-10-10 12:50,KLAF 101250Z AUTO /////KT A2985 RMK MADISHF
LAF,2021-10-10 12:54,KLAF 101254Z A2985 RMK AO2 SLPNO $
LAF,2021-10-10 12:55,KLAF 101255Z AUTO /////KT A2985 RMK MADISHF
LAF,2021-10-10 13:00,KLAF 101300Z AUTO /////KT A2985 RMK MADISHF
LAF,2021-10-10 13:05,KLAF 101305Z AUTO /////KT A2985 RMK MADISHF
LAF,2021-10-10 13:10,KLAF 101310Z AUTO /////KT A2985 RMK MADISHF
LAF,2021-10-10 13:15,KLAF 101315Z AUTO /////KT A2985 RMK MADISHF
LAF,2021-10-10 13:20,KLAF 101320Z AUTO /////KT A2985 RMK MADISHF
LAF,2021-10-10 13:25,KLAF 101325Z AUTO /////KT A2985 RMK MADISHF
LAF,2021-10-10 13:30,KLAF 101330Z AUTO /////KT A2985 RMK MADISHF
LAF,2021-10-10 13:35,KLAF 101335Z AUTO /////KT A2985 RMK MADISHF
LAF,2021-10-10 13:40,KLAF 101340Z AUTO /////KT A2985 RMK MADISHF
LAF,2021-10-10 13:45,KLAF 101345Z AUTO /////KT A2985 RMK MADISHF
LAF,2021-10-10 13:50,KLAF 101350Z AUTO /////KT A2986 RMK MADISHF
LAF,2021-10-10 13:54,KLAF 101354Z A2986 RMK AO2 SLPNO $
LAF,2021-10-10 13:55,KLAF 101355Z AUTO /////KT A2986 RMK MADISHF
LAF,2021-10-10 14:00,KLAF 101400Z AUTO /////KT A2986 RMK MADISHF
LAF,2021-10-10 14:05,KLAF 101405Z AUTO /////KT A2985 RMK MADISHF
LAF,2021-10-10 14:10,KLAF 101410Z AUTO /////KT A2985 RMK MADISHF
LAF,2021-10-10 14:15,KLAF 101415Z AUTO /////KT A2985 RMK MADISHF
LAF,2021-10-10 14:20,KLAF 101420Z AUTO /////KT A2985 RMK MADISHF
LAF,2021-10-10 14:25,KLAF 101425Z AUTO /////KT A2985 RMK MADISHF
LAF,2021-10-10 14:30,KLAF 101430Z AUTO /////KT A2985 RMK MADISHF
LAF,2021-10-10 14:35,KLAF 101435Z AUTO /////KT A2985 RMK MADISHF
LAF,2021-10-10 14:40,KLAF 101440Z AUTO /////KT A2985 RMK MADISHF
LAF,2021-10-10 14:45,KLAF 101445Z AUTO /////KT A2985 RMK MADISHF
LAF,2021-10-10 14:50,KLAF 101450Z AUTO /////KT A2985 RMK MADISHF
LAF,2021-10-10 14:54,KLAF 101454Z A2985 RMK AO2 SLPNO 50003 $
LAF,2021-10-10 14:55,KLAF 101455Z AUTO /////KT A2985 RMK MADISHF
LAF,2021-10-10 15:00,KLAF 101500Z AUTO /////KT A2985 RMK MADISHF
LAF,2021-10-10 15:05,KLAF 101505Z AUTO /////KT A2985 RMK MADISHF
LAF,2021-10-10 15:10,KLAF 101510Z AUTO /////KT A2985 RMK MADISHF
LAF,2021-10-10 15:15,KLAF 101515Z AUTO /////KT A2985 RMK MADISHF
LAF,2021-10-10 15:20,KLAF 101520Z AUTO /////KT A2985 RMK MADISHF
LAF,2021-10-10 15:25,KLAF 101525Z AUTO /////KT A2985 RMK MADISHF
LAF,2021-10-10 15:30,KLAF 101530Z AUTO /////KT A2985 RMK MADISHF
LAF,2021-10-10 15:35,KLAF 101535Z AUTO /////KT A2985 RMK MADISHF
LAF,2021-10-10 15:40,KLAF 101540Z AUTO /////KT A2985 RMK MADISHF
LAF,2021-10-10 15:45,KLAF 101545Z AUTO /////KT A2985 RMK MADISHF
LAF,2021-10-10 15:50,KLAF 101550Z AUTO /////KT A2985 RMK MADISHF
LAF,2021-10-10 15:54,KLAF 101554Z A2984 RMK AO2 SLPNO $
LAF,2021-10-10 15:55,KLAF 101555Z AUTO /////KT A2984 RMK MADISHF
LAF,2021-10-10 16:00,KLAF 101600Z AUTO /////KT A2984 RMK MADISHF
LAF,2021-10-10 16:05,KLAF 101605Z AUTO /////KT A2984 RMK MADISHF
LAF,2021-10-10 16:10,KLAF 101610Z AUTO /////KT A2984 RMK MADISHF
LAF,2021-10-10 16:15,KLAF 101615Z AUTO /////KT A2984 RMK MADISHF
LAF,2021-10-10 16:20,KLAF 101620Z AUTO /////KT A2984 RMK MADISHF
LAF,2021-10-10 16:25,KLAF 101625Z AUTO /////KT A2984 RMK MADISHF
LAF,2021-10-10 16:30,KLAF 101630Z AUTO /////KT A2982 RMK MADISHF
LAF,2021-10-10 16:40,KLAF 101640Z AUTO /////KT A2982 RMK MADISHF
LAF,2021-10-10 16:45,KLAF 101645Z AUTO /////KT A2982 RMK MADISHF
LAF,2021-10-10 16:50,KLAF 101650Z AUTO /////KT A2982 RMK MADISHF
LAF,2021-10-10 16:54,KLAF 101654Z AUTO A2983 RMK AO2 SLPNO PWINO FZRANO
LAF,2021-10-10 16:55,KLAF 101655Z AUTO /////KT A2982 RMK MADISHF
LAF,2021-10-10 17:00,KLAF 101700Z AUTO /////KT A2981 RMK MADISHF
LAF,2021-10-10 17:05,KLAF 101705Z AUTO /////KT A2981 RMK MADISHF
LAF,2021-10-10 17:10,KLAF 101710Z AUTO /////KT A2981 RMK MADISHF
LAF,2021-10-10 17:15,KLAF 101715Z AUTO /////KT A2981 RMK MADISHF
LAF,2021-10-10 17:20,KLAF 101720Z AUTO /////KT A2981 RMK MADISHF
LAF,2021-10-10 17:25,KLAF 101725Z AUTO /////KT A2981 RMK MADISHF
LAF,2021-10-10 17:30,KLAF 101730Z AUTO /////KT A2981 RMK MADISHF
LAF,2021-10-10 17:35,KLAF 101735Z AUTO /////KT A2981 RMK MADISHF
LAF,2021-10-10 17:40,KLAF 101740Z AUTO /////KT A2981 RMK MADISHF
LAF,2021-10-10 17:45,KLAF 101745Z AUTO /////KT A2981 RMK MADISHF
LAF,2021-10-10 17:50,KLAF 101750Z AUTO /////KT A2981 RMK MADISHF
LAF,2021-10-10 17:54,KLAF 101754Z A2982 RMK AO2 SLPNO
LAF,2021-10-10 17:55,KLAF 101755Z AUTO /////KT A2981 RMK MADISHF
LAF,2021-10-10 18:00,KLAF 101800Z AUTO /////KT A2981 RMK MADISHF
LAF,2021-10-10 18:05,KLAF 101805Z AUTO /////KT A2981 RMK MADISHF
LAF,2021-10-10 18:10,KLAF 101810Z AUTO /////KT A2980 RMK MADISHF
LAF,2021-10-10 18:15,KLAF 101815Z AUTO /////KT A2980 RMK MADISHF
LAF,2021-10-10 18:20,KLAF 101820Z AUTO /////KT A2980 RMK MADISHF
LAF,2021-10-10 18:25,KLAF 101825Z AUTO /////KT A2980 RMK MADISHF
LAF,2021-10-10 18:30,KLAF 101830Z AUTO /////KT A2979 RMK MADISHF
LAF,2021-10-10 18:35,KLAF 101835Z AUTO /////KT A2979 RMK MADISHF
LAF,2021-10-10 18:40,KLAF 101840Z AUTO /////KT A2979 RMK MADISHF
LAF,2021-10-10 18:45,KLAF 101845Z AUTO /////KT A2979 RMK MADISHF
LAF,2021-10-10 18:50,KLAF 101850Z AUTO /////KT A2979 RMK MADISHF
LAF,2021-10-10 18:54,KLAF 101854Z A2980 RMK AO2 SLPNO
LAF,2021-10-10 18:55,KLAF 101855Z AUTO /////KT A2979 RMK MADISHF
LAF,2021-10-10 19:00,KLAF 101900Z AUTO /////KT A2979 RMK MADISHF
LAF,2021-10-10 19:05,KLAF 101905Z AUTO /////KT A2979 RMK MADISHF
LAF,2021-10-10 19:10,KLAF 101910Z AUTO /////KT A2979 RMK MADISHF
LAF,2021-10-10 19:15,KLAF 101915Z AUTO /////KT A2979 RMK MADISHF
LAF,2021-10-10 19:20,KLAF 101920Z AUTO /////KT A2979 RMK MADISHF
LAF,2021-10-10 19:25,KLAF 101925Z AUTO /////KT A2979 RMK MADISHF
LAF,2021-10-10 19:30,KLAF 101930Z AUTO /////KT A2978 RMK MADISHF
LAF,2021-10-10 19:35,KLAF 101935Z AUTO /////KT A2978 RMK MADISHF
LAF,2021-10-10 19:40,KLAF 101940Z AUTO /////KT A2978 RMK MADISHF
LAF,2021-10-10 19:45,KLAF 101945Z AUTO /////KT A2978 RMK MADISHF
LAF,2021-10-10 19:50,KLAF 101950Z AUTO /////KT A2978 RMK MADISHF
LAF,2021-10-10 19:54,KLAF 101954Z A2978 RMK AO2 SLPNO
LAF,2021-10-10 19:55,KLAF 101955Z AUTO /////KT A2978 RMK MADISHF
LAF,2021-10-10 20:00,KLAF 102000Z AUTO /////KT A2978 RMK MADISHF
LAF,2021-10-10 20:05,KLAF 102005Z AUTO /////KT A2978 RMK MADISHF
LAF,2021-10-10 20:10,KLAF 102010Z AUTO /////KT A2978 RMK MADISHF
LAF,2021-10-10 20:15,KLAF 102015Z AUTO /////KT A2978 RMK MADISHF
LAF,2021-10-10 20:20,KLAF 102020Z AUTO /////KT A2978 RMK MADISHF
LAF,2021-10-10 20:25,KLAF 102025Z AUTO /////KT A2978 RMK MADISHF
LAF,2021-10-10 20:30,KLAF 102030Z AUTO /////KT A2978 RMK MADISHF
LAF,2021-10-10 20:35,KLAF 102035Z AUTO /////KT A2978 RMK MADISHF
LAF,2021-10-10 20:40,KLAF 102040Z AUTO /////KT A2978 RMK MADISHF
LAF,2021-10-10 20:45,KLAF 102045Z AUTO /////KT A2978 RMK MADISHF
LAF,2021-10-10 20:50,KLAF 102050Z AUTO /////KT A2977 RMK MADISHF
LAF,2021-10-10 20:54,KLAF 102054Z A2977 RMK AO2 SLPNO 56017
LAF,2021-10-10 20:55,KLAF 102055Z AUTO /////KT A2977 RMK MADISHF
LAF,2021-10-10 21:00,KLAF 102100Z AUTO /////KT A2978 RMK MADISHF
LAF,2021-10-10 21:05,KLAF 102105Z AUTO /////KT A2978 RMK T0280 MADISHF
LAF,2021-10-10 21:10,KLAF 102110Z AUTO 19010G16KT 10SM 28/17 A2978 RMK T02800170 MADISHF
LAF,2021-10-10 21:15,KLAF 102115Z AUTO /////KT A2978 RMK MADISHF
LAF,2021-10-10 21:20,KLAF 102120Z AUTO /////KT A2978 RMK MADISHF
LAF,2021-10-10 21:25,KLAF 102125Z AUTO 19005KT 28/17 A2978 RMK T02800170 MADISHF
LAF,2021-10-10 21:40,KLAF 102140Z AUTO /////KT RMK MADISHF
LAF,2021-10-10 22:00,KLAF 102200Z AUTO /////KT A2977 RMK MADISHF
LAF,2021-10-10 22:05,KLAF 102205Z AUTO /////KT A2977 RMK MADISHF
LAF,2021-10-10 22:10,KLAF 102210Z AUTO 17008KT 10SM 28/18 A2978 RMK T02800180 MADISHF
LAF,2021-10-10 22:15,KLAF 102215Z AUTO 18005KT 10SM 28/18 A2977 RMK T02800180 MADISHF
LAF,2021-10-10 22:20,KLAF 102220Z AUTO 17005KT 10SM 27/18 A2977 RMK T02700180 MADISHF
LAF,2021-10-10 22:25,KLAF 102225Z AUTO 17008KT 10SM 27/18 A2978 RMK T02700180 MADISHF
LAF,2021-10-10 22:30,KLAF 102230Z AUTO 17007KT 10SM 27/18 A2978 RMK T02700180 MADISHF
LAF,2021-10-10 22:35,KLAF 102235Z AUTO 17005KT 10SM CLR 27/18 A2978 RMK T02700180 MADISHF
LAF,2021-10-10 22:40,KLAF 102240Z AUTO 17004KT 10SM CLR 27/18 A2978 RMK T02700180 MADISHF
LAF,2021-10-10 22:45,KLAF 102245Z AUTO 16005KT 10SM CLR 27/18 A2978 RMK T02700180 MADISHF
LAF,2021-10-10 22:50,KLAF 102250Z AUTO 17005KT 10SM CLR 27/18 A2978 RMK T02700180 MADISHF
LAF,2021-10-10 22:54,KLAF 102254Z 17006KT 10SM CLR 26/18 A2978 RMK AO2 SLP080 T02610183
LAF,2021-10-10 22:55,KLAF 102255Z AUTO 17005KT 10SM CLR 26/18 A2978 RMK T02600180 MADISHF
LAF,2021-10-10 23:00,KLAF 102300Z AUTO 17005KT 10SM CLR 26/18 A2978 RMK T02600180 MADISHF
LAF,2021-10-10 23:05,KLAF 102305Z AUTO 17005KT 10SM CLR 26/18 A2978 RMK T02600180 MADISHF
LAF,2021-10-10 23:10,KLAF 102310Z AUTO 17007KT 10SM CLR 26/18 A2978 RMK T02600180 MADISHF
LAF,2021-10-10 23:15,KLAF 102315Z AUTO 17005KT 10SM CLR 26/18 A2978 RMK T02600180 VRB06KT  MADISHF
LAF,2021-10-10 23:20,KLAF 102320Z AUTO 17005KT 10SM CLR 26/18 A2978 RMK T02600180 MADISHF
LAF,2021-10-10 23:25,KLAF 102325Z AUTO 17007KT 10SM CLR 26/18 A2978 RMK T02600180 MADISHF
LAF,2021-10-10 23:30,KLAF 102330Z AUTO 17008KT 10SM CLR 26/18 A2978 RMK T02600180 MADISHF
LAF,2021-10-10 23:35,KLAF 102335Z AUTO 18005KT 10SM CLR 26/18 A2978 RMK T02600180 MADISHF
LAF,2021-10-10 23:40,KLAF 102340Z AUTO 18005KT 10SM CLR 26/18 A2979 RMK T02600180 VRB06KT  MADISHF
LAF,2021-10-10 23:45,KLAF 102345Z AUTO 18007KT 10SM CLR 26/18 A2979 RMK T02600180 MADISHF
LAF,2021-10-10 23:50,KLAF 102350Z AUTO 18007KT 10SM CLR 26/18 A2979 RMK T02600180 MADISHF
LAF,2021-10-10 23:54,KLAF 102354Z 18007KT 140V210 10SM CLR 26/18 A2979 RMK AO2 SLP083 T02560178
LAF,2021-10-10 23:55,KLAF 102355Z AUTO 18008KT 10SM CLR 26/18 A2979 RMK T02600180 WND 14V21  MADISHF
LAF,2021-10-11 00:00,KLAF 110000Z AUTO 18008KT 10SM CLR 26/18 A2979 RMK T02600180 MADISHF
LAF,2021-10-11 00:05,KLAF 110005Z AUTO 18007KT 10SM CLR 25/18 A2979 RMK T02500180 MADISHF
LAF,2021-10-11 00:10,KLAF 110010Z AUTO 17005KT 10SM CLR 25/18 A2979 RMK T02500180 MADISHF
LAF,2021-10-11 00:15,KLAF 110015Z AUTO 18007KT 10SM CLR 25/18 A2979 RMK T02500180 MADISHF
LAF,2021-10-11 00:20,KLAF 110020Z AUTO 18008KT 10SM CLR 25/18 A2979 RMK T02500180 WND 14V22  MADISHF
LAF,2021-10-11 00:25,KLAF 110025Z AUTO 17010G16KT 10SM CLR 25/18 A2979 RMK T02500180 MADISHF
LAF,2021-10-11 00:30,KLAF 110030Z AUTO 17007KT 10SM CLR 25/18 A2979 RMK T02500180 MADISHF
LAF,2021-10-11 00:35,KLAF 110035Z AUTO 17008KT 10SM CLR 25/18 A2979 RMK T02500180 MADISHF
LAF,2021-10-11 00:40,KLAF 110040Z AUTO 17005KT 10SM CLR 25/18 A2979 RMK T02500180 MADISHF
LAF,2021-10-11 00:45,KLAF 110045Z AUTO 17007KT 10SM CLR 24/18 A2979 RMK T02400180 MADISHF
LAF,2021-10-11 00:50,KLAF 110050Z AUTO 17009KT 10SM CLR 24/18 A2979 RMK T02400180 MADISHF
LAF,2021-10-11 00:54,KLAF 110054Z 17009G17KT 10SM CLR 24/18 A2980 RMK AO2 SLPNO T02440183
LAF,2021-10-11 00:55,KLAF 110055Z AUTO 17009KT 10SM CLR 24/18 A2979 RMK T02400180 MADISHF
LAF,2021-10-11 01:00,KLAF 110100Z AUTO 17009KT 10SM CLR 24/18 A2979 RMK T02400180 MADISHF
LAF,2021-10-11 01:05,KLAF 110105Z AUTO 17005KT 10SM CLR 24/18 A2979 RMK T02400180 MADISHF
LAF,2021-10-11 01:10,KLAF 110110Z AUTO 17008KT 10SM CLR 24/18 A2979 RMK T02400180 MADISHF
LAF,2021-10-11 01:15,KLAF 110115Z AUTO 17008KT 10SM CLR 24/18 A2979 RMK T02400180 MADISHF
LAF,2021-10-11 01:20,KLAF 110120Z AUTO 17009KT 10SM CLR 24/18 A2979 RMK T02400180 MADISHF
LAF,2021-10-11 01:25,KLAF 110125Z AUTO 17008KT 10SM CLR 24/18 A2979 RMK T02400180 MADISHF
LAF,2021-10-11 01:30,KLAF 110130Z AUTO 17007KT 10SM CLR 24/18 A2979 RMK T02400180 MADISHF
LAF,2021-10-11 01:35,KLAF 110135Z AUTO 18009G16KT 10SM CLR 24/18 A2979 RMK T02400180 MADISHF
LAF,2021-10-11 01:40,KLAF 110140Z AUTO 17009G15KT 10SM CLR 24/18 A2979 RMK T02400180 MADISHF
LAF,2021-10-11 01:45,KLAF 110145Z AUTO 18009G14KT 10SM CLR 24/18 A2979 RMK T02400180 MADISHF
LAF,2021-10-11 01:50,KLAF 110150Z AUTO 17008KT 10SM CLR 24/18 A2979 RMK T02400180 MADISHF
LAF,2021-10-11 01:54,KLAF 110154Z AUTO 17010G17KT 10SM CLR 24/18 A2980 RMK AO2 SLPNO T02390183
LAF,2021-10-11 01:55,KLAF 110155Z AUTO 17010G16KT 10SM CLR 24/18 A2979 RMK T02400180 MADISHF
LAF,2021-10-11 02:00,KLAF 110200Z AUTO 17011G19KT 10SM CLR 24/18 A2979 RMK T02400180 MADISHF
LAF,2021-10-11 02:05,KLAF 110205Z AUTO 17007KT 10SM CLR 24/18 A2979 RMK T02400180 MADISHF
LAF,2021-10-11 02:10,KLAF 110210Z AUTO 17011G17KT 10SM CLR 24/18 A2979 RMK T02400180 MADISHF
LAF,2021-10-11 02:15,KLAF 110215Z AUTO 18007KT 10SM CLR 24/18 A2979 RMK T02400180 MADISHF
LAF,2021-10-11 02:20,KLAF 110220Z AUTO 17010KT 10SM CLR 24/18 A2979 RMK T02400180 MADISHF
LAF,2021-10-11 02:25,KLAF 110225Z AUTO 17009G15KT 10SM CLR 24/18 A2979 RMK T02400180 MADISHF
LAF,2021-10-11 02:30,KLAF 110230Z AUTO 17010G18KT 10SM CLR 24/18 A2979 RMK T02400180 MADISHF
LAF,2021-10-11 02:35,KLAF 110235Z AUTO 17011KT 10SM CLR 24/18 A2979 RMK T02400180 MADISHF
LAF,2021-10-11 02:40,KLAF 110240Z AUTO 18008KT 10SM CLR 24/18 A2979 RMK T02400180 MADISHF
LAF,2021-10-11 02:45,KLAF 110245Z AUTO 18009G15KT 10SM CLR 24/18 A2979 RMK T02400180 MADISHF
LAF,2021-10-11 02:50,KLAF 110250Z AUTO 17009G18KT 10SM CLR 24/18 A2979 RMK T02400180 MADISHF
LAF,2021-10-11 02:54,KLAF 110254Z AUTO 18012G21KT 10SM CLR 24/18 A2979 RMK AO2 SLPNO T02390183 50001
LAF,2021-10-11 02:55,KLAF 110255Z AUTO 18010KT 10SM CLR 24/18 A2979 RMK T02400180 MADISHF
LAF,2021-10-11 03:00,KLAF 110300Z AUTO 18007KT 10SM CLR 24/18 A2979 RMK T02400180 MADISHF
LAF,2021-10-11 03:05,KLAF 110305Z AUTO 18010G15KT 10SM CLR 24/18 A2979 RMK T02400180 MADISHF
LAF,2021-10-11 03:10,KLAF 110310Z AUTO 19008KT 10SM CLR 23/18 A2979 RMK T02300180 MADISHF
LAF,2021-10-11 03:15,KLAF 110315Z AUTO 18007KT 10SM CLR 23/18 A2979 RMK T02300180 MADISHF
LAF,2021-10-11 03:20,KLAF 110320Z AUTO 18008KT 10SM CLR 23/18 A2979 RMK T02300180 MADISHF
LAF,2021-10-11 03:25,KLAF 110325Z AUTO 18008KT 10SM CLR 23/18 A2979 RMK T02300180 MADISHF
LAF,2021-10-11 03:30,KLAF 110330Z AUTO 18008KT 10SM CLR 23/18 A2979 RMK T02300180 MADISHF
LAF,2021-10-11 03:35,KLAF 110335Z AUTO 18009KT 10SM CLR 23/18 A2979 RMK T02300180 MADISHF
LAF,2021-10-11 03:40,KLAF 110340Z AUTO 18005KT 10SM CLR 23/18 A2979 RMK T02300180 MADISHF
LAF,2021-10-11 03:45,KLAF 110345Z AUTO 18007KT 10SM CLR 23/18 A2979 RMK T02300180 MADISHF
LAF,2021-10-11 03:50,KLAF 110350Z AUTO 18008KT 10SM CLR 23/18 A2979 RMK T02300180 WND 16V23  MADISHF
LAF,2021-10-11 03:54,KLAF 110354Z AUTO 17007G15KT 130V200 10SM CLR 23/18 A2979 RMK AO2 SLPNO T02330183
LAF,2021-10-11 03:55,KLAF 110355Z AUTO 18007KT 10SM CLR 23/18 A2979 RMK T02300180 MADISHF
LAF,2021-10-11 04:00,KLAF 110400Z AUTO 18010KT 10SM CLR 23/18 A2979 RMK T02300180 MADISHF
LAF,2021-10-11 04:05,KLAF 110405Z AUTO 17009G16KT 10SM CLR 23/18 A2979 RMK T02300180 WND 14V22  MADISHF
LAF,2021-10-11 04:10,KLAF 110410Z AUTO 19008KT 10SM CLR 23/18 A2979 RMK T02300180 MADISHF
LAF,2021-10-11 04:15,KLAF 110415Z AUTO 18008KT 10SM CLR 23/18 A2979 RMK T02300180 MADISHF
LAF,2021-10-11 04:20,KLAF 110420Z AUTO 19009G14KT 10SM CLR 23/18 A2979 RMK T02300180 MADISHF
LAF,2021-10-11 04:25,KLAF 110425Z AUTO 19011G17KT 10SM CLR 23/18 A2979 RMK T02300180 MADISHF
LAF,2021-10-11 04:30,KLAF 110430Z AUTO 19008KT 10SM CLR 23/18 A2979 RMK T02300180 MADISHF
LAF,2021-10-11 04:35,KLAF 110435Z AUTO 19009KT 10SM CLR 23/18 A2979 RMK T02300180 MADISHF
LAF,2021-10-11 04:40,KLAF 110440Z AUTO 20009G17KT 10SM CLR 23/18 A2979 RMK T02300180 MADISHF
LAF,2021-10-11 04:45,KLAF 110445Z AUTO 19008KT 10SM CLR 23/18 A2979 RMK T02300180 WND 15V22  MADISHF
LAF,2021-10-11 04:50,KLAF 110450Z AUTO 19007KT 10SM CLR 23/18 A2979 RMK T02300180 MADISHF
LAF,2021-10-11 04:54,KLAF 110454Z AUTO 19008G17KT 10SM CLR 23/18 A2980 RMK AO2 SLPNO T02330183
LAF,2021-10-11 04:55,KLAF 110455Z AUTO 19010KT 10SM CLR 23/18 A2979 RMK T02300180 MADISHF
LAF,2021-10-11 05:00,KLAF 110500Z AUTO 19008KT 10SM CLR 23/18 A2979 RMK T02300180 MADISHF
LAF,2021-10-11 05:05,KLAF 110505Z AUTO 19008KT 10SM CLR 23/18 A2979 RMK T02300180 WND 16V22  MADISHF
LAF,2021-10-11 05:10,KLAF 110510Z AUTO 19009KT 10SM CLR 23/18 A2979 RMK T02300180 MADISHF
LAF,2021-10-11 05:15,KLAF 110515Z AUTO 19007KT 10SM CLR 23/18 A2979 RMK T02300180 MADISHF
LAF,2021-10-11 05:20,KLAF 110520Z AUTO 19008KT 10SM CLR 23/18 A2979 RMK T02300180 MADISHF
LAF,2021-10-11 05:25,KLAF 110525Z AUTO 19010G18KT 10SM CLR 23/18 A2979 RMK T02300180 MADISHF
LAF,2021-10-11 05:30,KLAF 110530Z AUTO 19008KT 10SM CLR 23/18 A2979 RMK T02300180 MADISHF
LAF,2021-10-11 05:35,KLAF 110535Z AUTO 19010KT 10SM CLR 23/18 A2979 RMK T02300180 MADISHF
LAF,2021-10-11 05:40,KLAF 110540Z AUTO 18008KT 10SM CLR 23/18 A2979 RMK T02300180 MADISHF
LAF,2021-10-11 05:45,KLAF 110545Z AUTO 18009KT 10SM CLR 23/18 A2979 RMK T02300180 MADISHF
LAF,2021-10-11 05:50,KLAF 110550Z AUTO 19008KT 10SM CLR 23/18 A2980 RMK T02300180 MADISHF
LAF,2021-10-11 05:54,KLAF 110554Z AUTO 19008G19KT 10SM CLR 23/18 A2981 RMK AO2 SLPNO T02330183 10256 20228 53005
LAF,2021-10-11 05:55,KLAF 110555Z AUTO 19009KT 10SM CLR 23/18 A2980 RMK T02300180 MADISHF
LAF,2021-10-11 06:00,KLAF 110600Z AUTO 19007KT 10SM CLR 23/18 A2980 RMK T02300180 WND 17V23  MADISHF
LAF,2021-10-11 06:05,KLAF 110605Z AUTO 19007KT 10SM CLR 23/18 A2979 RMK T02300180 MADISHF
LAF,2021-10-11 06:10,KLAF 110610Z AUTO 20005KT 10SM CLR 23/18 A2980 RMK T02300180 MADISHF
LAF,2021-10-11 06:15,KLAF 110615Z AUTO 19008KT 10SM CLR 23/18 A2980 RMK T02300180 MADISHF
LAF,2021-10-11 06:20,KLAF 110620Z AUTO 19005KT 10SM CLR 23/18 A2980 RMK T02300180 MADISHF
LAF,2021-10-11 06:25,KLAF 110625Z AUTO 20007KT 10SM CLR 23/18 A2980 RMK T02300180 WND 15V23  MADISHF
LAF,2021-10-11 06:30,KLAF 110630Z AUTO 20007KT 10SM CLR 23/18 A2980 RMK T02300180 MADISHF
LAF,2021-10-11 06:35,KLAF 110635Z AUTO 20008KT 10SM CLR 23/18 A2980 RMK T02300180 WND 17V25  MADISHF
LAF,2021-10-11 06:40,KLAF 110640Z AUTO 20005KT 10SM CLR 23/18 A2980 RMK T02300180 MADISHF
LAF,2021-10-11 06:45,KLAF 110645Z AUTO 20008KT 10SM CLR 23/18 A2980 RMK T02300180 MADISHF
LAF,2021-10-11 06:50,KLAF 110650Z AUTO 20008KT 10SM CLR 23/18 A2980 RMK T02300180 MADISHF
LAF,2021-10-11 06:54,KLAF 110654Z AUTO 19005G15KT 10SM CLR 23/18 A2981 RMK AO2 SLPNO T02280178
LAF,2021-10-11 06:55,KLAF 110655Z AUTO 19005KT 10SM CLR 23/18 A2981 RMK T02300180 MADISHF
LAF,2021-10-11 07:00,KLAF 110700Z AUTO 19008KT 10SM CLR 23/18 A2980 RMK T02300180 MADISHF
LAF,2021-10-11 07:05,KLAF 110705Z AUTO 19007KT 10SM CLR 23/18 A2981 RMK T02300180 MADISHF
LAF,2021-10-11 07:10,KLAF 110710Z AUTO 19008KT 10SM CLR 23/18 A2980 RMK T02300180 MADISHF
LAF,2021-10-11 07:15,KLAF 110715Z AUTO 19008KT 10SM CLR 23/18 A2981 RMK T02300180 MADISHF
LAF,2021-10-11 07:20,KLAF 110720Z AUTO 19007KT 10SM CLR 23/18 A2981 RMK T02300180 MADISHF
LAF,2021-10-11 07:25,KLAF 110725Z AUTO 19005KT 10SM CLR 23/18 A2981 RMK T02300180 MADISHF
LAF,2021-10-11 07:30,KLAF 110730Z AUTO 20008KT 10SM CLR 23/18 A2981 RMK T02300180 MADISHF
LAF,2021-10-11 07:35,KLAF 110735Z AUTO 20007KT 10SM CLR 22/18 A2981 RMK T02200180 MADISHF
LAF,2021-10-11 07:40,KLAF 110740Z AUTO 19007KT 10SM CLR 22/18 A2981 RMK T02200180 MADISHF
LAF,2021-10-11 07:45,KLAF 110745Z AUTO 21005KT 10SM CLR 22/18 A2980 RMK T02200180 MADISHF
LAF,2021-10-11 07:50,KLAF 110750Z AUTO 20005KT 10SM CLR 22/18 A2981 RMK T02200180 MADISHF
LAF,2021-10-11 07:54,KLAF 110754Z AUTO 20008KT 180V240 10SM CLR 22/18 A2982 RMK AO2 SLPNO T02220178
LAF,2021-10-11 07:55,KLAF 110755Z AUTO 21007KT 10SM CLR 22/18 A2981 RMK T02200180 MADISHF
LAF,2021-10-11 08:00,KLAF 110800Z AUTO 20005KT 10SM CLR 22/18 A2981 RMK T02200180 MADISHF
LAF,2021-10-11 08:05,KLAF 110805Z AUTO 20005KT 10SM CLR 22/18 A2980 RMK T02200180 MADISHF
LAF,2021-10-11 08:10,KLAF 110810Z AUTO 19005KT 10SM CLR 22/18 A2980 RMK T02200180 MADISHF
LAF,2021-10-11 08:15,KLAF 110815Z AUTO 20002KT 10SM CLR 22/18 A2980 RMK T02200180 VRB03KT  MADISHF
LAF,2021-10-11 08:20,KLAF 110820Z AUTO 20005KT 10SM CLR 22/18 A2980 RMK T02200180 MADISHF
LAF,2021-10-11 08:25,KLAF 110825Z AUTO 20004KT 10SM CLR 22/18 A2980 RMK T02200180 MADISHF
LAF,2021-10-11 08:30,KLAF 110830Z AUTO 20005KT 10SM CLR 22/18 A2980 RMK T02200180 MADISHF
LAF,2021-10-11 08:35,KLAF 110835Z AUTO 19004KT 10SM CLR 22/18 A2980 RMK T02200180 MADISHF
LAF,2021-10-11 08:40,KLAF 110840Z AUTO 18005KT 10SM CLR 22/18 A2981 RMK T02200180 MADISHF
LAF,2021-10-11 08:45,KLAF 110845Z AUTO 19007KT 10SM CLR 22/18 A2981 RMK T02200180 MADISHF
LAF,2021-10-11 08:50,KLAF 110850Z AUTO 20002KT 10SM CLR 22/18 A2980 RMK T02200180 VRB03KT  MADISHF
LAF,2021-10-11 08:54,KLAF 110854Z AUTO 19007KT 10SM CLR 22/18 A2981 RMK AO2 SLPNO T02170178 50002
LAF,2021-10-11 08:55,KLAF 110855Z AUTO 19005KT 10SM CLR 22/18 A2980 RMK T02200180 MADISHF
LAF,2021-10-11 09:00,KLAF 110900Z AUTO 19007KT 10SM CLR 21/18 A2980 RMK T02100180 MADISHF
LAF,2021-10-11 09:05,KLAF 110905Z AUTO 18005KT 10SM CLR 22/18 A2980 RMK T02200180 MADISHF
LAF,2021-10-11 09:10,KLAF 110910Z AUTO 19005KT 10SM CLR 21/18 A2981 RMK T02100180 MADISHF
LAF,2021-10-11 09:15,KLAF 110915Z AUTO 18007KT 10SM CLR 21/18 A2980 RMK T02100180 MADISHF
LAF,2021-10-11 09:20,KLAF 110920Z AUTO 19004KT 10SM CLR 21/18 A2980 RMK T02100180 MADISHF
LAF,2021-10-11 09:25,KLAF 110925Z AUTO 18005KT 10SM CLR 21/18 A2980 RMK T02100180 MADISHF
LAF,2021-10-11 09:30,KLAF 110930Z AUTO 17005KT 10SM CLR 21/18 A2980 RMK T02100180 MADISHF
LAF,2021-10-11 09:35,KLAF 110935Z AUTO 18005KT 10SM CLR 21/18 A2980 RMK T02100180 MADISHF
LAF,2021-10-11 09:40,KLAF 110940Z AUTO 18005KT 10SM CLR 21/18 A2980 RMK T02100180 MADISHF
LAF,2021-10-11 09:45,KLAF 110945Z AUTO 17004KT 10SM CLR 21/18 A2980 RMK T02100180 MADISHF
LAF,2021-10-11 09:50,KLAF 110950Z AUTO 18005KT 10SM CLR 21/18 A2980 RMK T02100180 MADISHF
LAF,2021-10-11 09:54,KLAF 110954Z AUTO 18005KT 10SM CLR 21/18 A2981 RMK AO2 SLPNO T02060178
LAF,2021-10-11 09:55,KLAF 110955Z AUTO 18005KT 10SM CLR 21/18 A2980 RMK T02100180 MADISHF
LAF,2021-10-11 10:00,KLAF 111000Z AUTO /////KT 10SM CLR 21/18 A2980 RMK T02100180 MADISHF
LAF,2021-10-11 10:05,KLAF 111005Z AUTO 19005KT 10SM CLR 21/18 A2980 RMK T02100180 MADISHF
LAF,2021-10-11 10:10,KLAF 111010Z AUTO 18005KT 10SM CLR 21/18 A2980 RMK T02100180 MADISHF
LAF,2021-10-11 10:15,KLAF 111015Z AUTO 19007KT 10SM CLR 21/18 A2980 RMK T02100180 MADISHF
LAF,2021-10-11 10:20,KLAF 111020Z AUTO 18005KT 10SM CLR 21/18 A2980 RMK T02100180 MADISHF
LAF,2021-10-11 10:25,KLAF 111025Z AUTO 18008KT 10SM CLR 21/18 A2980 RMK T02100180 MADISHF
LAF,2021-10-11 10:30,KLAF 111030Z AUTO 19009KT 10SM CLR 21/18 A2980 RMK T02100180 MADISHF
LAF,2021-10-11 10:35,KLAF 111035Z AUTO 18005KT 10SM CLR 21/18 A2979 RMK T02100180 MADISHF
LAF,2021-10-11 10:40,KLAF 111040Z AUTO 17005KT 10SM CLR 21/18 A2979 RMK T02100180 MADISHF
LAF,2021-10-11 10:45,KLAF 111045Z AUTO 18005KT 10SM CLR 21/18 A2979 RMK T02100180 MADISHF
LAF,2021-10-11 10:50,KLAF 111050Z AUTO 18004KT 10SM CLR 21/18 A2979 RMK T02100180 MADISHF
LAF,2021-10-11 10:54,KLAF 111054Z 18007KT 10SM CLR 21/18 A2980 RMK AO2 SLP086 T02110183
LAF,2021-10-11 10:55,KLAF 111055Z AUTO 18005KT 10SM CLR 21/18 A2979 RMK T02100180 MADISHF
LAF,2021-10-11 11:00,KLAF 111100Z AUTO 18007KT 10SM CLR 21/18 A2979 RMK T02100180 MADISHF
LAF,2021-10-11 11:05,KLAF 111105Z AUTO 18005KT 10SM CLR 21/18 A2979 RMK T02100180 VRB05KT  MADISHF
LAF,2021-10-11 11:10,KLAF 111110Z AUTO 18007KT 10SM CLR 21/18 A2979 RMK T02100180 WND 14V21  MADISHF
LAF,2021-10-11 11:15,KLAF 111115Z AUTO 18005KT 10SM CLR 21/18 A2979 RMK T02100180 MADISHF
LAF,2021-10-11 11:20,KLAF 111120Z AUTO 18005KT 10SM CLR 21/18 A2979 RMK T02100180 VRB05KT  MADISHF
LAF,2021-10-11 11:25,KLAF 111125Z AUTO 19005KT 10SM CLR 21/18 A2980 RMK T02100180 VRB06KT  MADISHF
LAF,2021-10-11 11:30,KLAF 111130Z AUTO 19007KT 10SM CLR 21/18 A2980 RMK T02100180 MADISHF
LAF,2021-10-11 11:35,KLAF 111135Z AUTO 18005KT 10SM CLR 21/18 A2980 RMK T02100180 MADISHF
LAF,2021-10-11 11:40,KLAF 111140Z AUTO 19008KT 10SM CLR 22/18 A2980 RMK T02200180 MADISHF
LAF,2021-10-11 11:45,KLAF 111145Z AUTO 19007KT 10SM CLR 22/18 A2980 RMK T02200180 MADISHF
LAF,2021-10-11 11:50,KLAF 111150Z AUTO 19007KT 10SM CLR 22/18 A2980 RMK T02200180 MADISHF
LAF,2021-10-11 11:54,KLAF 111154Z 20005KT 10SM CLR 22/18 A2980 RMK AO2 SLP087 T02170183 10233 20206 55003 $
LAF,2021-10-11 11:55,KLAF 111155Z AUTO 19007KT 10SM CLR 22/18 A2979 RMK T02200180 MADISHF
LAF,2021-10-11 12:00,KLAF 111200Z AUTO 19007KT 10SM CLR 22/18 A2980 RMK T02200180 WND 15V23  MADISHF
LAF,2021-10-11 12:05,KLAF 111205Z AUTO 19007KT 10SM CLR 22/18 A2980 RMK T02200180 MADISHF
LAF,2021-10-11 12:10,KLAF 111210Z AUTO 19007KT 10SM CLR 22/18 A2980 RMK T02200180 MADISHF
LAF,2021-10-11 12:15,KLAF 111215Z AUTO 19009KT 10SM CLR 22/18 A2980 RMK T02200180 MADISHF
LAF,2021-10-11 12:20,KLAF 111220Z AUTO 19007KT 10SM CLR 22/18 A2980 RMK T02200180 MADISHF
LAF,2021-10-11 12:25,KLAF 111225Z AUTO 18005KT 10SM CLR 22/18 A2980 RMK T02200180 MADISHF
LAF,2021-10-11 12:30,KLAF 111230Z AUTO 18005KT 10SM CLR 22/18 A2980 RMK T02200180 MADISHF
LAF,2021-10-11 12:35,KLAF 111235Z AUTO 18008KT 10SM CLR 22/18 A2980 RMK T02200180 WND 15V21  MADISHF
LAF,2021-10-11 12:40,KLAF 111240Z AUTO 18005KT 10SM CLR 22/18 A2980 RMK T02200180 MADISHF
LAF,2021-10-11 12:45,KLAF 111245Z AUTO 18007KT 10SM CLR 22/18 A2980 RMK T02200180 WND 15V21  MADISHF
LAF,2021-10-11 12:50,KLAF 111250Z AUTO 19005KT 10SM CLR 22/18 A2980 RMK T02200180 MADISHF
LAF,2021-10-11 12:54,KLAF 111254Z 18009KT 10SM CLR 22/18 A2981 RMK AO2 SLP091 T02170183 $
LAF,2021-10-11 12:55,KLAF 111255Z AUTO 18009G15KT 10SM CLR 22/18 A2980 RMK T02200180 MADISHF
LAF,2021-10-11 13:00,KLAF 111300Z AUTO 18007KT 10SM CLR 22/18 A2981 RMK T02200180 MADISHF
LAF,2021-10-11 13:05,KLAF 111305Z AUTO 18009G15KT 10SM CLR 22/18 A2981 RMK T02200180 MADISHF
LAF,2021-10-11 13:10,KLAF 111310Z AUTO 18007KT 10SM CLR 22/18 A2980 RMK T02200180 MADISHF
LAF,2021-10-11 13:15,KLAF 111315Z AUTO 18008KT 10SM CLR 22/18 A2981 RMK T02200180 MADISHF
LAF,2021-10-11 13:20,KLAF 111320Z AUTO 17007KT 10SM CLR 22/18 A2980 RMK T02200180 MADISHF
LAF,2021-10-11 13:25,KLAF 111325Z AUTO 17005KT 10SM CLR 22/18 A2980 RMK T02200180 MADISHF
LAF,2021-10-11 13:30,KLAF 111330Z AUTO 17009G14KT 10SM CLR 22/19 A2980 RMK T02200190 MADISHF
LAF,2021-10-11 13:35,KLAF 111335Z AUTO 17008KT 10SM CLR 22/19 A2980 RMK T02200190 MADISHF
LAF,2021-10-11 13:40,KLAF 111340Z AUTO 18005KT 10SM CLR 22/19 A2980 RMK T02200190 MADISHF
LAF,2021-10-11 13:45,KLAF 111345Z AUTO 18007KT 10SM CLR 22/19 A2980 RMK T02200190 WND 16V22  MADISHF
LAF,2021-10-11 13:50,KLAF 111350Z AUTO 18008KT 10SM CLR 22/19 A2981 RMK T02200190 MADISHF
LAF,2021-10-11 13:54,KLAF 111354Z 19008KT 10SM CLR 22/19 A2982 RMK AO2 SLP093 T02170189 $
LAF,2021-10-11 13:55,KLAF 111355Z AUTO 19009KT 10SM CLR 22/19 A2981 RMK T02200190 MADISHF
LAF,2021-10-11 14:00,KLAF 111400Z AUTO 18007KT 10SM CLR 22/19 A2981 RMK T02200190 MADISHF
LAF,2021-10-11 14:05,KLAF 111405Z AUTO 18007KT 10SM CLR 22/19 A2981 RMK T02200190 MADISHF
LAF,2021-10-11 14:10,KLAF 111410Z AUTO 17010G15KT 10SM CLR 22/19 A2981 RMK T02200190 MADISHF
LAF,2021-10-11 14:15,KLAF 111415Z AUTO 18005KT 10SM CLR 22/19 A2980 RMK T02200190 MADISHF
LAF,2021-10-11 14:20,KLAF 111420Z AUTO 17009KT 10SM CLR 23/19 A2980 RMK T02300190 MADISHF
LAF,2021-10-11 14:25,KLAF 111425Z AUTO 17009KT 10SM CLR 23/19 A2980 RMK T02300190 MADISHF
LAF,2021-10-11 14:30,KLAF 111430Z AUTO 17007KT 10SM CLR 23/19 A2980 RMK T02300190 MADISHF
LAF,2021-10-11 14:35,KLAF 111435Z AUTO 17007KT 10SM CLR 23/19 A2980 RMK T02300190 MADISHF
LAF,2021-10-11 14:40,KLAF 111440Z AUTO 17013G18KT 10SM CLR 23/19 A2980 RMK T02300190 MADISHF
LAF,2021-10-11 14:45,KLAF 111445Z AUTO 18008KT 10SM CLR 23/19 A2980 RMK T02300190 MADISHF
LAF,2021-10-11 14:50,KLAF 111450Z AUTO 17008KT 10SM CLR 23/19 A2980 RMK T02300190 MADISHF
LAF,2021-10-11 14:54,KLAF 111454Z 16009KT 10SM CLR 23/19 A2980 RMK AO2 SLP084 T02330189 58002 $
LAF,2021-10-11 14:55,KLAF 111455Z AUTO 15009G14KT 10SM CLR 23/19 A2979 RMK T02300190 MADISHF
LAF,2021-10-11 15:00,KLAF 111500Z AUTO 17005KT 10SM CLR 23/19 A2980 RMK T02300190 VRB06KT  MADISHF
LAF,2021-10-11 15:05,KLAF 111505Z AUTO 16008KT 10SM CLR 23/19 A2980 RMK T02300190 MADISHF
LAF,2021-10-11 15:10,KLAF 111510Z AUTO 16007KT 10SM CLR 23/19 A2979 RMK T02300190 WND 12V19  MADISHF
LAF,2021-10-11 15:15,KLAF 111515Z AUTO 17008KT 10SM CLR 23/19 A2980 RMK T02300190 MADISHF
LAF,2021-10-11 15:20,KLAF 111520Z AUTO 16005KT 10SM CLR 23/19 A2979 RMK T02300190 VRB06KT  MADISHF
LAF,2021-10-11 15:25,KLAF 111525Z AUTO 17007KT 10SM CLR 23/19 A2980 RMK T02300190 MADISHF
LAF,2021-10-11 15:30,KLAF 111530Z AUTO 17010G15KT 10SM CLR 23/19 A2979 RMK T02300190 MADISHF
LAF,2021-10-11 15:35,KLAF 111535Z AUTO 17005KT 10SM CLR 23/19 A2979 RMK T02300190 MADISHF
LAF,2021-10-11 15:40,KLAF 111540Z AUTO 15008KT 10SM CLR 24/19 A2979 RMK T02400190 MADISHF
LAF,2021-10-11 15:45,KLAF 111545Z AUTO 16010G16KT 10SM FEW026 24/19 A2979 RMK T02400190 MADISHF
LAF,2021-10-11 15:50,KLAF 111550Z AUTO 17005KT 10SM FEW026 24/19 A2979 RMK T02400190 MADISHF
LAF,2021-10-11 15:54,KLAF 111554Z 16008G17KT 10SM SCT026 24/19 A2979 RMK AO2 SLP083 T02390194 $
LAF,2021-10-11 15:55,KLAF 111555Z AUTO 16005KT 10SM SCT026 24/19 A2979 RMK T02400190 MADISHF
LAF,2021-10-11 16:00,KLAF 111600Z AUTO 16011G18KT 10SM SCT026 24/19 A2979 RMK T02400190 MADISHF
LAF,2021-10-11 16:05,KLAF 111605Z AUTO 15011G17KT 10SM SCT026 23/19 A2979 RMK T02300190 MADISHF
LAF,2021-10-11 16:10,KLAF 111610Z AUTO 17008KT 10SM SCT026 24/19 A2979 RMK T02400190 MADISHF
LAF,2021-10-11 16:15,KLAF 111615Z AUTO 14010G15KT 10SM SCT026 24/19 A2979 RMK T02400190 MADISHF
LAF,2021-10-11 16:20,KLAF 111620Z AUTO 15009KT 10SM SCT026 24/19 A2979 RMK T02400190 MADISHF
LAF,2021-10-11 16:25,KLAF 111625Z AUTO 16011G19KT 10SM BKN026 24/19 A2979 RMK T02400190 WND 13V20  MADISHF
LAF,2021-10-11 16:29,KLAF 111629Z 15011G20KT 10SM BKN026 24/19 A2979 RMK AO2 T02390189 $
LAF,2021-10-11 16:30,KLAF 111630Z AUTO 15011G18KT 10SM BKN026 24/19 A2978 RMK T02400190 MADISHF
LAF,2021-10-11 16:35,KLAF 111635Z AUTO 16011G19KT 10SM SCT026 24/19 A2978 RMK T02400190 MADISHF
LAF,2021-10-11 16:38,KLAF 111638Z 16010G21KT 10SM SCT025 24/19 A2978 RMK AO2 T02390189 $
LAF,2021-10-11 16:40,KLAF 111640Z AUTO 15011G17KT 10SM SCT025 24/19 A2978 RMK T02400190 MADISHF
LAF,2021-10-11 16:45,KLAF 111645Z AUTO 16007KT 10SM FEW025 24/19 A2978 RMK T02400190 WND 14V20  MADISHF
LAF,2021-10-11 16:50,KLAF 111650Z AUTO 17010KT 10SM FEW024 24/19 A2978 RMK T02400190 MADISHF
LAF,2021-10-11 16:54,KLAF 111654Z 17009G19KT 130V210 10SM FEW024 24/19 A2977 RMK AO2 SLP077 T02390194 $
LAF,2021-10-11 16:55,KLAF 111655Z AUTO 15010G15KT 10SM FEW024 24/19 A2977 RMK T02400190 WND 13V20  MADISHF
LAF,2021-10-11 17:00,KLAF 111700Z AUTO 15011G16KT 10SM FEW024 24/19 A2977 RMK T02400190 MADISHF
LAF,2021-10-11 17:05,KLAF 111705Z AUTO 15008KT 10SM FEW024 24/19 A2977 RMK T02400190 WND 11V18  MADISHF
LAF,2021-10-11 17:10,KLAF 111710Z AUTO 17010G16KT 10SM FEW025 24/19 A2977 RMK T02400190 MADISHF
LAF,2021-10-11 17:15,KLAF 111715Z AUTO 16005KT 10SM FEW025 24/19 A2977 RMK T02400190 MADISHF
LAF,2021-10-11 17:20,KLAF 111720Z AUTO 17010G15KT 10SM FEW028 24/19 A2977 RMK T02400190 MADISHF
LAF,2021-10-11 17:25,KLAF 111725Z AUTO 16010G18KT 10SM FEW028 24/19 A2977 RMK T02400190 WND 13V19  MADISHF
LAF,2021-10-11 17:30,KLAF 111730Z AUTO 15011G18KT 10SM FEW026 25/19 A2977 RMK T02500190 MADISHF
LAF,2021-10-11 17:35,KLAF 111735Z AUTO 16011G17KT 10SM FEW028 SCT033 24/19 A2976 RMK T02400190 MADISHF
LAF,2021-10-11 17:40,KLAF 111740Z AUTO 17013G19KT 10SM FEW028 SCT033 25/19 A2976 RMK T02500190 MADISHF
LAF,2021-10-11 17:45,KLAF 111745Z AUTO 17010G16KT 10SM FEW028 SCT033 25/19 A2976 RMK T02500190 MADISHF
LAF,2021-10-11 17:50,KLAF 111750Z AUTO 17010KT 10SM SCT031 25/19 A2976 RMK T02500190 MADISHF
LAF,2021-10-11 17:54,KLAF 111754Z 15013G24KT 10SM SCT031 25/19 A2976 RMK AO2 SLP071 T02500189 10250 20217 58013 $
LAF,2021-10-11 17:55,KLAF 111755Z AUTO 15011G17KT 10SM SCT031 26/19 A2976 RMK T02600190 MADISHF
LAF,2021-10-11 18:00,KLAF 111800Z AUTO 17011KT 10SM SCT031 26/19 A2975 RMK T02600190 MADISHF
LAF,2021-10-11 18:05,KLAF 111805Z AUTO 17009G17KT 10SM SCT031 26/19 A2975 RMK T02600190 MADISHF
LAF,2021-10-11 18:10,KLAF 111810Z AUTO 14013G21KT 10SM FEW031 26/19 A2973 RMK T02600190 MADISHF
LAF,2021-10-11 18:15,KLAF 111815Z AUTO 15013KT 10SM FEW032 26/19 A2972 RMK T02600190 MADISHF
LAF,2021-10-11 18:20,KLAF 111820Z AUTO 15013G22KT 10SM FEW032 26/18 A2972 RMK T02600180 MADISHF
LAF,2021-10-11 18:25,KLAF 111825Z AUTO 17011G19KT 10SM FEW032 27/18 A2972 RMK T02700180 MADISHF
LAF,2021-10-11 18:30,KLAF 111830Z AUTO 16009G19KT 10SM FEW044 26/18 A2972 RMK T02600180 WND 13V19  MADISHF
LAF,2021-10-11 18:35,KLAF 111835Z AUTO 16011KT 10SM SCT042 26/18 A2971 RMK T02600180 MADISHF
LAF,2021-10-11 18:40,KLAF 111840Z AUTO 16011G19KT 10SM FEW042 27/18 A2971 RMK T02700180 MADISHF
LAF,2021-10-11 18:45,KLAF 111845Z AUTO 17008KT 10SM FEW041 SCT048 26/18 A2971 RMK T02600180 MADISHF
LAF,2021-10-11 18:50,KLAF 111850Z AUTO 15011KT 10SM FEW041 SCT048 27/18 A2970 RMK T02700180 MADISHF
LAF,2021-10-11 18:54,KLAF 111854Z 16013G23KT 10SM FEW045 26/18 A2971 RMK AO2 SLP055 T02610178 $
LAF,2021-10-11 18:55,KLAF 111855Z AUTO 15011KT 10SM FEW045 26/18 A2970 RMK T02600180 MADISHF
LAF,2021-10-11 19:00,KLAF 111900Z AUTO 15011G19KT 10SM FEW041 27/18 A2970 RMK T02700180 MADISHF
LAF,2021-10-11 19:05,KLAF 111905Z AUTO 15009G14KT 10SM FEW046 27/18 A2970 RMK T02700180  LTG DSNT W! MADISHF
LAF,2021-10-11 19:10,KLAF 111910Z AUTO 17009G14KT 10SM FEW046 27/18 A2970 RMK T02700180  LTG DSNT W! MADISHF
LAF,2021-10-11 19:15,KLAF 111915Z AUTO 15009KT 10SM FEW046 SCT110 26/17 A2970 RMK T02600170  LTG DSNT W! MADISHF
LAF,2021-10-11 19:20,KLAF 111920Z AUTO 17008KT 10SM FEW046 SCT110 26/17 A2970 RMK T02600170  LTG DSNT W! MADISHF
LAF,2021-10-11 19:25,KLAF 111925Z AUTO 16008KT 10SM FEW044 BKN110 26/17 A2970 RMK T02600170  LTG DSNT SW-NW! MADISHF
LAF,2021-10-11 19:30,KLAF 111930Z AUTO 15009G17KT 10SM FEW044 BKN110 26/17 A2970 RMK T02600170  LTG DSNT SW-NW! MADISHF
LAF,2021-10-11 19:33,KLAF 111933Z 14009G18KT 10SM -TSRA FEW044 BKN110 26/17 A2969 RMK AO2 LTG DSNT SW-NW RAB33 TSB33 P0000 T02610172 $
LAF,2021-10-11 19:35,KLAF 111935Z AUTO 18011KT 10SM -RA FEW044 FEW060 BKN110 26/18 A2970 RMK T02600180  LTG DSNT SW-NW! MADISHF
LAF,2021-10-11 19:40,KLAF 111940Z AUTO 17008KT 10SM -RA FEW045 BKN110 26/18 A2970 RMK T02600180  LTG DSNT SW AND W! MADISHF
LAF,2021-10-11 19:45,KLAF 111945Z AUTO 17007KT 10SM -RA FEW038 BKN110 26/18 A2970 RMK T02600180 WND 14V20  MADISHF
LAF,2021-10-11 19:50,KLAF 111950Z AUTO 15009KT 10SM FEW048 BKN110 26/18 A2970 RMK T02600180  LTG DSNT SW AND W! MADISHF
LAF,2021-10-11 19:54,KLAF 111954Z 15010G19KT 10SM VCTS FEW048 BKN110 26/18 A2970 RMK AO2 LTG DSNT SW AND W RAB33E47 TSB33E51 SLP050 P0000 T02560183 $
LAF,2021-10-11 19:55,KLAF 111955Z AUTO 15010KT 10SM FEW050 BKN110 26/18 A2970 RMK T02600180  LTG DSNT SW AND W! MADISHF
LAF,2021-10-11 20:00,KLAF 112000Z AUTO 14008KT 10SM FEW050 BKN110 25/18 A2970 RMK T02500180 MADISHF
LAF,2021-10-11 20:05,KLAF 112005Z AUTO 14008KT 10SM FEW032 SCT085 BKN110 25/18 A2968 RMK T02500180 MADISHF
LAF,2021-10-11 20:10,KLAF 112010Z AUTO 14008KT 10SM FEW070 SCT085 BKN100 24/18 A2968 RMK T02400180  LTG DSNT N! MADISHF
LAF,2021-10-11 20:11,KLAF 112011Z 14008KT 10SM SCT070 BKN085 BKN100 24/18 A2968 RMK AO2 LTG DSNT N T02440183 $
LAF,2021-10-11 20:15,KLAF 112015Z AUTO 14005KT 10SM SCT070 BKN090 OVC100 24/18 A2968 RMK T02400180  LTG DSNT N! MADISHF
LAF,2021-10-11 20:20,KLAF 112020Z AUTO 13007KT 10SM BKN070 OVC100 25/19 A2968 RMK T02500190  LTG DSNT N! MADISHF
LAF,2021-10-11 20:25,KLAF 112025Z AUTO 13005KT 10SM BKN070 BKN085 OVC100 24/18 A2968 RMK T02400180 MADISHF
LAF,2021-10-11 20:30,KLAF 112030Z AUTO 13005KT 10SM -RA BKN070 OVC085 24/19 A2967 RMK T02400190 MADISHF
LAF,2021-10-11 20:35,KLAF 112035Z AUTO 12007KT 10SM -RA OVC065 24/19 A2967 RMK T02400190  LTG DSNT NE! MADISHF
LAF,2021-10-11 20:40,KLAF 112040Z AUTO 12007KT 10SM OVC065 24/19 A2967 RMK T02400190  LTG DSNT N AND NE! MADISHF
LAF,2021-10-11 20:45,KLAF 112045Z AUTO 12007KT 10SM OVC065 24/19 A2965 RMK T02400190  LTG DSNT W-NE! MADISHF
LAF,2021-10-11 20:50,KLAF 112050Z AUTO 12007KT 10SM OVC060 24/19 A2965 RMK T02400190  LTG DSNT N AND W! MADISHF
LAF,2021-10-11 20:54,KLAF 112054Z 11007KT 10SM OVC060 24/18 A2966 RMK AO2 LTG DSNT ALQDS RAB30E39 SLP038 P0000 60000 T02390183 56033 $
LAF,2021-10-11 20:55,KLAF 112055Z AUTO 11007KT 10SM OVC060 24/19 A2965 RMK T02400190  LTG DSNT ALQDS! MADISHF
LAF,2021-10-11 21:00,KLAF 112100Z AUTO 11007KT 10SM OVC060 23/19 A2964 RMK T02300190  LTG DSNT ALQDS! MADISHF
LAF,2021-10-11 21:05,KLAF 112105Z AUTO 12007KT 10SM OVC060 24/19 A2964 RMK T02400190  LTG DSNT ALQDS! MADISHF
LAF,2021-10-11 21:10,KLAF 112110Z AUTO 12009G14KT 10SM OVC060 24/18 A2963 RMK T02400180  LTG DSNT ALQDS! MADISHF
LAF,2021-10-11 21:14,KLAF 112114Z 15009KT 10SM VCTS -RA OVC060 24/18 A2965 RMK AO2 LTG DSNT ALQDS RAB12 P0000 T02440183 $
LAF,2021-10-11 21:15,KLAF 112115Z AUTO 15009KT 10SM -RA OVC060 24/18 A2965 RMK T02400180  LTG DSNT ALQDS! MADISHF
LAF,2021-10-11 21:20,KLAF 112120Z AUTO 16009G19KT 10SM -RA OVC060 24/18 A2965 RMK T02400180  LTG DSNT ALQDS! MADISHF
LAF,2021-10-11 21:25,KLAF 112125Z AUTO /////G45KT 7SM -RA SCT050 OVC060 24/18 A2973 RMK P0000 T02400180  LTG DSNT ALQDS! MADISHF
LAF,2021-10-11 21:27,KLAF 112127Z 24027G47KT 2 1/2SM -TSRA FEW029 FEW045 OVC060 22/18 A2975 RMK AO2 PK WND 25047/2125 LTG DSNT ALQDS RAB12 TSB21 PRESRR P0009 T02170178 $
LAF,2021-10-11 21:30,KLAF 112130Z AUTO ///14G21KT 1 1/2SM +RA BR FEW023 BKN048 OVC060 18/17 A2975 RMK P0018 T01800170  LTG DSNT ALQDS! MADISHF
LAF,2021-10-11 21:34,KLAF 112134Z 22011G47KT 1SM +TSRA BR SCT030 BKN045 OVC060 17/16 A2975 RMK AO2 PK WND 25047/2125 LTG DSNT ALQDS RAB12 TSB21 P0021 T01720161 $
LAF,2021-10-11 21:35,KLAF 112135Z AUTO 22011KT 1SM +RA BR BKN032 OVC060 17/16 A2976 RMK P0023 T01700160  LTG DSNT ALQDS! MADISHF
LAF,2021-10-11 21:40,KLAF 112140Z AUTO 23009G14KT 2SM +RA BR BKN032 OVC055 17/16 A2973 RMK P0031 T01700160  LTG DSNT ALQDS! MADISHF
LAF,2021-10-11 21:41,KLAF 112141Z 23009G20KT 190V260 1 3/4SM +TSRA BR BKN032 OVC055 17/16 A2974 RMK AO2 PK WND 25047/2125 WSHFT 2121 LTG DSNT ALQDS RAB12 TSB21 P0032 T01720161 $
LAF,2021-10-11 21:45,KLAF 112145Z AUTO ///15G24KT 2SM +RA BR BKN032 BKN048 OVC060 17/16 A2973 RMK P0037 T01700160  LTG DSNT ALQDS! MADISHF
LAF,2021-10-11 21:50,KLAF 112150Z AUTO 20008KT 2 1/2SM +RA BR BKN041 OVC048 18/16 A2973 RMK P0040 T01800160 WND 15V23  MADISHF
LAF,2021-10-11 21:52,KLAF 112152Z 20011G27KT 2 1/2SM +TSRA BR OVC041 18/17 A2975 RMK AO2 PK WND 25047/2125 WSHFT 2121 LTG DSNT ALQDS RAB12 TSB21 P0042 $
LAF,2021-10-11 21:54,KLAF 112154Z 20013G27KT 2 1/2SM +TSRA BR OVC043 18/17 A2975 RMK AO2 PK WND 25047/2125 WSHFT 2121 LTG DSNT ALQDS RAB12 TSB21 SLP071 P0045 T01780167 $
LAF,2021-10-11 21:55,KLAF 112155Z AUTO ///15G26KT 2 1/2SM +RA BR OVC043 18/17 A2975 RMK P0000 T01800170  LTG DSNT ALQDS! MADISHF
LAF,2021-10-11 22:00,KLAF 112200Z AUTO 18011G22KT 2 1/2SM +RA BR OVC045 18/17 A2973 RMK P0003 T01800170  LTG DSNT ALQDS! MADISHF
LAF,2021-10-11 22:01,KLAF 112201Z 18011G28KT 2 1/2SM VCTS +RA BR OVC045 18/17 A2973 RMK AO2 PK WND 20028/2157 VIS 2V3 LTG DSNT ALQDS TSE2155 P0005 T01780167 $
LAF,2021-10-11 22:05,KLAF 112205Z AUTO 17013G18KT 2 1/2SM +RA BR OVC045 18/17 A2971 RMK P0009 T01800170  LTG DSNT ALQDS! MADISHF
LAF,2021-10-11 22:10,KLAF 112210Z AUTO 19011G16KT 3SM RA BR BKN049 OVC075 18/17 A2970 RMK P0010 T01800170 WND 17V23  MADISHF
LAF,2021-10-11 22:15,KLAF 112215Z AUTO 20009G15KT 3SM RA BR BKN049 BKN075 OVC095 18/17 A2970 RMK P0011 T01800170  LTG DSNT ALQDS! MADISHF
LAF,2021-10-11 22:16,KLAF 112216Z 21008G23KT 4SM VCTS RA BR BKN049 BKN075 OVC095 18/17 A2971 RMK AO2 PK WND 20028/2157 LTG DSNT ALQDS TSE2155 P0012 T01830167 $
LAF,2021-10-11 22:20,KLAF 112220Z AUTO 18014G19KT 3SM RA BR BKN050 BKN075 OVC095 18/17 A2970 RMK P0015 T01800170  LTG DSNT ALQDS! MADISHF
LAF,2021-10-11 22:25,KLAF 112225Z AUTO 17018G40KT 2 1/2SM RA BR BKN050 BKN075 OVC095 18/17 A2970 RMK P0018 T01800170  LTG DSNT E AND SE! MADISHF
LAF,2021-10-11 22:27,KLAF 112227Z 17018G41KT 1 3/4SM RA BR BKN048 OVC075 18/17 A2971 RMK AO2 PK WND 16041/2225 LTG DSNT E AND SE TSE2155 P0022 T01830167 $
LAF,2021-10-11 22:30,KLAF 112230Z AUTO 15015G21KT 1 1/2SM +RA BR BKN039 OVC075 18/17 A2970 RMK P0027 T01800170  LTG DSNT E AND SE! MADISHF
LAF,2021-10-11 22:35,KLAF 112235Z AUTO /////KT A2969 RMK P0027  LTG DSNT E! MADISHF
LAF,2021-10-11 22:40,KLAF 112240Z AUTO /////KT A2967 RMK P0027 MADISHF
LAF,2021-10-11 22:40,KLAF 112240Z 18/17 A2967 RMK AO2 PK WND 16041/2225 RAEMM TSE2155 PRESFR P0027 T01830172 $
LAF,2021-10-11 22:45,KLAF 112245Z AUTO /////KT A2968 RMK P0027 MADISHF
LAF,2021-10-11 22:50,KLAF 112250Z AUTO /////KT A2968 RMK P0027 MADISHF
LAF,2021-10-11 22:54,KLAF 112254Z A2968 RMK AO2 PK WND 16041/2225 RAEMM TSE2155 SLPNO P0027 $
LAF,2021-10-11 22:55,KLAF 112255Z AUTO /////KT A2968 RMK MADISHF
LAF,2021-10-11 23:00,KLAF 112300Z AUTO /////KT A2968 RMK MADISHF
LAF,2021-10-11 23:05,KLAF 112305Z AUTO /////KT A2969 RMK MADISHF
LAF,2021-10-11 23:10,KLAF 112310Z AUTO /////KT A2969 RMK MADISHF
LAF,2021-10-11 23:15,KLAF 112315Z AUTO /////KT A2969 RMK MADISHF
LAF,2021-10-11 23:20,KLAF 112320Z AUTO /////KT A2969 RMK MADISHF
LAF,2021-10-11 23:25,KLAF 112325Z AUTO /////KT A2969 RMK MADISHF
LAF,2021-10-11 23:30,KLAF 112330Z AUTO /////KT A2969 RMK MADISHF
LAF,2021-10-11 23:35,KLAF 112335Z AUTO /////KT A2970 RMK MADISHF
LAF,2021-10-11 23:40,KLAF 112340Z AUTO /////KT A2970 RMK MADISHF
LAF,2021-10-11 23:45,KLAF 112345Z AUTO /////KT A2970 RMK MADISHF
LAF,2021-10-11 23:50,KLAF 112350Z AUTO /////KT A2970 RMK MADISHF
LAF,2021-10-11 23:54,KLAF 112354Z A2970 RMK AO2 SLPNO 6//// 55015 $
LAF,2021-10-11 23:55,KLAF 112355Z AUTO /////KT A2970 RMK MADISHF
LAF,2021-10-12 00:00,KLAF 120000Z AUTO /////KT A2970 RMK MADISHF
LAF,2021-10-12 00:05,KLAF 120005Z AUTO /////KT A2970 RMK MADISHF
LAF,2021-10-12 00:10,KLAF 120010Z AUTO /////KT A2970 RMK MADISHF
LAF,2021-10-12 00:15,KLAF 120015Z AUTO /////KT A2970 RMK MADISHF
LAF,2021-10-12 00:20,KLAF 120020Z AUTO /////KT A2970 RMK MADISHF
LAF,2021-10-12 00:25,KLAF 120025Z AUTO /////KT A2970 RMK MADISHF
LAF,2021-10-12 00:30,KLAF 120030Z AUTO /////KT A2970 RMK MADISHF
LAF,2021-10-12 00:35,KLAF 120035Z AUTO /////KT A2970 RMK MADISHF
LAF,2021-10-12 00:40,KLAF 120040Z AUTO /////KT A2970 RMK MADISHF
LAF,2021-10-12 00:45,KLAF 120045Z AUTO /////KT A2970 RMK MADISHF
LAF,2021-10-12 00:50,KLAF 120050Z AUTO /////KT A2970 RMK MADISHF
LAF,2021-10-12 00:54,KLAF 120054Z AUTO A2971 RMK AO2 SLPNO PWINO FZRANO $
LAF,2021-10-12 00:55,KLAF 120055Z AUTO /////KT A2970 RMK MADISHF
LAF,2021-10-12 01:00,KLAF 120100Z AUTO /////KT A2970 RMK MADISHF
LAF,2021-10-12 01:05,KLAF 120105Z AUTO /////KT A2970 RMK MADISHF
LAF,2021-10-12 01:10,KLAF 120110Z AUTO /////KT A2970 RMK MADISHF
LAF,2021-10-12 01:15,KLAF 120115Z AUTO /////KT A2970 RMK MADISHF
LAF,2021-10-12 01:20,KLAF 120120Z AUTO /////KT A2970 RMK MADISHF
LAF,2021-10-12 01:25,KLAF 120125Z AUTO 15005KT 19/18 A2969 RMK T01900180 MADISHF
LAF,2021-10-12 01:30,KLAF 120130Z AUTO 15008KT 10SM 19/18 A2969 RMK T01900180 MADISHF
LAF,2021-10-12 01:35,KLAF 120135Z AUTO 15008KT 10SM 19/18 A2969 RMK T01900180 MADISHF
LAF,2021-10-12 01:40,KLAF 120140Z AUTO 17007KT 10SM 19/18 A2970 RMK T01900180 MADISHF
LAF,2021-10-12 01:45,KLAF 120145Z AUTO 17007KT 10SM 19/18 A2970 RMK T01900180 WND 13V19  MADISHF
LAF,2021-10-12 01:50,KLAF 120150Z AUTO 16009G15KT 10SM FEW060 20/18 A2970 RMK T02000180 WND 13V20  MADISHF
LAF,2021-10-12 01:54,KLAF 120154Z AUTO 17008KT 10SM FEW060 20/18 A2970 RMK AO2 SLP053 T02000183 $
LAF,2021-10-12 01:55,KLAF 120155Z AUTO 18007KT 10SM FEW060 20/18 A2970 RMK T02000180 MADISHF
LAF,2021-10-12 02:00,KLAF 120200Z AUTO 17009G19KT 10SM FEW060 20/18 A2970 RMK T02000180 MADISHF
LAF,2021-10-12 02:05,KLAF 120205Z AUTO 18009KT 10SM FEW060 20/18 A2970 RMK T02000180 WND 14V21  MADISHF
LAF,2021-10-12 02:10,KLAF 120210Z AUTO 17009KT 10SM FEW060 20/18 A2970 RMK T02000180 MADISHF
LAF,2021-10-12 02:15,KLAF 120215Z AUTO 17010KT 10SM FEW060 SCT095 20/18 A2970 RMK T02000180 MADISHF
LAF,2021-10-12 02:20,KLAF 120220Z AUTO 18009G16KT 10SM FEW060 BKN095 20/18 A2970 RMK T02000180 MADISHF
LAF,2021-10-12 02:25,KLAF 120225Z AUTO 17007KT 10SM FEW050 BKN095 20/18 A2970 RMK T02000180 MADISHF
LAF,2021-10-12 02:30,KLAF 120230Z AUTO 19009KT 10SM FEW042 SCT055 BKN095 20/18 A2970 RMK T02000180 MADISHF
LAF,2021-10-12 02:35,KLAF 120235Z AUTO 18009G14KT 10SM FEW037 SCT046 BKN060 20/18 A2970 RMK T02000180 MADISHF
LAF,2021-10-12 02:40,KLAF 120240Z AUTO 18008KT 10SM SCT036 BKN050 OVC095 20/18 A2970 RMK T02000180 MADISHF
LAF,2021-10-12 02:45,KLAF 120245Z AUTO 20007KT 8SM RA SCT023 BKN050 OVC095 20/19 A2970 RMK P0000 T02000190 WND 16V23  MADISHF
LAF,2021-10-12 02:50,KLAF 120250Z AUTO ///13KT 5SM -RA BR SCT016 BKN036 OVC065 19/18 A2971 RMK P0003 T01900180 MADISHF
LAF,2021-10-12 02:54,KLAF 120254Z AUTO 26014G22KT 2 1/2SM +RA BR BKN017 BKN034 OVC047 18/17 A2972 RMK AO2 RAB42 SLP060 P0009 60009 T01830167 53005 $
LAF,2021-10-12 02:55,KLAF 120255Z AUTO ///13KT 2 1/2SM +RA BR BKN016 BKN032 OVC045 18/17 A2971 RMK P0000 T01800170 MADISHF
LAF,2021-10-12 03:00,KLAF 120300Z AUTO 26011KT 3SM RA BR SCT019 BKN028 OVC049 17/16 A2971 RMK P0001 T01700160 MADISHF
LAF,2021-10-12 03:02,KLAF 120302Z AUTO 25010KT 4SM -RA BR SCT019 BKN026 OVC055 17/16 A2973 RMK AO2 WSHFT 0248 PRESRR P0002 T01720161 $
LAF,2021-10-12 03:05,KLAF 120305Z AUTO 25007KT 5SM RA BR SCT019 BKN026 OVC036 17/16 A2972 RMK P0002 T01700160 MADISHF
LAF,2021-10-12 03:10,KLAF 120310Z AUTO 26011KT 3SM RA BR SCT019 BKN025 OVC036 17/16 A2972 RMK P0005 T01700160 MADISHF
LAF,2021-10-12 03:14,KLAF 120314Z AUTO 25008G17KT 2 1/2SM +RA BR FEW017 BKN035 OVC045 17/16 A2973 RMK AO2 WSHFT 0248 VIS 1 1/2V5 P0009 T01720161 $
LAF,2021-10-12 03:15,KLAF 120315Z AUTO 24007KT 2 1/2SM +RA BR FEW016 BKN035 OVC045 17/16 A2972 RMK P0009 T01700160 MADISHF
LAF,2021-10-12 03:20,KLAF 120320Z AUTO 25007KT 2 1/2SM RA BR FEW018 SCT027 OVC043 17/16 A2972 RMK P0010 T01700160 MADISHF
LAF,2021-10-12 03:25,KLAF 120325Z AUTO 23004KT 2 1/2SM +RA BR FEW025 BKN046 OVC070 17/16 A2972 RMK P0012 T01700160 MADISHF
LAF,2021-10-12 03:30,KLAF 120330Z AUTO 24005KT 3SM -RA BR FEW025 BKN042 OVC050 17/17 A2972 RMK P0014 T01700170 MADISHF
LAF,2021-10-12 03:35,KLAF 120335Z AUTO 23004KT 4SM RA BR SCT035 BKN043 OVC050 17/17 A2974 RMK AO2 WSHFT 0248 P0015 T01670167 $
LAF,2021-10-12 03:35,KLAF 120335Z AUTO 23004KT 4SM RA BR SCT035 BKN043 OVC050 17/17 A2973 RMK P0015 T01700170 MADISHF
LAF,2021-10-12 03:40,KLAF 120340Z AUTO 23005KT 3SM +RA BR SCT035 BKN043 OVC050 17/17 A2973 RMK P0017 T01700170 MADISHF
LAF,2021-10-12 03:45,KLAF 120345Z AUTO 22005KT 3SM +RA BR SCT035 BKN043 OVC050 17/17 A2975 RMK P0018 T01700170 MADISHF
LAF,2021-10-12 03:50,KLAF 120350Z AUTO 22005KT 2 1/2SM RA BR BKN039 OVC049 17/17 A2975 RMK P0020 T01700170 MADISHF
LAF,2021-10-12 03:54,KLAF 120354Z AUTO 23006KT 2 1/2SM RA BR BKN039 OVC050 17/17 A2974 RMK AO2 WSHFT 0248 SLP068 P0022 T01670167 $
LAF,2021-10-12 03:55,KLAF 120355Z AUTO 22005KT 2 1/2SM RA BR BKN039 OVC050 17/17 A2975 RMK T01700170 MADISHF
LAF,2021-10-12 04:00,KLAF 120400Z AUTO 22005KT 3SM RA BR BKN039 OVC050 17/17 A2975 RMK P0000 T01700170 MADISHF
LAF,2021-10-12 04:05,KLAF 120405Z AUTO 20005KT 4SM -RA BR SCT042 OVC050 17/17 A2975 RMK P0000 T01700170 MADISHF
LAF,2021-10-12 04:06,KLAF 120406Z AUTO 19006KT 4SM -RA BR SCT042 OVC050 17/17 A2975 RMK AO2 P0001 T01670167 $
LAF,2021-10-12 04:10,KLAF 120410Z AUTO 19005KT 6SM -RA BR OVC050 17/17 A2975 RMK P0001 T01700170 MADISHF
LAF,2021-10-12 04:15,KLAF 120415Z AUTO 19005KT 6SM -RA BR FEW014 SCT041 OVC055 17/17 A2975 RMK P0001 T01700170 MADISHF
LAF,2021-10-12 04:20,KLAF 120420Z AUTO 21004KT 4SM RA BR FEW014 SCT043 OVC055 17/17 A2975 RMK P0002 T01700170 MADISHF
LAF,2021-10-12 04:25,KLAF 120425Z AUTO 19005KT 4SM -RA BR FEW009 SCT043 OVC055 17/17 A2975 RMK P0002 T01700170 MADISHF
LAF,2021-10-12 04:30,KLAF 120430Z AUTO 20005KT 6SM -RA BR SCT009 BKN044 OVC055 17/17 A2976 RMK P0002 T01700170 MADISHF
LAF,2021-10-12 04:31,KLAF 120431Z AUTO 21006KT 7SM -RA FEW009 BKN044 OVC055 17/17 A2976 RMK AO2 P0003 T01670167 $
LAF,2021-10-12 04:35,KLAF 120435Z AUTO 20004KT 9SM -RA FEW007 BKN026 OVC055 17/17 A2976 RMK P0002 T01700170 MADISHF
LAF,2021-10-12 04:38,KLAF 120438Z AUTO 20006KT 9SM -RA FEW007 BKN026 OVC060 17/17 A2976 RMK AO2 P0003 T01670167 $
LAF,2021-10-12 04:40,KLAF 120440Z AUTO 20005KT 10SM -RA FEW007 BKN023 OVC060 17/16 A2976 RMK P0002 T01700160 VRB06KT  MADISHF
LAF,2021-10-12 04:45,KLAF 120445Z AUTO 21007KT 10SM FEW008 BKN055 OVC065 17/16 A2976 RMK P0002 T01700160 MADISHF
LAF,2021-10-12 04:50,KLAF 120450Z AUTO 21006KT 10SM FEW008 SCT025 OVC065 17/16 A2975 RMK AO2 RAE41 P0003 $
LAF,2021-10-12 04:50,KLAF 120450Z AUTO 20005KT 10SM FEW008 SCT025 OVC065 17/16 A2975 RMK P0002 T01700160 MADISHF
LAF,2021-10-12 04:54,KLAF 120454Z AUTO VRB06KT 10SM FEW008 FEW025 OVC065 17/16 A2976 RMK AO2 RAE41 SLP072 P0003 T01670161 402670167 $
LAF,2021-10-12 04:55,KLAF 120455Z AUTO 20005KT 10SM FEW008 FEW025 OVC065 17/16 A2976 RMK T01700160 MADISHF
LAF,2021-10-12 05:00,KLAF 120500Z AUTO 21007KT 10SM FEW023 FEW047 OVC065 17/16 A2976 RMK T01700160 MADISHF
LAF,2021-10-12 05:05,KLAF 120505Z AUTO 20007KT 10SM SCT047 OVC065 17/16 A2976 RMK T01700160 MADISHF
LAF,2021-10-12 05:10,KLAF 120510Z AUTO 21005KT 10SM BKN047 OVC065 17/16 A2976 RMK T01700160 MADISHF
LAF,2021-10-12 05:15,KLAF 120515Z AUTO 21008KT 10SM FEW029 BKN047 OVC065 17/16 A2976 RMK P0000 T01700160 MADISHF
LAF,2021-10-12 05:20,KLAF 120520Z AUTO 22005KT 10SM SCT027 BKN047 OVC060 17/16 A2976 RMK P0000 T01700160 VRB05G16KT  MADISHF
LAF,2021-10-12 05:25,KLAF 120525Z AUTO 21007KT 10SM BKN027 OVC047 17/16 A2976 RMK P0000 T01700160 MADISHF
LAF,2021-10-12 05:29,KLAF 120529Z AUTO 21005KT 10SM BKN027 OVC047 17/16 A2977 RMK AO2 P0001 T01720156 $
LAF,2021-10-12 05:30,KLAF 120530Z AUTO 21005KT 10SM BKN027 OVC047 17/16 A2977 RMK P0000 T01700160 MADISHF
LAF,2021-10-12 05:35,KLAF 120535Z AUTO 22005KT 10SM BKN026 OVC047 17/16 A2977 RMK P0000 T01700160 MADISHF
LAF,2021-10-12 05:40,KLAF 120540Z AUTO 21005KT 10SM OVC026 17/16 A2977 RMK P0000 T01700160 MADISHF
LAF,2021-10-12 05:45,KLAF 120545Z AUTO 22005KT 10SM OVC026 17/16 A2977 RMK P0000 T01700160 MADISHF
LAF,2021-10-12 05:50,KLAF 120550Z AUTO 21005KT 10SM OVC026 17/16 A2977 RMK P0000 T01700160 MADISHF
LAF,2021-10-12 05:54,KLAF 120554Z AUTO 22006KT 10SM OVC024 17/16 A2977 RMK AO2 SLP078 P0001 60035 T01720156 53010 $
LAF,2021-10-12 05:55,KLAF 120555Z AUTO 22005KT 10SM OVC024 17/16 A2977 RMK T01700160 MADISHF
LAF,2021-10-12 06:00,KLAF 120600Z AUTO 21005KT 10SM OVC024 17/16 A2977 RMK T01700160 MADISHF
LAF,2021-10-12 06:05,KLAF 120605Z AUTO 21007KT 10SM OVC024 17/16 A2977 RMK T01700160 MADISHF
LAF,2021-10-12 06:10,KLAF 120610Z AUTO 21005KT 10SM BKN024 OVC060 17/15 A2978 RMK T01700150 MADISHF
LAF,2021-10-12 06:15,KLAF 120615Z AUTO 22005KT 10SM BKN024 OVC065 17/16 A2978 RMK T01700160 MADISHF
LAF,2021-10-12 06:20,KLAF 120620Z AUTO 21005KT 10SM BKN024 OVC065 17/15 A2978 RMK T01700150 MADISHF
LAF,2021-10-12 06:25,KLAF 120625Z AUTO 21005KT 10SM BKN024 OVC065 17/15 A2978 RMK T01700150 MADISHF
LAF,2021-10-12 06:30,KLAF 120630Z AUTO 22007KT 10SM BKN024 OVC065 17/15 A2979 RMK T01700150 MADISHF
LAF,2021-10-12 06:35,KLAF 120635Z AUTO 22005KT 10SM BKN023 OVC065 17/15 A2979 RMK T01700150 VRB05KT  MADISHF
LAF,2021-10-12 06:40,KLAF 120640Z AUTO 21005KT 10SM BKN023 BKN065 17/15 A2979 RMK T01700150 MADISHF
LAF,2021-10-12 06:45,KLAF 120645Z AUTO 20005KT 10SM BKN023 17/15 A2979 RMK T01700150 MADISHF
LAF,2021-10-12 06:50,KLAF 120650Z AUTO 21008KT 10SM BKN023 17/15 A2979 RMK T01700150 MADISHF
LAF,2021-10-12 06:54,KLAF 120654Z AUTO 20006KT 10SM BKN025 17/15 A2979 RMK AO2 SLP084 T01670150 $
LAF,2021-10-12 06:55,KLAF 120655Z AUTO 21005KT 10SM SCT025 17/15 A2979 RMK T01700150 MADISHF
LAF,2021-10-12 07:00,KLAF 120700Z AUTO 22005KT 10SM SCT025 17/15 A2979 RMK T01700150 MADISHF
LAF,2021-10-12 07:01,KLAF 120701Z AUTO 22005KT 10SM FEW025 17/15 A2980 RMK AO2 T01670150 $
LAF,2021-10-12 07:05,KLAF 120705Z AUTO 21005KT 10SM SCT024 SCT043 17/15 A2979 RMK T01700150 MADISHF
LAF,2021-10-12 07:10,KLAF 120710Z AUTO 21005KT 10SM SCT024 BKN043 17/15 A2979 RMK T01700150 MADISHF
LAF,2021-10-12 07:15,KLAF 120715Z AUTO 20005KT 10SM FEW022 SCT027 BKN043 17/15 A2979 RMK T01700150 MADISHF
LAF,2021-10-12 07:20,KLAF 120720Z AUTO 20005KT 10SM FEW024 BKN043 17/15 A2979 RMK T01700150 MADISHF
LAF,2021-10-12 07:25,KLAF 120725Z AUTO 20005KT 10SM FEW022 BKN043 17/15 A2980 RMK T01700150 MADISHF
LAF,2021-10-12 07:30,KLAF 120730Z AUTO 20005KT 10SM FEW022 BKN043 16/15 A2980 RMK T01600150 MADISHF
LAF,2021-10-12 07:35,KLAF 120735Z AUTO 21007KT 10SM FEW022 OVC043 17/14 A2980 RMK T01700140 MADISHF
LAF,2021-10-12 07:40,KLAF 120740Z AUTO 21004KT 10SM SCT024 OVC043 16/14 A2980 RMK T01600140 VRB04KT  MADISHF
LAF,2021-10-12 07:45,KLAF 120745Z AUTO 22007KT 10SM FEW026 SCT031 OVC043 16/14 A2980 RMK T01600140 MADISHF
LAF,2021-10-12 07:50,KLAF 120750Z AUTO 22005KT 10SM BKN029 OVC043 16/14 A2980 RMK T01600140 MADISHF
LAF,2021-10-12 07:54,KLAF 120754Z AUTO VRB05KT 10SM BKN029 OVC043 16/14 A2981 RMK AO2 SLP092 T01610144 $
LAF,2021-10-12 07:55,KLAF 120755Z AUTO 22005KT 10SM BKN029 OVC043 16/14 A2980 RMK T01600140 MADISHF
LAF,2021-10-12 08:00,KLAF 120800Z AUTO 22005KT 10SM BKN027 OVC032 16/14 A2981 RMK T01600140 MADISHF
LAF,2021-10-12 08:05,KLAF 120805Z AUTO 22008KT 10SM OVC027 17/14 A2981 RMK T01700140 MADISHF
LAF,2021-10-12 08:10,KLAF 120810Z AUTO 22009KT 10SM OVC027 17/14 A2981 RMK T01700140 MADISHF
LAF,2021-10-12 08:15,KLAF 120815Z AUTO 22008KT 10SM OVC028 17/14 A2981 RMK T01700140 MADISHF
LAF,2021-10-12 08:20,KLAF 120820Z AUTO 23008KT 10SM OVC028 17/14 A2981 RMK T01700140 MADISHF
LAF,2021-10-12 08:25,KLAF 120825Z AUTO 23008KT 10SM OVC028 17/14 A2981 RMK T01700140 MADISHF
LAF,2021-10-12 08:30,KLAF 120830Z AUTO 22010G15KT 10SM FEW016 OVC028 17/14 A2981 RMK T01700140 MADISHF
LAF,2021-10-12 08:35,KLAF 120835Z AUTO 22009G14KT 10SM FEW019 OVC028 17/14 A2981 RMK T01700140 MADISHF
LAF,2021-10-12 08:40,KLAF 120840Z AUTO 22010G15KT 10SM SCT019 OVC028 17/14 A2981 RMK T01700140 MADISHF
LAF,2021-10-12 08:45,KLAF 120845Z AUTO 22008KT 10SM BKN019 OVC028 16/14 A2981 RMK T01600140 MADISHF
LAF,2021-10-12 08:50,KLAF 120850Z AUTO 23005KT 10SM BKN019 OVC028 16/14 A2981 RMK T01600140 MADISHF
LAF,2021-10-12 08:54,KLAF 120854Z AUTO 22009G14KT 10SM BKN019 OVC028 16/14 A2982 RMK AO2 SLP096 T01610144 51017 $
LAF,2021-10-12 08:55,KLAF 120855Z AUTO 22005KT 10SM BKN019 OVC028 16/14 A2981 RMK T01600140 MADISHF
LAF,2021-10-12 09:00,KLAF 120900Z AUTO 21007KT 10SM BKN019 OVC029 16/14 A2982 RMK T01600140 MADISHF
LAF,2021-10-12 09:05,KLAF 120905Z AUTO 22007KT 10SM BKN019 OVC025 16/14 A2982 RMK T01600140 MADISHF
LAF,2021-10-12 09:10,KLAF 120910Z AUTO 22007KT 10SM OVC019 16/14 A2982 RMK T01600140 MADISHF
LAF,2021-10-12 09:15,KLAF 120915Z AUTO 22005KT 10SM OVC019 16/14 A2982 RMK T01600140 MADISHF
LAF,2021-10-12 09:20,KLAF 120920Z AUTO 23007KT 10SM OVC019 16/14 A2982 RMK T01600140 MADISHF
LAF,2021-10-12 09:25,KLAF 120925Z AUTO 21005KT 10SM OVC019 16/14 A2982 RMK T01600140 VRB05KT  MADISHF
LAF,2021-10-12 09:30,KLAF 120930Z AUTO 20007KT 10SM OVC019 16/14 A2982 RMK T01600140 MADISHF
LAF,2021-10-12 09:35,KLAF 120935Z AUTO 22005KT 10SM OVC019 16/14 A2982 RMK T01600140 MADISHF
LAF,2021-10-12 09:40,KLAF 120940Z AUTO 21005KT 10SM OVC019 16/14 A2984 RMK T01600140 MADISHF
LAF,2021-10-12 09:45,KLAF 120945Z AUTO 22008KT 10SM OVC018 16/14 A2984 RMK T01600140 MADISHF
LAF,2021-10-12 09:50,KLAF 120950Z AUTO 22008KT 10SM OVC018 16/14 A2984 RMK T01600140 MADISHF
LAF,2021-10-12 09:54,KLAF 120954Z AUTO 21006KT 10SM OVC016 16/14 A2984 RMK AO2 SLP102 T01610139 $
LAF,2021-10-12 09:55,KLAF 120955Z AUTO 21007KT 10SM OVC016 16/14 A2984 RMK T01600140 MADISHF
LAF,2021-10-12 10:00,KLAF 121000Z AUTO 22007KT 10SM OVC016 16/14 A2984 RMK T01600140 MADISHF
LAF,2021-10-12 10:05,KLAF 121005Z AUTO 22010KT 10SM OVC016 16/14 A2985 RMK T01600140 MADISHF
LAF,2021-10-12 10:10,KLAF 121010Z AUTO 22009G14KT 10SM OVC016 16/14 A2985 RMK T01600140 MADISHF
LAF,2021-10-12 10:15,KLAF 121015Z AUTO 23010G17KT 10SM OVC016 16/14 A2985 RMK T01600140 MADISHF
LAF,2021-10-12 10:20,KLAF 121020Z AUTO 23009G14KT 10SM OVC016 16/14 A2985 RMK T01600140 MADISHF
LAF,2021-10-12 10:25,KLAF 121025Z AUTO 22010KT 10SM OVC016 16/14 A2985 RMK T01600140 MADISHF
LAF,2021-10-12 10:30,KLAF 121030Z AUTO 23009G14KT 10SM OVC016 16/14 A2986 RMK T01600140 MADISHF
LAF,2021-10-12 10:35,KLAF 121035Z AUTO 23007KT 10SM OVC016 16/14 A2986 RMK T01600140 MADISHF
LAF,2021-10-12 10:40,KLAF 121040Z AUTO 21008KT 10SM OVC016 16/14 A2986 RMK T01600140 WND 18V24  MADISHF
LAF,2021-10-12 10:45,KLAF 121045Z AUTO 23007KT 10SM OVC015 16/14 A2986 RMK T01600140 MADISHF
LAF,2021-10-12 10:50,KLAF 121050Z AUTO 22007KT 10SM OVC015 16/14 A2986 RMK T01600140 MADISHF
LAF,2021-10-12 10:54,KLAF 121054Z 22005KT 10SM OVC015 16/14 A2986 RMK AO2 SLPNO T01610139 $
LAF,2021-10-12 10:55,KLAF 121055Z AUTO 22005KT 10SM OVC015 16/14 A2986 RMK T01600140 MADISHF
LAF,2021-10-12 11:00,KLAF 121100Z AUTO 22009KT 10SM OVC015 16/14 A2987 RMK T01600140 MADISHF
LAF,2021-10-12 11:05,KLAF 121105Z AUTO 22010KT 10SM OVC013 16/14 A2987 RMK T01600140 MADISHF
LAF,2021-10-12 11:08,KLAF 121108Z 22011G18KT 10SM OVC013 16/14 A2987 RMK AO2 T01610144 $
LAF,2021-10-12 11:10,KLAF 121110Z AUTO 22011KT 10SM OVC013 16/14 A2987 RMK T01600140 MADISHF
LAF,2021-10-12 11:15,KLAF 121115Z AUTO 22008KT 10SM OVC011 16/14 A2987 RMK T01600140 MADISHF
LAF,2021-10-12 11:20,KLAF 121120Z AUTO 22010KT 10SM OVC011 16/14 A2987 RMK T01600140 MADISHF
LAF,2021-10-12 11:25,KLAF 121125Z AUTO 22010KT 10SM OVC013 16/14 A2987 RMK T01600140 MADISHF
LAF,2021-10-12 11:30,KLAF 121130Z AUTO 23008KT 10SM OVC013 16/14 A2987 RMK T01600140 MADISHF
LAF,2021-10-12 11:35,KLAF 121135Z AUTO 22008KT 10SM OVC015 16/14 A2987 RMK T01600140 MADISHF
LAF,2021-10-12 11:37,KLAF 121137Z 23008G16KT 10SM OVC015 16/14 A2988 RMK AO2 T01560139 $
LAF,2021-10-12 11:40,KLAF 121140Z AUTO 22009KT 10SM OVC015 16/14 A2987 RMK T01600140 MADISHF
LAF,2021-10-12 11:45,KLAF 121145Z AUTO 21008KT 10SM OVC015 16/14 A2987 RMK T01600140 MADISHF
LAF,2021-10-12 11:50,KLAF 121150Z AUTO 22007KT 10SM OVC015 16/14 A2987 RMK T01600140 MADISHF
LAF,2021-10-12 11:54,KLAF 121154Z 22009G15KT 10SM OVC015 16/14 A2988 RMK AO2 SLPNO 7//// T01560139 10172 20156 53019 $
LAF,2021-10-12 11:55,KLAF 121155Z AUTO 22008KT 10SM OVC015 16/14 A2987 RMK T01600140 MADISHF
LAF,2021-10-12 12:00,KLAF 121200Z AUTO 23007KT 10SM OVC015 16/14 A2987 RMK T01600140 MADISHF
LAF,2021-10-12 12:05,KLAF 121205Z AUTO 23007KT 10SM OVC016 16/14 A2987 RMK T01600140 MADISHF
LAF,2021-10-12 12:10,KLAF 121210Z AUTO 23005KT 10SM OVC016 16/14 A2988 RMK T01600140 MADISHF
LAF,2021-10-12 12:15,KLAF 121215Z AUTO 22005KT 10SM OVC016 16/14 A2988 RMK T01600140 VRB06KT  MADISHF
LAF,2021-10-12 12:20,KLAF 121220Z AUTO 23007KT 10SM OVC016 16/14 A2988 RMK T01600140 MADISHF
LAF,2021-10-12 12:25,KLAF 121225Z AUTO 22005KT 10SM BKN014 OVC019 16/14 A2988 RMK T01600140 MADISHF
LAF,2021-10-12 12:29,KLAF 121229Z 22006KT 10SM OVC014 16/14 A2990 RMK AO2 T01560139
LAF,2021-10-12 12:30,KLAF 121230Z AUTO 23007KT 10SM OVC014 16/14 A2989 RMK T01600140 MADISHF
LAF,2021-10-12 12:35,KLAF 121235Z AUTO 22009KT 10SM OVC013 16/14 A2989 RMK T01600140 WND 18V24  MADISHF
LAF,2021-10-12 12:40,KLAF 121240Z AUTO 23008KT 10SM OVC013 16/14 A2989 RMK T01600140 MADISHF
LAF,2021-10-12 12:45,KLAF 121245Z AUTO 22009KT 10SM OVC009 16/14 A2990 RMK T01600140 CIG 9V13  MADISHF
LAF,2021-10-12 12:50,KLAF 121250Z AUTO 22005KT 10SM OVC009 16/14 A2990 RMK T01600140 MADISHF
LAF,2021-10-12 12:54,KLAF 121254Z 10SM OVC010 16/14 A2991 RMK AO2 CIG 009V014 SLPNO T01560144
LAF,2021-10-12 12:55,KLAF 121255Z AUTO 22005KT 10SM OVC009 16/14 A2990 RMK T01600140 MADISHF
LAF,2021-10-12 13:00,KLAF 121300Z AUTO 22009G15KT 10SM OVC009 16/14 A2990 RMK T01600140 CIG 8V14  MADISHF
LAF,2021-10-12 13:05,KLAF 121305Z AUTO 22007KT 10SM OVC009 16/14 A2990 RMK T01600140 CIG 7V14  MADISHF
LAF,2021-10-12 13:10,KLAF 121310Z AUTO 22007KT 10SM OVC009 17/14 A2992 RMK T01700140 CIG 7V12  MADISHF
LAF,2021-10-12 13:15,KLAF 121315Z AUTO 23008KT 10SM OVC009 16/14 A2992 RMK T01600140 CIG 7V12  MADISHF
LAF,2021-10-12 13:18,KLAF 121318Z 23009G19KT 10SM OVC009 16/14 A2992 RMK AO2 T01560144
LAF,2021-10-12 13:20,KLAF 121320Z AUTO 22008KT 10SM OVC009 16/14 A2992 RMK T01600140 MADISHF
LAF,2021-10-12 13:25,KLAF 121325Z AUTO 22007KT 10SM OVC008 16/14 A2992 RMK T01600140 MADISHF
LAF,2021-10-12 13:30,KLAF 121330Z AUTO 22005KT 10SM OVC008 16/14 A2992 RMK T01600140 MADISHF
LAF,2021-10-12 13:35,KLAF 121335Z AUTO 22009G14KT 10SM OVC008 16/14 A2992 RMK T01600140 MADISHF
LAF,2021-10-12 13:40,KLAF 121340Z AUTO 22008KT 10SM OVC008 16/14 A2992 RMK T01600140 MADISHF
LAF,2021-10-12 13:45,KLAF 121345Z AUTO 21010KT 10SM OVC008 16/14 A2992 RMK T01600140 MADISHF
LAF,2021-10-12 13:50,KLAF 121350Z AUTO 22008KT 10SM OVC008 16/14 A2992 RMK T01600140 MADISHF
LAF,2021-10-12 13:54,KLAF 121354Z 22009G16KT 10SM OVC008 16/14 A2992 RMK AO2 SLP130 T01560144
LAF,2021-10-12 13:55,KLAF 121355Z AUTO 22008KT 10SM OVC008 16/14 A2992 RMK T01600140 MADISHF
LAF,2021-10-12 14:00,KLAF 121400Z AUTO 21008KT 10SM OVC008 16/14 A2992 RMK T01600140 MADISHF
LAF,2021-10-12 14:05,KLAF 121405Z AUTO 23009G14KT 10SM OVC008 16/14 A2993 RMK T01600140 MADISHF
LAF,2021-10-12 14:10,KLAF 121410Z AUTO 22009G15KT 10SM OVC008 16/14 A2993 RMK T01600140 MADISHF
LAF,2021-10-12 14:15,KLAF 121415Z AUTO 24009G14KT 10SM OVC009 16/14 A2993 RMK T01600140 MADISHF
LAF,2021-10-12 14:20,KLAF 121420Z AUTO 22009KT 10SM OVC009 16/14 A2993 RMK T01600140 MADISHF
LAF,2021-10-12 14:25,KLAF 121425Z AUTO 22007KT 10SM OVC009 16/14 A2993 RMK T01600140 MADISHF
LAF,2021-10-12 14:30,KLAF 121430Z AUTO 22008KT 10SM OVC009 16/14 A2993 RMK T01600140 MADISHF
LAF,2021-10-12 14:35,KLAF 121435Z AUTO 23008KT 10SM OVC009 16/14 A2993 RMK T01600140 CIG 8V13  MADISHF
LAF,2021-10-12 14:40,KLAF 121440Z AUTO 22005KT 10SM OVC009 16/15 A2993 RMK T01600150 VRB06KT CIG 8V13  MADISHF
LAF,2021-10-12 14:45,KLAF 121445Z AUTO 22007KT 10SM OVC009 16/15 A2993 RMK T01600150 WND 19V27 CIG 8V13  MADISHF
LAF,2021-10-12 14:50,KLAF 121450Z AUTO 23009KT 10SM OVC009 16/15 A2993 RMK T01600150 CIG 8V12  MADISHF
LAF,2021-10-12 14:54,KLAF 121454Z 24009KT 10SM OVC010 16/15 A2993 RMK AO2 CIG 008V014 SLP132 T01610150 51016
LAF,2021-10-12 14:55,KLAF 121455Z AUTO 23009KT 10SM OVC009 16/15 A2993 RMK T01600150 CIG 8V14  MADISHF
LAF,2021-10-12 15:00,KLAF 121500Z AUTO 23008KT 10SM OVC009 17/15 A2993 RMK T01700150 CIG 8V14  MADISHF
LAF,2021-10-12 15:05,KLAF 121505Z AUTO 23010KT 10SM OVC009 17/15 A2993 RMK T01700150 WND 20V26 CIG 8V14  MADISHF
LAF,2021-10-12 15:10,KLAF 121510Z AUTO 23008KT 10SM OVC009 17/15 A2994 RMK T01700150 CIG 9V14  MADISHF
LAF,2021-10-12 15:15,KLAF 121515Z AUTO 23009KT 10SM OVC009 16/14 A2994 RMK T01600140 MADISHF
LAF,2021-10-12 15:20,KLAF 121520Z AUTO 24008KT 10SM OVC009 17/15 A2994 RMK T01700150 MADISHF
LAF,2021-10-12 15:25,KLAF 121525Z AUTO 23008KT 10SM OVC009 17/15 A2994 RMK T01700150 WND 20V27  MADISHF
LAF,2021-10-12 15:30,KLAF 121530Z AUTO 24008KT 10SM OVC009 16/15 A2994 RMK T01600150 MADISHF
LAF,2021-10-12 15:35,KLAF 121535Z AUTO 23008KT 10SM OVC009 16/15 A2994 RMK T01600150 MADISHF
LAF,2021-10-12 15:40,KLAF 121540Z AUTO 24009KT 8SM OVC009 16/15 A2995 RMK T01600150 CIG 8V12  MADISHF
LAF,2021-10-12 15:45,KLAF 121545Z AUTO 23009G15KT 6SM BR OVC009 16/15 A2995 RMK T01600150 MADISHF
LAF,2021-10-12 15:47,KLAF 121547Z 23008G17KT 6SM BR OVC009 16/15 A2995 RMK AO2 T01610150
LAF,2021-10-12 15:50,KLAF 121550Z AUTO 24008KT 6SM BR OVC009 16/15 A2995 RMK T01600150 MADISHF
LAF,2021-10-12 15:54,KLAF 121554Z 23007G17KT 7SM OVC009 16/15 A2995 RMK AO2 SLP140 T01610150
LAF,2021-10-12 15:55,KLAF 121555Z AUTO 23009KT 7SM OVC009 16/15 A2995 RMK T01600150 MADISHF
LAF,2021-10-12 16:00,KLAF 121600Z AUTO 24007KT 10SM OVC009 16/15 A2995 RMK T01600150 MADISHF
LAF,2021-10-12 16:05,KLAF 121605Z AUTO 22007KT 10SM OVC009 16/15 A2995 RMK T01600150 CIG 7V12  MADISHF
LAF,2021-10-12 16:10,KLAF 121610Z AUTO 23008KT 10SM OVC011 16/15 A2995 RMK T01600150 MADISHF
LAF,2021-10-12 16:15,KLAF 121615Z 23011G16KT 10SM OVC011 17/15 A2995 RMK AO2 T01670150
LAF,2021-10-12 16:15,KLAF 121615Z AUTO 22011KT 10SM OVC011 17/15 A2995 RMK T01700150 MADISHF
LAF,2021-10-12 16:20,KLAF 121620Z AUTO 23008KT 10SM OVC011 17/14 A2995 RMK T01700140 MADISHF
LAF,2021-10-12 16:25,KLAF 121625Z AUTO 23007KT 10SM OVC011 17/15 A2995 RMK T01700150 MADISHF
LAF,2021-10-12 16:30,KLAF 121630Z AUTO 22008KT 10SM OVC011 17/15 A2995 RMK T01700150 MADISHF
LAF,2021-10-12 16:35,KLAF 121635Z AUTO 23008KT 10SM OVC011 16/15 A2995 RMK T01600150 MADISHF
LAF,2021-10-12 16:40,KLAF 121640Z AUTO 23008KT 10SM OVC011 16/15 A2995 RMK T01600150 MADISHF
LAF,2021-10-12 16:45,KLAF 121645Z AUTO 24007KT 10SM OVC011 17/15 A2995 RMK T01700150 CIG 8V15  MADISHF
LAF,2021-10-12 16:50,KLAF 121650Z AUTO 23005KT 10SM OVC009 17/15 A2995 RMK T01700150 CIG 8V15  MADISHF
LAF,2021-10-12 16:54,KLAF 121654Z 25008KT 10SM OVC009 17/15 A2995 RMK AO2 CIG 008V013 SLP140 T01670150
LAF,2021-10-12 16:55,KLAF 121655Z AUTO 24007KT 10SM OVC009 17/15 A2995 RMK T01700150 CIG 8V13  MADISHF
LAF,2021-10-12 17:00,KLAF 121700Z AUTO 25007KT 10SM OVC009 17/15 A2995 RMK T01700150 CIG 8V13  MADISHF
LAF,2021-10-12 17:05,KLAF 121705Z AUTO 23009KT 10SM OVC009 17/15 A2995 RMK T01700150 CIG 8V13  MADISHF
LAF,2021-10-12 17:10,KLAF 121710Z AUTO 23008KT 10SM OVC009 17/15 A2995 RMK T01700150 CIG 8V13  MADISHF
LAF,2021-10-12 17:15,KLAF 121715Z AUTO 23007KT 10SM OVC009 17/15 A2995 RMK T01700150 MADISHF
LAF,2021-10-12 17:20,KLAF 121720Z AUTO 24008KT 10SM OVC009 17/15 A2995 RMK T01700150 MADISHF
LAF,2021-10-12 17:25,KLAF 121725Z AUTO 24008KT 10SM OVC009 17/15 A2995 RMK T01700150 MADISHF
LAF,2021-10-12 17:30,KLAF 121730Z AUTO 24005KT 10SM OVC009 17/15 A2995 RMK T01700150 MADISHF
LAF,2021-10-12 17:32,KLAF 121732Z VRB06G14KT 10SM OVC010 17/15 A2995 RMK AO2 T01670150
LAF,2021-10-12 17:35,KLAF 121735Z AUTO 23005KT 10SM OVC009 17/15 A2995 RMK T01700150 MADISHF
LAF,2021-10-12 17:40,KLAF 121740Z AUTO 24005KT 10SM OVC009 17/15 A2995 RMK T01700150 MADISHF
LAF,2021-10-12 17:45,KLAF 121745Z AUTO 22005KT 10SM OVC009 17/16 A2995 RMK T01700160 MADISHF
LAF,2021-10-12 17:50,KLAF 121750Z AUTO 23008KT 10SM OVC009 17/15 A2995 RMK T01700150 MADISHF
LAF,2021-10-12 17:54,KLAF 121754Z 24008KT 10SM OVC010 17/15 A2995 RMK AO2 SLP138 T01720150 10172 20156 50005
LAF,2021-10-12 17:55,KLAF 121755Z AUTO 23008KT 10SM OVC009 17/15 A2995 RMK T01700150 MADISHF
LAF,2021-10-12 18:00,KLAF 121800Z AUTO 23008KT 10SM OVC009 17/15 A2995 RMK T01700150 MADISHF
LAF,2021-10-12 18:05,KLAF 121805Z AUTO 23008KT 10SM OVC009 17/16 A2995 RMK T01700160 MADISHF
LAF,2021-10-12 18:10,KLAF 121810Z AUTO 24009KT 10SM OVC009 17/15 A2995 RMK T01700150 MADISHF
LAF,2021-10-12 18:15,KLAF 121815Z AUTO 23005KT 10SM OVC009 17/16 A2995 RMK T01700160 MADISHF
LAF,2021-10-12 18:20,KLAF 121820Z AUTO 23007KT 10SM OVC011 17/16 A2995 RMK T01700160 MADISHF
LAF,2021-10-12 18:25,KLAF 121825Z AUTO 23008KT 10SM OVC009 17/16 A2995 RMK T01700160 MADISHF
LAF,2021-10-12 18:28,KLAF 121828Z 24008KT 10SM OVC009 17/16 A2995 RMK AO2 T01720156
LAF,2021-10-12 18:30,KLAF 121830Z AUTO 24008KT 10SM OVC009 17/16 A2995 RMK T01700160 MADISHF
LAF,2021-10-12 18:35,KLAF 121835Z AUTO 22004KT 10SM OVC009 17/16 A2994 RMK T01700160 MADISHF
LAF,2021-10-12 18:40,KLAF 121840Z AUTO 23008KT 10SM OVC009 18/16 A2994 RMK T01800160 MADISHF
LAF,2021-10-12 18:45,KLAF 121845Z AUTO 24005KT 10SM OVC009 18/16 A2994 RMK T01800160 VRB06KT  MADISHF
LAF,2021-10-12 18:50,KLAF 121850Z AUTO 22005KT 10SM OVC009 18/16 A2994 RMK T01800160 MADISHF
LAF,2021-10-12 18:54,KLAF 121854Z 24008KT 10SM OVC009 18/16 A2994 RMK AO2 SLP135 T01780156
LAF,2021-10-12 18:55,KLAF 121855Z AUTO 24008KT 10SM OVC012 18/16 A2994 RMK T01800160 MADISHF
LAF,2021-10-12 19:00,KLAF 121900Z AUTO 24008KT 10SM BKN012 OVC016 18/16 A2994 RMK T01800160 MADISHF
LAF,2021-10-12 19:01,KLAF 121901Z 24008KT 10SM BKN012 OVC017 18/16 A2994 RMK AO2 T01780156
LAF,2021-10-12 19:05,KLAF 121905Z AUTO 26005KT 10SM OVC014 18/16 A2994 RMK T01800160 MADISHF
LAF,2021-10-12 19:10,KLAF 121910Z AUTO 25008KT 10SM OVC014 18/16 A2994 RMK T01800160 MADISHF
LAF,2021-10-12 19:15,KLAF 121915Z AUTO 24005KT 10SM OVC014 18/16 A2994 RMK T01800160 MADISHF
LAF,2021-10-12 19:20,KLAF 121920Z AUTO 22005KT 10SM OVC014 18/16 A2994 RMK T01800160 MADISHF
LAF,2021-10-12 19:25,KLAF 121925Z AUTO 24005KT 10SM OVC014 18/16 A2994 RMK T01800160 MADISHF
LAF,2021-10-12 19:30,KLAF 121930Z AUTO 22007KT 10SM BKN014 OVC024 18/16 A2994 RMK T01800160 MADISHF
LAF,2021-10-12 19:35,KLAF 121935Z AUTO 23005KT 10SM BKN014 OVC024 19/16 A2994 RMK T01900160 VRB05KT  MADISHF
LAF,2021-10-12 19:40,KLAF 121940Z AUTO 25008KT 10SM BKN014 OVC022 19/16 A2995 RMK T01900160 MADISHF
LAF,2021-10-12 19:45,KLAF 121945Z AUTO 25005KT 10SM SCT014 OVC024 19/16 A2994 RMK T01900160 MADISHF
LAF,2021-10-12 19:50,KLAF 121950Z AUTO 26009KT 10SM BKN016 OVC024 19/16 A2994 RMK T01900160 MADISHF
LAF,2021-10-12 19:51,KLAF 121951Z 25008KT 10SM SCT017 OVC024 19/16 A2994 RMK AO2
LAF,2021-10-12 19:54,KLAF 121954Z 27007KT 10SM SCT017 OVC025 19/16 A2994 RMK AO2 SLP137 T01940156
LAF,2021-10-12 19:55,KLAF 121955Z AUTO 26007KT 10SM SCT016 OVC025 19/16 A2994 RMK T01900160 MADISHF
LAF,2021-10-12 20:00,KLAF 122000Z AUTO 27005KT 10SM FEW016 BKN025 19/16 A2994 RMK T01900160 MADISHF
LAF,2021-10-12 20:05,KLAF 122005Z AUTO 23007KT 10SM SCT019 BKN026 20/16 A2995 RMK T02000160 MADISHF
LAF,2021-10-12 20:10,KLAF 122010Z AUTO 29009KT 10SM SCT019 BKN026 20/16 A2995 RMK T02000160 MADISHF
LAF,2021-10-12 20:15,KLAF 122015Z AUTO 27007KT 10SM FEW018 BKN026 20/16 A2994 RMK T02000160 MADISHF
LAF,2021-10-12 20:20,KLAF 122020Z AUTO 26008KT 10SM FEW021 SCT028 19/15 A2994 RMK T01900150 MADISHF
LAF,2021-10-12 20:23,KLAF 122023Z 25008KT 10SM FEW021 SCT028 20/15 A2994 RMK AO2 T02000150
LAF,2021-10-12 20:25,KLAF 122025Z AUTO 26005KT 10SM FEW021 SCT028 20/15 A2994 RMK T02000150 MADISHF
LAF,2021-10-12 20:30,KLAF 122030Z AUTO 23008KT 10SM FEW021 FEW027 20/15 A2994 RMK T02000150 MADISHF
LAF,2021-10-12 20:35,KLAF 122035Z AUTO 24008KT 10SM FEW027 20/14 A2995 RMK T02000140 MADISHF
LAF,2021-10-12 20:40,KLAF 122040Z AUTO 28008KT 10SM CLR 20/15 A2995 RMK T02000150 MADISHF
LAF,2021-10-12 20:45,KLAF 122045Z AUTO 29005KT 10SM CLR 20/16 A2995 RMK T02000160 MADISHF
LAF,2021-10-12 20:50,KLAF 122050Z AUTO 27007KT 10SM CLR 20/15 A2995 RMK T02000150 MADISHF
LAF,2021-10-12 20:54,KLAF 122054Z 28007KT 10SM CLR 20/15 A2995 RMK AO2 SLP138 T02000150 51003
LAF,2021-10-12 20:55,KLAF 122055Z AUTO 29005KT 10SM CLR 21/15 A2995 RMK T02100150 MADISHF
LAF,2021-10-12 21:00,KLAF 122100Z AUTO 27004KT 10SM CLR 20/15 A2995 RMK T02000150 MADISHF
LAF,2021-10-12 21:05,KLAF 122105Z AUTO 27005KT 10SM CLR 20/15 A2995 RMK T02000150 MADISHF
LAF,2021-10-12 21:10,KLAF 122110Z AUTO 26005KT 10SM CLR 21/15 A2995 RMK T02100150 MADISHF
LAF,2021-10-12 21:15,KLAF 122115Z AUTO 27005KT 10SM CLR 21/15 A2995 RMK T02100150 MADISHF
LAF,2021-10-12 21:20,KLAF 122120Z AUTO 25005KT 10SM CLR 21/15 A2995 RMK T02100150 MADISHF
LAF,2021-10-12 21:25,KLAF 122125Z AUTO 24004KT 10SM CLR 21/15 A2995 RMK T02100150 MADISHF
LAF,2021-10-12 21:30,KLAF 122130Z AUTO 26002KT 10SM CLR 21/15 A2995 RMK T02100150 MADISHF
LAF,2021-10-12 21:35,KLAF 122135Z AUTO 25004KT 10SM CLR 21/15 A2995 RMK T02100150 VRB04KT  MADISHF
LAF,2021-10-12 21:40,KLAF 122140Z AUTO 27002KT 10SM CLR 21/15 A2995 RMK T02100150 VRB03KT  MADISHF
LAF,2021-10-12 21:45,KLAF 122145Z AUTO 25005KT 10SM CLR 21/15 A2995 RMK T02100150 MADISHF
LAF,2021-10-12 21:50,KLAF 122150Z AUTO 26004KT 10SM CLR 21/15 A2995 RMK T02100150 MADISHF
LAF,2021-10-12 21:54,KLAF 122154Z 24005KT 10SM CLR 21/15 A2995 RMK AO2 SLP140 T02060150
LAF,2021-10-12 21:55,KLAF 122155Z AUTO 24005KT 10SM CLR 21/15 A2995 RMK T02100150 MADISHF
LAF,2021-10-12 22:00,KLAF 122200Z AUTO 23004KT 10SM CLR 21/15 A2995 RMK T02100150 MADISHF
LAF,2021-10-12 22:05,KLAF 122205Z AUTO 23004KT 10SM CLR 21/15 A2995 RMK T02100150 MADISHF
LAF,2021-10-12 22:10,KLAF 122210Z AUTO 23002KT 10SM CLR 21/15 A2995 RMK T02100150 MADISHF
LAF,2021-10-12 22:15,KLAF 122215Z AUTO 24002KT 10SM CLR 21/15 A2995 RMK T02100150 MADISHF
LAF,2021-10-12 22:20,KLAF 122220Z AUTO 21002KT 10SM CLR 21/15 A2995 RMK T02100150 MADISHF
LAF,2021-10-12 22:25,KLAF 122225Z AUTO 21002KT 10SM CLR 21/15 A2995 RMK T02100150 MADISHF
LAF,2021-10-12 22:30,KLAF 122230Z AUTO 00000KT 10SM CLR 21/15 A2995 RMK T02100150 MADISHF
LAF,2021-10-12 22:35,KLAF 122235Z AUTO 19002KT 10SM CLR 20/15 A2995 RMK T02000150 MADISHF
LAF,2021-10-12 22:40,KLAF 122240Z AUTO 00000KT 10SM CLR 20/15 A2995 RMK T02000150 MADISHF
LAF,2021-10-12 22:45,KLAF 122245Z AUTO 19002KT 10SM CLR 20/15 A2995 RMK T02000150 MADISHF
LAF,2021-10-12 22:50,KLAF 122250Z AUTO 00000KT 10SM CLR 19/15 A2995 RMK T01900150 MADISHF
LAF,2021-10-12 22:54,KLAF 122254Z 00000KT 10SM CLR 19/15 A2996 RMK AO2 SLP143 T01940150
LAF,2021-10-12 22:55,KLAF 122255Z AUTO 00000KT 10SM CLR 19/15 A2995 RMK T01900150 MADISHF
LAF,2021-10-12 23:00,KLAF 122300Z AUTO 00000KT 10SM CLR 19/15 A2995 RMK T01900150 MADISHF
LAF,2021-10-12 23:05,KLAF 122305Z AUTO 00000KT 10SM CLR 19/15 A2995 RMK T01900150 MADISHF
LAF,2021-10-12 23:10,KLAF 122310Z AUTO 00000KT 10SM CLR 18/15 A2996 RMK T01800150 MADISHF
LAF,2021-10-12 23:15,KLAF 122315Z AUTO 00000KT 10SM CLR 18/15 A2996 RMK T01800150 MADISHF
LAF,2021-10-12 23:20,KLAF 122320Z AUTO 00000KT 10SM CLR 18/15 A2996 RMK T01800150 MADISHF
LAF,2021-10-12 23:25,KLAF 122325Z AUTO 00000KT 10SM CLR 17/15 A2996 RMK T01700150 MADISHF
LAF,2021-10-12 23:30,KLAF 122330Z AUTO 00000KT 10SM CLR 17/15 A2997 RMK T01700150 MADISHF
LAF,2021-10-12 23:35,KLAF 122335Z AUTO 00000KT 10SM CLR 17/16 A2997 RMK T01700160 MADISHF
LAF,2021-10-12 23:40,KLAF 122340Z AUTO 00000KT 10SM CLR 17/15 A2997 RMK T01700150 MADISHF
LAF,2021-10-12 23:45,KLAF 122345Z AUTO 00000KT 10SM CLR 17/15 A2997 RMK T01700150 MADISHF
LAF,2021-10-12 23:50,KLAF 122350Z AUTO 00000KT 10SM CLR 17/15 A2997 RMK T01700150 MADISHF
LAF,2021-10-12 23:54,KLAF 122354Z 00000KT 10SM CLR 16/15 A2998 RMK AO2 SLP152 T01610150 10206 20161 53012
LAF,2021-10-12 23:55,KLAF 122355Z AUTO 00000KT 10SM CLR 16/15 A2997 RMK T01600150 MADISHF
LAF,2021-10-13 00:00,KLAF 130000Z AUTO 00000KT 10SM CLR 16/15 A2997 RMK T01600150 MADISHF
LAF,2021-10-13 00:05,KLAF 130005Z AUTO 00000KT 10SM CLR 16/15 A2998 RMK T01600150 MADISHF
LAF,2021-10-13 00:10,KLAF 130010Z AUTO 00000KT 10SM CLR 16/14 A2998 RMK T01600140 MADISHF
LAF,2021-10-13 00:15,KLAF 130015Z AUTO 00000KT 10SM CLR 16/15 A2998 RMK T01600150 MADISHF
LAF,2021-10-13 00:20,KLAF 130020Z AUTO 00000KT 10SM CLR 16/15 A2998 RMK T01600150 MADISHF
LAF,2021-10-13 00:25,KLAF 130025Z AUTO 00000KT 10SM CLR 16/15 A2998 RMK T01600150 MADISHF
LAF,2021-10-13 00:30,KLAF 130030Z AUTO 00000KT 10SM CLR 16/14 A2998 RMK T01600140 MADISHF
LAF,2021-10-13 00:35,KLAF 130035Z AUTO 00000KT 10SM CLR 16/14 A2998 RMK T01600140 MADISHF
LAF,2021-10-13 00:40,KLAF 130040Z AUTO 00000KT 10SM CLR 15/14 A2998 RMK T01500140 MADISHF
LAF,2021-10-13 00:45,KLAF 130045Z AUTO 00000KT 10SM CLR 16/14 A2998 RMK T01600140 MADISHF
LAF,2021-10-13 00:50,KLAF 130050Z AUTO 00000KT 10SM CLR 15/14 A2998 RMK T01500140 MADISHF
LAF,2021-10-13 00:54,KLAF 130054Z AUTO 00000KT 10SM CLR 14/14 A2999 RMK AO2 SLP154 T01440139
LAF,2021-10-13 00:55,KLAF 130055Z AUTO 00000KT 10SM CLR 14/14 A2998 RMK T01400140 MADISHF
LAF,2021-10-13 01:00,KLAF 130100Z AUTO 00000KT 10SM CLR 15/14 A2998 RMK T01500140 MADISHF
LAF,2021-10-13 01:05,KLAF 130105Z AUTO 00000KT 10SM CLR 15/14 A2998 RMK T01500140 MADISHF
LAF,2021-10-13 01:10,KLAF 130110Z AUTO 00000KT 9SM CLR 14/14 A2998 RMK T01400140 MADISHF
LAF,2021-10-13 01:15,KLAF 130115Z AUTO 00000KT 7SM CLR 15/14 A2998 RMK T01500140 MADISHF
LAF,2021-10-13 01:20,KLAF 130120Z AUTO 00000KT 7SM CLR 15/14 A2998 RMK T01500140 MADISHF
LAF,2021-10-13 01:25,KLAF 130125Z AUTO 00000KT 3SM BR CLR 14/14 A2998 RMK T01400140 MADISHF
LAF,2021-10-13 01:30,KLAF 130130Z AUTO 00000KT 2 1/2SM BR CLR 14/14 A2998 RMK T01400140 MADISHF
LAF,2021-10-13 01:35,KLAF 130135Z AUTO 00000KT 6SM BR CLR 14/14 A2998 RMK T01400140 MADISHF
LAF,2021-10-13 01:40,KLAF 130140Z AUTO 00000KT 10SM CLR 14/14 A2998 RMK T01400140 MADISHF
LAF,2021-10-13 01:45,KLAF 130145Z AUTO 00000KT 10SM CLR 14/14 A2998 RMK T01400140 MADISHF
LAF,2021-10-13 01:50,KLAF 130150Z AUTO 00000KT 10SM CLR 14/14 A2998 RMK T01400140 MADISHF
LAF,2021-10-13 01:54,KLAF 130154Z AUTO 00000KT 10SM CLR 14/14 A2999 RMK AO2 SLP153 T01390139
LAF,2021-10-13 01:55,KLAF 130155Z AUTO 00000KT 10SM CLR 14/14 A2998 RMK T01400140 MADISHF
LAF,2021-10-13 02:00,KLAF 130200Z AUTO 00000KT 10SM CLR 14/13 A2998 RMK T01400130 MADISHF
LAF,2021-10-13 02:05,KLAF 130205Z AUTO 00000KT 10SM CLR 14/14 A2998 RMK T01400140 MADISHF
LAF,2021-10-13 02:10,KLAF 130210Z AUTO 00000KT 10SM CLR 13/13 A2998 RMK T01300130 MADISHF
LAF,2021-10-13 02:15,KLAF 130215Z AUTO 00000KT 9SM CLR 14/13 A2998 RMK T01400130 MADISHF
LAF,2021-10-13 02:20,KLAF 130220Z AUTO 00000KT 9SM CLR 14/14 A2998 RMK T01400140 MADISHF
LAF,2021-10-13 02:25,KLAF 130225Z AUTO 00000KT 9SM CLR 14/14 A2998 RMK T01400140 MADISHF
LAF,2021-10-13 02:30,KLAF 130230Z AUTO 00000KT 10SM CLR 13/13 A2998 RMK T01300130 MADISHF
LAF,2021-10-13 02:35,KLAF 130235Z AUTO 00000KT 10SM CLR 14/13 A2998 RMK T01400130 MADISHF
LAF,2021-10-13 02:40,KLAF 130240Z AUTO 00000KT 10SM CLR 13/13 A2998 RMK T01300130 MADISHF
LAF,2021-10-13 02:45,KLAF 130245Z AUTO 00000KT 10SM CLR 13/13 A2998 RMK T01300130 MADISHF
LAF,2021-10-13 02:50,KLAF 130250Z AUTO 00000KT 10SM CLR 14/13 A2997 RMK T01400130 MADISHF
LAF,2021-10-13 02:54,KLAF 130254Z AUTO 00000KT 10SM CLR 13/13 A2999 RMK AO2 SLP153 T01280128 50000
LAF,2021-10-13 02:55,KLAF 130255Z AUTO 00000KT 10SM CLR 13/13 A2998 RMK T01300130 MADISHF
LAF,2021-10-13 03:00,KLAF 130300Z AUTO 00000KT 10SM CLR 13/13 A2997 RMK T01300130 MADISHF
LAF,2021-10-13 03:05,KLAF 130305Z AUTO 00000KT 10SM CLR 13/13 A2998 RMK T01300130 MADISHF
LAF,2021-10-13 03:10,KLAF 130310Z AUTO 00000KT 10SM CLR 13/12 A2998 RMK T01300120 MADISHF
LAF,2021-10-13 03:15,KLAF 130315Z AUTO 00000KT 10SM CLR 13/12 A2998 RMK T01300120 MADISHF
LAF,2021-10-13 03:20,KLAF 130320Z AUTO 00000KT 10SM CLR 13/13 A2998 RMK T01300130 MADISHF
LAF,2021-10-13 03:25,KLAF 130325Z AUTO 00000KT 10SM CLR 13/13 A2998 RMK T01300130 MADISHF
LAF,2021-10-13 03:30,KLAF 130330Z AUTO 00000KT 10SM CLR 13/13 A3000 RMK T01300130 MADISHF
LAF,2021-10-13 03:35,KLAF 130335Z AUTO 00000KT 3SM BR CLR 12/12 A3000 RMK T01200120 MADISHF
LAF,2021-10-13 03:40,KLAF 130340Z AUTO 00000KT 2SM BR CLR 13/13 A3000 RMK T01300130 MADISHF
LAF,2021-10-13 03:42,KLAF 130342Z AUTO 00000KT 1 3/4SM BR CLR 13/13 A3000 RMK AO2 VIS 1V4 T01280128
LAF,2021-10-13 03:45,KLAF 130345Z AUTO 00000KT 1 1/2SM BR CLR 13/13 A3000 RMK T01300130 MADISHF
LAF,2021-10-13 03:50,KLAF 130350Z AUTO 00000KT 1 1/2SM BR CLR 13/13 A3000 RMK T01300130 MADISHF
LAF,2021-10-13 03:54,KLAF 130354Z AUTO 00000KT 1 3/4SM BR CLR 13/13 A3000 RMK AO2 VIS 1V4 SLP158 T01280128
LAF,2021-10-13 03:55,KLAF 130355Z AUTO 00000KT 2SM BR CLR 13/13 A3000 RMK T01300130 MADISHF
LAF,2021-10-13 04:00,KLAF 130400Z AUTO 00000KT 2 1/2SM BR CLR 12/12 A3000 RMK T01200120 MADISHF
LAF,2021-10-13 04:01,KLAF 130401Z AUTO 00000KT 3SM BR CLR 12/12 A3000 RMK AO2 T01220122
LAF,2021-10-13 04:05,KLAF 130405Z AUTO 00000KT 8SM CLR 12/12 A3000 RMK T01200120 MADISHF
LAF,2021-10-13 04:10,KLAF 130410Z AUTO 00000KT 9SM CLR 12/12 A3000 RMK T01200120 MADISHF
LAF,2021-10-13 04:15,KLAF 130415Z AUTO 00000KT 9SM CLR 13/12 A3000 RMK T01300120 MADISHF
LAF,2021-10-13 04:20,KLAF 130420Z AUTO 00000KT 8SM CLR 13/12 A3000 RMK T01300120 MADISHF
LAF,2021-10-13 04:25,KLAF 130425Z AUTO 00000KT 8SM CLR 13/12 A3000 RMK T01300120 MADISHF
LAF,2021-10-13 04:30,KLAF 130430Z AUTO 00000KT 7SM CLR 12/12 A3000 RMK T01200120 MADISHF
LAF,2021-10-13 04:35,KLAF 130435Z AUTO 00000KT 6SM BR CLR 12/12 A3000 RMK T01200120 MADISHF
LAF,2021-10-13 04:40,KLAF 130440Z AUTO 00000KT 7SM CLR 12/12 A2998 RMK T01200120 MADISHF
LAF,2021-10-13 04:45,KLAF 130445Z AUTO 00000KT 1 1/2SM BR CLR 12/12 A2998 RMK T01200120 MADISHF
LAF,2021-10-13 04:50,KLAF 130450Z AUTO 00000KT 1 1/4SM BR CLR 12/12 A2999 RMK AO2
LAF,2021-10-13 04:50,KLAF 130450Z AUTO 00000KT 1 1/2SM BR CLR 12/12 A2998 RMK T01200120 MADISHF
LAF,2021-10-13 04:54,KLAF 130454Z AUTO 00000KT 2 1/2SM BR CLR 12/12 A2999 RMK AO2 SLP155 T01220122 402060122
LAF,2021-10-13 04:55,KLAF 130455Z AUTO 00000KT 4SM BR CLR 12/12 A2998 RMK T01200120 MADISHF
LAF,2021-10-13 05:00,KLAF 130500Z AUTO 00000KT 5SM BR CLR 12/12 A2998 RMK T01200120 MADISHF
LAF,2021-10-13 05:01,KLAF 130501Z AUTO 00000KT 5SM BR CLR 12/12 A2999 RMK AO2 T01170117
LAF,2021-10-13 05:05,KLAF 130505Z AUTO 00000KT 2SM BR CLR 12/12 A2998 RMK T01200120 MADISHF
LAF,2021-10-13 05:08,KLAF 130508Z AUTO 00000KT 1 3/4SM BR CLR 12/12 A2999 RMK AO2 VIS 1V4 T01220117
LAF,2021-10-13 05:10,KLAF 130510Z AUTO 00000KT 1SM BR CLR 12/12 A2998 RMK T01200120 MADISHF
LAF,2021-10-13 05:15,KLAF 130515Z AUTO 00000KT 1/2SM FG CLR 12/12 A2998 RMK T01200120 MADISHF
LAF,2021-10-13 05:16,KLAF 130516Z AUTO 00000KT 1/2SM FG VV003 12/12 A2999 RMK AO2 T01170117
LAF,2021-10-13 05:20,KLAF 130520Z AUTO 00000KT 1/2SM FG VV003 12/12 A2998 RMK T01200120 MADISHF
LAF,2021-10-13 05:25,KLAF 130525Z AUTO 00000KT 1SM BR CLR 12/12 A2998 RMK T01200120 MADISHF
LAF,2021-10-13 05:26,KLAF 130526Z AUTO 00000KT 1SM BR CLR 12/12 A2999 RMK AO2 T01170117
LAF,2021-10-13 05:30,KLAF 130530Z AUTO 00000KT 3SM BR CLR 12/12 A2998 RMK T01200120 MADISHF
LAF,2021-10-13 05:30,KLAF 130530Z AUTO 00000KT 3SM BR CLR 12/12 A2999 RMK AO2 T01170117
LAF,2021-10-13 05:35,KLAF 130535Z AUTO 00000KT 3SM BR CLR 12/12 A2997 RMK T01200120 MADISHF
LAF,2021-10-13 05:40,KLAF 130540Z AUTO 00000KT 4SM BR CLR 12/12 A2997 RMK T01200120 MADISHF
LAF,2021-10-13 05:45,KLAF 130545Z AUTO 00000KT 6SM BR CLR 11/11 A2998 RMK T01100110 MADISHF
LAF,2021-10-13 05:50,KLAF 130550Z AUTO 00000KT 5SM BR FEW003 12/12 A2998 RMK T01200120 MADISHF
LAF,2021-10-13 05:51,KLAF 130551Z AUTO 00000KT 2 1/2SM BR FEW003 12/12 A2999 RMK AO2 VIS 1/2V5
LAF,2021-10-13 05:54,KLAF 130554Z AUTO 00000KT 3/4SM BR VV002 12/12 A2999 RMK AO2 SLP153 T01170117 10161 20111 56005
LAF,2021-10-13 05:55,KLAF 130555Z AUTO 00000KT 1/2SM FG VV002 12/12 A2998 RMK T01200120 MADISHF
LAF,2021-10-13 06:00,KLAF 130600Z AUTO 00000KT 1/2SM FG VV002 12/12 A3000 RMK T01200120 MADISHF
LAF,2021-10-13 06:05,KLAF 130605Z AUTO 00000KT 1/2SM FG VV003 12/12 A2998 RMK T01200120 MADISHF
LAF,2021-10-13 06:10,KLAF 130610Z AUTO 00000KT 1/2SM FG VV003 12/12 A3000 RMK T01200120 MADISHF
LAF,2021-10-13 06:15,KLAF 130615Z AUTO 00000KT 1 1/2SM BR SCT003 12/12 A2998 RMK T01200120 MADISHF
LAF,2021-10-13 06:20,KLAF 130620Z AUTO 00000KT 2SM BR SCT003 12/12 A2998 RMK T01200120 MADISHF
LAF,2021-10-13 06:21,KLAF 130621Z AUTO 00000KT 1 3/4SM BR SCT003 12/12 A2999 RMK AO2 VIS 1V5 T01170117
LAF,2021-10-13 06:25,KLAF 130625Z AUTO 00000KT 2 1/2SM BR FEW003 12/12 A2998 RMK T01200120 MADISHF
LAF,2021-10-13 06:26,KLAF 130626Z AUTO 00000KT 3SM BR FEW003 12/12 A2999 RMK AO2 T01170117
LAF,2021-10-13 06:30,KLAF 130630Z AUTO 00000KT 8SM FEW003 12/12 A3000 RMK T01200120 MADISHF
LAF,2021-10-13 06:35,KLAF 130635Z AUTO 00000KT 8SM CLR 12/12 A3000 RMK T01200120 MADISHF
LAF,2021-10-13 06:40,KLAF 130640Z AUTO 00000KT 9SM CLR 12/12 A3000 RMK T01200120 MADISHF
LAF,2021-10-13 06:45,KLAF 130645Z AUTO 00000KT 9SM CLR 12/12 A3000 RMK T01200120 MADISHF
LAF,2021-10-13 06:50,KLAF 130650Z AUTO 00000KT 9SM CLR 11/11 A3000 RMK T01100110 MADISHF
LAF,2021-10-13 06:54,KLAF 130654Z AUTO 00000KT 10SM CLR 11/11 A3001 RMK AO2 SLP160 T01110111
LAF,2021-10-13 06:55,KLAF 130655Z AUTO 00000KT 10SM CLR 11/11 A3001 RMK T01100110 MADISHF
LAF,2021-10-13 07:00,KLAF 130700Z AUTO 00000KT 9SM CLR 12/12 A3000 RMK T01200120 MADISHF
LAF,2021-10-13 07:05,KLAF 130705Z AUTO 00000KT 9SM CLR 12/12 A3000 RMK T01200120 MADISHF
LAF,2021-10-13 07:10,KLAF 130710Z AUTO 00000KT 9SM CLR 12/12 A3000 RMK T01200120 MADISHF
LAF,2021-10-13 07:15,KLAF 130715Z AUTO 00000KT 10SM CLR 12/12 A3000 RMK T01200120 MADISHF
LAF,2021-10-13 07:20,KLAF 130720Z AUTO 00000KT 10SM CLR 12/12 A3000 RMK T01200120 MADISHF
LAF,2021-10-13 07:25,KLAF 130725Z AUTO 00000KT 10SM CLR 11/11 A3000 RMK T01100110 MADISHF
LAF,2021-10-13 07:30,KLAF 130730Z AUTO 00000KT 10SM CLR 11/11 A3000 RMK T01100110 MADISHF
LAF,2021-10-13 07:35,KLAF 130735Z AUTO 00000KT 10SM CLR 11/11 A2998 RMK T01100110 MADISHF
LAF,2021-10-13 07:40,KLAF 130740Z AUTO 00000KT 10SM CLR 11/11 A2998 RMK T01100110 MADISHF
LAF,2021-10-13 07:45,KLAF 130745Z AUTO 00000KT 10SM CLR 11/11 A2998 RMK T01100110 MADISHF
LAF,2021-10-13 07:50,KLAF 130750Z AUTO 00000KT 10SM CLR 11/11 A2998 RMK T01100110 MADISHF
LAF,2021-10-13 07:54,KLAF 130754Z AUTO 00000KT 10SM CLR 11/11 A2999 RMK AO2 SLP153 T01110106
LAF,2021-10-13 07:55,KLAF 130755Z AUTO 00000KT 10SM CLR 11/11 A2998 RMK T01100110 MADISHF
LAF,2021-10-13 08:00,KLAF 130800Z AUTO 00000KT 9SM CLR 11/11 A2998 RMK T01100110 MADISHF
LAF,2021-10-13 08:05,KLAF 130805Z AUTO 00000KT 8SM CLR 11/11 A2998 RMK T01100110 MADISHF
LAF,2021-10-13 08:10,KLAF 130810Z AUTO 00000KT 8SM CLR 11/11 A2998 RMK T01100110 MADISHF
LAF,2021-10-13 08:15,KLAF 130815Z AUTO 00000KT 6SM BR CLR 11/11 A3000 RMK T01100110 MADISHF
LAF,2021-10-13 08:20,KLAF 130820Z AUTO 00000KT 6SM BR CLR 11/11 A3000 RMK T01100110 MADISHF
LAF,2021-10-13 08:25,KLAF 130825Z AUTO 00000KT 4SM BR CLR 11/11 A3000 RMK T01100110 MADISHF
LAF,2021-10-13 08:30,KLAF 130830Z AUTO 00000KT 4SM BR CLR 11/11 A3000 RMK T01100110 MADISHF
LAF,2021-10-13 08:35,KLAF 130835Z AUTO 00000KT 4SM BR CLR 11/11 A3000 RMK T01100110 MADISHF
LAF,2021-10-13 08:40,KLAF 130840Z AUTO 00000KT 2 1/2SM BR CLR 11/11 A3000 RMK T01100110 MADISHF
LAF,2021-10-13 08:45,KLAF 130845Z AUTO 00000KT 3SM BR CLR 11/11 A3000 RMK T01100110 MADISHF
LAF,2021-10-13 08:50,KLAF 130850Z AUTO 00000KT 6SM BR CLR 11/11 A3000 RMK T01100110 MADISHF
LAF,2021-10-13 08:54,KLAF 130854Z AUTO 00000KT 6SM BR CLR 11/11 A3000 RMK AO2 SLP157 T01110111 51005
LAF,2021-10-13 08:55,KLAF 130855Z AUTO 00000KT 7SM CLR 11/11 A3000 RMK T01100110 MADISHF
LAF,2021-10-13 09:00,KLAF 130900Z AUTO 00000KT 8SM CLR 11/11 A3000 RMK T01100110 MADISHF
LAF,2021-10-13 09:05,KLAF 130905Z AUTO 00000KT 8SM CLR 11/11 A3000 RMK T01100110 MADISHF
LAF,2021-10-13 09:10,KLAF 130910Z AUTO 00000KT 8SM CLR 11/11 A3000 RMK T01100110 MADISHF
LAF,2021-10-13 09:15,KLAF 130915Z AUTO 00000KT 10SM CLR 12/11 A3000 RMK T01200110 MADISHF
LAF,2021-10-13 09:20,KLAF 130920Z AUTO 00000KT 10SM CLR 12/11 A3000 RMK T01200110 MADISHF
LAF,2021-10-13 09:25,KLAF 130925Z AUTO 00000KT 10SM CLR 12/11 A3000 RMK T01200110 MADISHF
LAF,2021-10-13 09:30,KLAF 130930Z AUTO 00000KT 10SM CLR 11/11 A3000 RMK T01100110 MADISHF
LAF,2021-10-13 09:35,KLAF 130935Z AUTO 00000KT 10SM CLR 11/11 A3000 RMK T01100110 MADISHF
LAF,2021-10-13 09:40,KLAF 130940Z AUTO 00000KT 10SM CLR 11/11 A3000 RMK T01100110 MADISHF
LAF,2021-10-13 09:45,KLAF 130945Z AUTO 00000KT 9SM CLR 11/11 A3000 RMK T01100110 MADISHF
LAF,2021-10-13 09:50,KLAF 130950Z AUTO 00000KT 9SM CLR 11/11 A3000 RMK T01100110 MADISHF
LAF,2021-10-13 09:54,KLAF 130954Z AUTO 00000KT 8SM CLR 11/11 A3001 RMK AO2 SLP159 T01110111
LAF,2021-10-13 09:55,KLAF 130955Z AUTO 00000KT 8SM CLR 11/11 A3001 RMK T01100110 MADISHF
LAF,2021-10-13 10:00,KLAF 131000Z AUTO 00000KT 9SM CLR 11/11 A3001 RMK T01100110 MADISHF
LAF,2021-10-13 10:05,KLAF 131005Z AUTO 00000KT 9SM CLR 11/11 A3001 RMK T01100110 MADISHF
LAF,2021-10-13 10:10,KLAF 131010Z AUTO 00000KT 7SM CLR 11/11 A3002 RMK T01100110 MADISHF
LAF,2021-10-13 10:15,KLAF 131015Z AUTO 00000KT 7SM CLR 11/11 A3001 RMK T01100110 MADISHF
LAF,2021-10-13 10:20,KLAF 131020Z AUTO 00000KT 8SM CLR 11/11 A3001 RMK T01100110 MADISHF
LAF,2021-10-13 10:25,KLAF 131025Z AUTO 00000KT 8SM CLR 11/11 A3002 RMK T01100110 MADISHF
LAF,2021-10-13 10:30,KLAF 131030Z AUTO 00000KT 8SM CLR 11/11 A3001 RMK T01100110 MADISHF
LAF,2021-10-13 10:35,KLAF 131035Z AUTO 00000KT 8SM CLR 11/11 A3001 RMK T01100110 MADISHF
LAF,2021-10-13 10:40,KLAF 131040Z AUTO 07002KT 8SM CLR 11/11 A3001 RMK T01100110 MADISHF
LAF,2021-10-13 10:45,KLAF 131045Z AUTO 00000KT 8SM CLR 11/11 A3001 RMK T01100110 MADISHF
LAF,2021-10-13 10:50,KLAF 131050Z AUTO 00000KT 8SM CLR 11/11 A3001 RMK T01100110 MADISHF
LAF,2021-10-13 10:54,KLAF 131054Z 00000KT 8SM CLR 11/11 A3001 RMK AO2 SLP161 T01060106
LAF,2021-10-13 10:55,KLAF 131055Z AUTO 00000KT 8SM CLR 11/11 A3001 RMK T01100110 MADISHF
LAF,2021-10-13 11:00,KLAF 131100Z AUTO 00000KT 8SM CLR 12/11 A3001 RMK T01200110 MADISHF
LAF,2021-10-13 11:05,KLAF 131105Z AUTO 00000KT 8SM CLR 12/11 A3001 RMK T01200110 MADISHF
LAF,2021-10-13 11:10,KLAF 131110Z AUTO 00000KT 8SM CLR 12/11 A3001 RMK T01200110 MADISHF
LAF,2021-10-13 11:15,KLAF 131115Z AUTO 00000KT 8SM CLR 12/11 A3001 RMK T01200110 MADISHF
LAF,2021-10-13 11:20,KLAF 131120Z AUTO 00000KT 7SM CLR 11/11 A3001 RMK T01100110 MADISHF
LAF,2021-10-13 11:25,KLAF 131125Z AUTO 00000KT 8SM CLR 11/11 A3001 RMK T01100110 MADISHF
LAF,2021-10-13 11:30,KLAF 131130Z AUTO 00000KT 7SM CLR 11/11 A3001 RMK T01100110 MADISHF
LAF,2021-10-13 11:35,KLAF 131135Z AUTO 10002KT 7SM CLR 11/11 A3001 RMK T01100110 MADISHF
LAF,2021-10-13 11:40,KLAF 131140Z AUTO 09002KT 8SM CLR 12/11 A3000 RMK T01200110 MADISHF
LAF,2021-10-13 11:45,KLAF 131145Z AUTO 08002KT 8SM CLR 11/11 A3000 RMK T01100110 MADISHF
LAF,2021-10-13 11:50,KLAF 131150Z AUTO 06004KT 8SM CLR 11/11 A3000 RMK T01100110 MADISHF
LAF,2021-10-13 11:54,KLAF 131154Z 07003KT 8SM CLR 11/11 A3000 RMK AO2 SLP158 T01110106 10122 20106 58001
LAF,2021-10-13 11:55,KLAF 131155Z AUTO 07002KT 8SM CLR 11/11 A3000 RMK T01100110 MADISHF
LAF,2021-10-13 12:00,KLAF 131200Z AUTO 07002KT 8SM CLR 11/11 A3000 RMK T01100110 MADISHF
LAF,2021-10-13 12:05,KLAF 131205Z AUTO 00000KT 7SM CLR 11/11 A3000 RMK T01100110 MADISHF
LAF,2021-10-13 12:10,KLAF 131210Z AUTO 08002KT 6SM BR CLR 11/11 A3000 RMK T01100110 MADISHF
LAF,2021-10-13 12:15,KLAF 131215Z AUTO 08004KT 6SM BR CLR 11/11 A3000 RMK T01100110 MADISHF
LAF,2021-10-13 12:20,KLAF 131220Z AUTO 08004KT 7SM CLR 11/11 A3000 RMK T01100110 MADISHF
LAF,2021-10-13 12:25,KLAF 131225Z AUTO 08004KT 8SM CLR 12/11 A3000 RMK T01200110 MADISHF
LAF,2021-10-13 12:30,KLAF 131230Z AUTO 08004KT 8SM CLR 12/11 A2998 RMK T01200110 MADISHF
LAF,2021-10-13 12:35,KLAF 131235Z AUTO 08004KT 8SM CLR 12/11 A2998 RMK T01200110 MADISHF
LAF,2021-10-13 12:40,KLAF 131240Z AUTO 08004KT 8SM CLR 12/12 A3000 RMK T01200120 MADISHF
LAF,2021-10-13 12:45,KLAF 131245Z AUTO 08002KT 8SM CLR 12/12 A3000 RMK T01200120 MADISHF
LAF,2021-10-13 12:50,KLAF 131250Z AUTO 09002KT 8SM CLR 13/12 A3000 RMK T01300120 MADISHF
LAF,2021-10-13 12:54,KLAF 131254Z 09003KT 8SM CLR 13/13 A2999 RMK AO2 SLP156 T01280128
LAF,2021-10-13 12:55,KLAF 131255Z AUTO 09002KT 8SM CLR 13/13 A2998 RMK T01300130 MADISHF
LAF,2021-10-13 13:00,KLAF 131300Z AUTO 09004KT 8SM CLR 13/13 A2998 RMK T01300130 MADISHF
LAF,2021-10-13 13:05,KLAF 131305Z AUTO 09002KT 8SM CLR 13/13 A3000 RMK T01300130 MADISHF
LAF,2021-10-13 13:10,KLAF 131310Z AUTO 00000KT 8SM CLR 13/13 A3000 RMK T01300130 MADISHF
LAF,2021-10-13 13:15,KLAF 131315Z AUTO 00000KT 8SM CLR 13/13 A3000 RMK T01300130 MADISHF
LAF,2021-10-13 13:20,KLAF 131320Z AUTO 10002KT 8SM CLR 14/13 A3000 RMK T01400130 MADISHF
LAF,2021-10-13 13:25,KLAF 131325Z AUTO 10002KT 8SM CLR 14/13 A3000 RMK T01400130 MADISHF
LAF,2021-10-13 13:30,KLAF 131330Z AUTO 00000KT 9SM CLR 14/13 A3001 RMK T01400130 MADISHF
LAF,2021-10-13 13:35,KLAF 131335Z AUTO 00000KT 9SM CLR 14/14 A3001 RMK T01400140 MADISHF
LAF,2021-10-13 13:40,KLAF 131340Z AUTO 00000KT 10SM CLR 15/14 A3001 RMK T01500140 MADISHF
LAF,2021-10-13 13:45,KLAF 131345Z AUTO 00000KT 10SM CLR 15/13 A3001 RMK T01500130 MADISHF
LAF,2021-10-13 13:50,KLAF 131350Z AUTO 00000KT 10SM CLR 15/13 A3001 RMK T01500130 MADISHF
LAF,2021-10-13 13:54,KLAF 131354Z 00000KT 10SM CLR 15/13 A3001 RMK AO2 SLP160 T01500133
LAF,2021-10-13 13:55,KLAF 131355Z AUTO 00000KT 10SM CLR 16/14 A3000 RMK T01600140 MADISHF
LAF,2021-10-13 14:00,KLAF 131400Z AUTO 00000KT 10SM CLR 15/14 A3000 RMK T01500140 MADISHF
LAF,2021-10-13 14:05,KLAF 131405Z AUTO 09002KT 10SM CLR 16/14 A3000 RMK T01600140 MADISHF
LAF,2021-10-13 14:10,KLAF 131410Z AUTO 12002KT 10SM CLR 16/14 A3001 RMK T01600140 MADISHF
LAF,2021-10-13 14:15,KLAF 131415Z AUTO 00000KT 10SM CLR 16/14 A3001 RMK T01600140 MADISHF
LAF,2021-10-13 14:20,KLAF 131420Z AUTO 00000KT 10SM CLR 17/14 A3000 RMK T01700140 MADISHF
LAF,2021-10-13 14:25,KLAF 131425Z AUTO 14002KT 10SM CLR 17/14 A3000 RMK T01700140 MADISHF
LAF,2021-10-13 14:30,KLAF 131430Z AUTO 13004KT 10SM CLR 17/15 A3000 RMK T01700150 MADISHF
LAF,2021-10-13 14:35,KLAF 131435Z AUTO 13002KT 10SM CLR 17/14 A3000 RMK T01700140 MADISHF
LAF,2021-10-13 14:40,KLAF 131440Z AUTO 13004KT 10SM CLR 18/14 A3000 RMK T01800140 VRB04KT  MADISHF
LAF,2021-10-13 14:45,KLAF 131445Z AUTO 14002KT 10SM CLR 18/14 A2998 RMK T01800140 MADISHF
LAF,2021-10-13 14:50,KLAF 131450Z AUTO 13005KT 10SM CLR 18/14 A2998 RMK T01800140 MADISHF
LAF,2021-10-13 14:54,KLAF 131454Z 13004KT 10SM CLR 19/14 A2999 RMK AO2 SLP154 T01890144 58002
LAF,2021-10-13 14:55,KLAF 131455Z AUTO 15004KT 10SM CLR 19/14 A2998 RMK T01900140 MADISHF
LAF,2021-10-13 15:00,KLAF 131500Z AUTO 17004KT 10SM CLR 19/14 A2998 RMK T01900140 MADISHF
LAF,2021-10-13 15:05,KLAF 131505Z AUTO 16005KT 10SM CLR 19/14 A2998 RMK T01900140 MADISHF
LAF,2021-10-13 15:10,KLAF 131510Z AUTO 17004KT 10SM CLR 19/14 A2998 RMK T01900140 MADISHF
LAF,2021-10-13 15:15,KLAF 131515Z AUTO 16004KT 10SM CLR 20/14 A2997 RMK T02000140 VRB04KT  MADISHF
LAF,2021-10-13 15:20,KLAF 131520Z AUTO 17005KT 10SM CLR 21/14 A2998 RMK T02100140 MADISHF
LAF,2021-10-13 15:25,KLAF 131525Z AUTO 17007KT 10SM CLR 21/13 A2998 RMK T02100130 MADISHF
LAF,2021-10-13 15:30,KLAF 131530Z AUTO 18007KT 10SM CLR 21/13 A2998 RMK T02100130 MADISHF
LAF,2021-10-13 15:35,KLAF 131535Z AUTO 18005KT 10SM CLR 21/13 A3000 RMK T02100130 MADISHF
LAF,2021-10-13 15:40,KLAF 131540Z AUTO 16004KT 10SM CLR 21/14 A2998 RMK T02100140 VRB04KT  MADISHF
LAF,2021-10-13 15:45,KLAF 131545Z AUTO 15002KT 10SM CLR 21/13 A2998 RMK T02100130 MADISHF
LAF,2021-10-13 15:50,KLAF 131550Z AUTO 16004KT 10SM CLR 21/13 A2998 RMK T02100130 MADISHF
LAF,2021-10-13 15:54,KLAF 131554Z 15005KT 10SM CLR 21/13 A2999 RMK AO2 SLP152 T02110133
LAF,2021-10-13 15:55,KLAF 131555Z AUTO 16005KT 10SM CLR 21/13 A2998 RMK T02100130 MADISHF
LAF,2021-10-13 16:00,KLAF 131600Z AUTO 16005KT 10SM CLR 21/13 A2997 RMK T02100130 MADISHF
LAF,2021-10-13 16:05,KLAF 131605Z AUTO 17005KT 10SM CLR 22/14 A2997 RMK T02200140 MADISHF
LAF,2021-10-13 16:10,KLAF 131610Z AUTO 17005KT 10SM CLR 21/13 A2997 RMK T02100130 MADISHF
LAF,2021-10-13 16:15,KLAF 131615Z AUTO 16005KT 10SM CLR 21/14 A2997 RMK T02100140 MADISHF
LAF,2021-10-13 16:20,KLAF 131620Z AUTO 18005KT 10SM CLR 21/14 A2997 RMK T02100140 MADISHF
LAF,2021-10-13 16:25,KLAF 131625Z AUTO 18007KT 10SM CLR 21/14 A2997 RMK T02100140 MADISHF
LAF,2021-10-13 16:30,KLAF 131630Z AUTO 18005KT 10SM CLR 21/14 A2997 RMK T02100140 MADISHF
LAF,2021-10-13 16:35,KLAF 131635Z AUTO 17005KT 10SM CLR 21/14 A2997 RMK T02100140 MADISHF
LAF,2021-10-13 16:40,KLAF 131640Z AUTO 15007KT 10SM CLR 21/14 A2996 RMK T02100140 MADISHF
LAF,2021-10-13 16:45,KLAF 131645Z AUTO 15009KT 10SM CLR 22/14 A2995 RMK T02200140 MADISHF
LAF,2021-10-13 16:50,KLAF 131650Z AUTO 15007KT 10SM CLR 22/14 A2995 RMK T02200140 MADISHF
LAF,2021-10-13 16:54,KLAF 131654Z 16010G17KT 10SM CLR 22/14 A2996 RMK AO2 SLP143 T02170139
LAF,2021-10-13 16:55,KLAF 131655Z AUTO 16011G17KT 10SM CLR 22/14 A2995 RMK T02200140 MADISHF
LAF,2021-10-13 17:00,KLAF 131700Z AUTO 16008KT 10SM CLR 22/14 A2995 RMK T02200140 MADISHF
LAF,2021-10-13 17:05,KLAF 131705Z AUTO 15005KT 10SM CLR 22/14 A2995 RMK T02200140 VRB06G17KT  MADISHF
LAF,2021-10-13 17:10,KLAF 131710Z AUTO 18007KT 10SM CLR 22/14 A2995 RMK T02200140 MADISHF
LAF,2021-10-13 17:15,KLAF 131715Z AUTO 16009G15KT 10SM CLR 22/14 A2995 RMK T02200140 MADISHF
LAF,2021-10-13 17:20,KLAF 131720Z AUTO 17009KT 10SM CLR 22/14 A2995 RMK T02200140 MADISHF
LAF,2021-10-13 17:25,KLAF 131725Z AUTO 16007KT 10SM CLR 22/14 A2995 RMK T02200140 MADISHF
LAF,2021-10-13 17:30,KLAF 131730Z AUTO 18005KT 10SM CLR 22/14 A2995 RMK T02200140 MADISHF
LAF,2021-10-13 17:35,KLAF 131735Z AUTO 16007KT 10SM CLR 22/14 A2995 RMK T02200140 MADISHF
LAF,2021-10-13 17:40,KLAF 131740Z AUTO 17010G15KT 10SM CLR 22/14 A2995 RMK T02200140 MADISHF
LAF,2021-10-13 17:45,KLAF 131745Z AUTO 17007KT 10SM CLR 22/14 A2995 RMK T02200140 MADISHF
LAF,2021-10-13 17:50,KLAF 131750Z AUTO 17005KT 10SM CLR 22/14 A2995 RMK T02200140 VRB06KT  MADISHF
LAF,2021-10-13 17:54,KLAF 131754Z 18005KT 10SM CLR 22/15 A2996 RMK AO2 SLP141 T02220150 10222 20106 56012
LAF,2021-10-13 17:55,KLAF 131755Z AUTO 19005KT 10SM CLR 23/15 A2995 RMK T02300150 VRB06KT  MADISHF
LAF,2021-10-13 18:00,KLAF 131800Z AUTO 19009G14KT 10SM CLR 23/14 A2994 RMK T02300140 MADISHF
LAF,2021-10-13 18:05,KLAF 131805Z AUTO 17008KT 10SM CLR 23/14 A2994 RMK T02300140 WND 14V21  MADISHF
LAF,2021-10-13 18:10,KLAF 131810Z AUTO 15007KT 10SM CLR 23/15 A2994 RMK T02300150 MADISHF
LAF,2021-10-13 18:15,KLAF 131815Z AUTO 16007KT 10SM CLR 23/15 A2994 RMK T02300150 WND 14V20  MADISHF
LAF,2021-10-13 18:20,KLAF 131820Z AUTO 17005KT 10SM CLR 23/14 A2993 RMK T02300140 MADISHF
LAF,2021-10-13 18:25,KLAF 131825Z AUTO 17008KT 10SM FEW079 23/15 A2993 RMK T02300150 MADISHF
LAF,2021-10-13 18:30,KLAF 131830Z AUTO 17009KT 10SM SCT079 23/14 A2993 RMK T02300140 MADISHF
LAF,2021-10-13 18:35,KLAF 131835Z AUTO 17005KT 10SM BKN079 23/14 A2993 RMK T02300140 MADISHF
LAF,2021-10-13 18:40,KLAF 131840Z AUTO 17007KT 10SM BKN079 23/14 A2993 RMK T02300140 MADISHF
LAF,2021-10-13 18:45,KLAF 131845Z AUTO 17011KT 10SM BKN075 23/14 A2993 RMK T02300140 MADISHF
LAF,2021-10-13 18:50,KLAF 131850Z AUTO 17005KT 10SM FEW055 OVC075 23/14 A2993 RMK T02300140 MADISHF
LAF,2021-10-13 18:54,KLAF 131854Z 17006KT 10SM SCT050 OVC075 23/14 A2993 RMK AO2 SLP133 T02280144
LAF,2021-10-13 18:55,KLAF 131855Z AUTO 17005KT 10SM SCT050 OVC075 23/14 A2993 RMK T02300140 MADISHF
LAF,2021-10-13 19:00,KLAF 131900Z AUTO 15005KT 10SM FEW036 SCT050 OVC070 22/14 A2993 RMK T02200140 MADISHF
LAF,2021-10-13 19:05,KLAF 131905Z AUTO 14004KT 10SM FEW033 BKN055 OVC075 22/15 A2993 RMK T02200150 MADISHF
LAF,2021-10-13 19:10,KLAF 131910Z AUTO 14005KT 10SM SCT036 BKN046 OVC070 23/15 A2993 RMK T02300150 MADISHF
LAF,2021-10-13 19:15,KLAF 131915Z AUTO 15002KT 10SM SCT036 BKN047 OVC055 22/15 A2993 RMK T02200150 MADISHF
LAF,2021-10-13 19:20,KLAF 131920Z AUTO 15004KT 10SM -RA BKN033 OVC047 22/16 A2993 RMK T02200160 MADISHF
LAF,2021-10-13 19:25,KLAF 131925Z AUTO /////KT 10SM -RA BKN033 OVC047 22/16 A2993 RMK T02200160 MADISHF
LAF,2021-10-13 19:30,KLAF 131930Z AUTO 18002KT 10SM BKN033 OVC045 22/16 A2993 RMK T02200160 VRB03KT  MADISHF
LAF,2021-10-13 19:35,KLAF 131935Z AUTO 00000KT 10SM OVC033 22/16 A2993 RMK T02200160  LTG DSNT W! MADISHF
LAF,2021-10-13 19:40,KLAF 131940Z AUTO 00000KT 10SM OVC033 22/16 A2993 RMK T02200160  LTG DSNT W! MADISHF
LAF,2021-10-13 19:45,KLAF 131945Z AUTO 00000KT 10SM OVC033 22/16 A2993 RMK T02200160  LTG DSNT NW! MADISHF
LAF,2021-10-13 19:50,KLAF 131950Z AUTO 19002KT 10SM OVC033 22/16 A2994 RMK T02200160 VRB03KT  MADISHF
LAF,2021-10-13 19:54,KLAF 131954Z VRB04KT 10SM OVC033 22/16 A2994 RMK AO2 LTG DSNT W AND NW RAB17E27 SLP136 P0000 T02220161
LAF,2021-10-13 19:55,KLAF 131955Z AUTO 15002KT 10SM OVC033 22/16 A2994 RMK T02200160  LTG DSNT W AND NW! MADISHF
LAF,2021-10-13 20:00,KLAF 132000Z AUTO 18004KT 10SM OVC033 22/16 A2994 RMK T02200160  LTG DSNT W! MADISHF
LAF,2021-10-13 20:05,KLAF 132005Z AUTO 19004KT 10SM -RA OVC033 22/16 A2994 RMK T02200160  LTG DSNT W! MADISHF
LAF,2021-10-13 20:10,KLAF 132010Z AUTO 00000KT 10SM -RA OVC032 22/16 A2994 RMK T02200160  LTG DSNT W! MADISHF
LAF,2021-10-13 20:15,KLAF 132015Z AUTO 00000KT 10SM -RA OVC032 22/16 A2994 RMK T02200160 MADISHF
LAF,2021-10-13 20:20,KLAF 132020Z AUTO 27002KT 3SM RA OVC032 22/17 A2994 RMK P0000 T02200170 MADISHF
LAF,2021-10-13 20:25,KLAF 132025Z 26003KT 1 3/4SM RA OVC030 21/17 A2995 RMK AO2 VIS 1V4 RAB04 P0005 T02060172
LAF,2021-10-13 20:25,KLAF 132025Z AUTO 26002KT 2SM RA OVC030 21/17 A2995 RMK P0005 T02100170 MADISHF
LAF,2021-10-13 20:30,KLAF 132030Z AUTO 00000KT 2SM RA OVC030 20/17 A2995 RMK P0005 T02000170 MADISHF
LAF,2021-10-13 20:35,KLAF 132035Z 23004KT 3SM -RA OVC030 21/17 A2994 RMK AO2 RAB04 P0006 T02060172
LAF,2021-10-13 20:35,KLAF 132035Z AUTO 23004KT 3SM -RA OVC030 21/17 A2994 RMK P0005 T02100170 MADISHF
LAF,2021-10-13 20:40,KLAF 132040Z AUTO 00000KT 10SM OVC030 21/18 A2995 RMK P0005 T02100180 MADISHF
LAF,2021-10-13 20:45,KLAF 132045Z AUTO 00000KT 10SM OVC029 21/18 A2994 RMK P0005 T02100180 MADISHF
LAF,2021-10-13 20:50,KLAF 132050Z AUTO 00000KT 10SM OVC029 21/18 A2994 RMK P0005 T02100180 MADISHF
LAF,2021-10-13 20:54,KLAF 132054Z 00000KT 10SM OVC029 21/18 A2994 RMK AO2 RAB04E39 SLP138 P0006 60006 T02110183 55004
LAF,2021-10-13 20:55,KLAF 132055Z AUTO 00000KT 10SM OVC029 21/18 A2994 RMK T02100180 MADISHF
LAF,2021-10-13 21:00,KLAF 132100Z AUTO 16002KT 10SM OVC029 21/18 A2995 RMK T02100180 MADISHF
LAF,2021-10-13 21:05,KLAF 132105Z AUTO 00000KT 10SM BKN029 21/19 A2995 RMK T02100190 MADISHF
LAF,2021-10-13 21:10,KLAF 132110Z AUTO 00000KT 10SM BKN029 22/19 A2995 RMK T02200190 MADISHF
LAF,2021-10-13 21:15,KLAF 132115Z AUTO 00000KT 10SM BKN030 BKN049 BKN060 22/18 A2995 RMK T02200180 MADISHF
LAF,2021-10-13 21:20,KLAF 132120Z AUTO 16002KT 10SM SCT030 BKN036 OVC060 22/18 A2995 RMK T02200180 MADISHF
LAF,2021-10-13 21:20,KLAF 132120Z 16003KT 10SM SCT030 BKN036 OVC060 22/18 A2995 RMK AO2 T02170183
LAF,2021-10-13 21:25,KLAF 132125Z AUTO 18004KT 10SM SCT030 BKN036 OVC060 22/18 A2995 RMK T02200180 MADISHF
LAF,2021-10-13 21:30,KLAF 132130Z AUTO 18004KT 10SM -RA BKN030 BKN046 BKN060 21/18 A2995 RMK T02100180 MADISHF
LAF,2021-10-13 21:35,KLAF 132135Z AUTO 17002KT 10SM -RA SCT030 SCT036 BKN048 21/18 A2995 RMK T02100180 MADISHF
LAF,2021-10-13 21:40,KLAF 132140Z AUTO 16002KT 10SM -RA FEW030 SCT048 BKN060 21/18 A2994 RMK P0001 T02100180 VRB03KT  MADISHF
LAF,2021-10-13 21:45,KLAF 132145Z AUTO 14005KT 10SM -RA FEW031 SCT060 BKN120 21/18 A2994 RMK P0001 T02100180 MADISHF
LAF,2021-10-13 21:50,KLAF 132150Z AUTO 14005KT 10SM -RA FEW031 SCT060 BKN120 21/18 A2993 RMK P0001 T02100180 MADISHF
LAF,2021-10-13 21:54,KLAF 132154Z 12006KT 8SM -RA FEW031 SCT095 BKN120 21/18 A2992 RMK AO2 RAB30 PRESFR SLP131 P0002 T02060178
LAF,2021-10-13 21:55,KLAF 132155Z AUTO 13005KT 7SM -RA FEW031 SCT095 BKN120 21/18 A2992 RMK T02100180 MADISHF
LAF,2021-10-13 22:00,KLAF 132200Z AUTO 14005KT 6SM -RA FEW095 BKN110 21/18 A2992 RMK P0000 T02100180 MADISHF
LAF,2021-10-13 22:05,KLAF 132205Z AUTO 15004KT 9SM -RA BKN110 21/18 A2993 RMK P0000 T02100180 MADISHF
LAF,2021-10-13 22:10,KLAF 132210Z AUTO 15002KT 10SM FEW095 BKN120 21/18 A2993 RMK P0000 T02100180 MADISHF
LAF,2021-10-13 22:15,KLAF 132215Z AUTO 13004KT 10SM FEW090 BKN120 21/18 A2992 RMK P0000 T02100180 MADISHF
LAF,2021-10-13 22:20,KLAF 132220Z AUTO 13002KT 10SM FEW090 BKN120 21/18 A2992 RMK P0000 T02100180 MADISHF
LAF,2021-10-13 22:25,KLAF 132225Z AUTO 11002KT 10SM SCT120 21/18 A2992 RMK P0000 T02100180 MADISHF
LAF,2021-10-13 22:30,KLAF 132230Z AUTO 11002KT 10SM SCT120 21/18 A2990 RMK P0000 T02100180 MADISHF
LAF,2021-10-13 22:35,KLAF 132235Z AUTO 10005KT 10SM FEW120 20/18 A2989 RMK P0000 T02000180 MADISHF
LAF,2021-10-13 22:40,KLAF 132240Z AUTO 11005KT 10SM FEW120 20/18 A2989 RMK P0000 T02000180 MADISHF
LAF,2021-10-13 22:45,KLAF 132245Z AUTO 11005KT 10SM CLR 20/18 A2988 RMK P0000 T02000180 MADISHF
LAF,2021-10-13 22:50,KLAF 132250Z AUTO 11004KT 10SM CLR 20/18 A2988 RMK P0000 T02000180 MADISHF
LAF,2021-10-13 22:54,KLAF 132254Z 11004KT 10SM CLR 20/18 A2989 RMK AO2 RAE09 SLP119 P0001 T02000183
LAF,2021-10-13 22:55,KLAF 132255Z AUTO 11004KT 10SM CLR 20/18 A2988 RMK T02000180 MADISHF
LAF,2021-10-13 23:00,KLAF 132300Z AUTO 11004KT 10SM CLR 20/18 A2988 RMK T02000180 MADISHF
LAF,2021-10-13 23:05,KLAF 132305Z AUTO 11005KT 10SM CLR 20/18 A2988 RMK T02000180 MADISHF
LAF,2021-10-13 23:10,KLAF 132310Z AUTO 13005KT 10SM CLR 20/18 A2988 RMK T02000180 MADISHF
LAF,2021-10-13 23:15,KLAF 132315Z AUTO 13004KT 10SM CLR 20/18 A2988 RMK T02000180 MADISHF
LAF,2021-10-13 23:20,KLAF 132320Z AUTO 13004KT 10SM CLR 20/18 A2988 RMK T02000180 MADISHF
LAF,2021-10-13 23:25,KLAF 132325Z AUTO 12005KT 10SM CLR 20/18 A2987 RMK T02000180 MADISHF
LAF,2021-10-13 23:30,KLAF 132330Z AUTO 14004KT 10SM CLR 20/18 A2987 RMK T02000180 MADISHF
LAF,2021-10-13 23:35,KLAF 132335Z AUTO 14005KT 10SM CLR 21/18 A2987 RMK T02100180 MADISHF
LAF,2021-10-13 23:40,KLAF 132340Z AUTO 13005KT 10SM CLR 21/18 A2987 RMK T02100180 MADISHF
LAF,2021-10-13 23:45,KLAF 132345Z AUTO 14005KT 10SM CLR 21/18 A2987 RMK T02100180 MADISHF
LAF,2021-10-13 23:50,KLAF 132350Z AUTO 15004KT 10SM CLR 21/18 A2987 RMK T02100180 VRB04KT  MADISHF
LAF,2021-10-13 23:54,KLAF 132354Z 15004KT 10SM CLR 21/18 A2988 RMK AO2 SLP115 60009 T02060183 10228 20200 56022
LAF,2021-10-13 23:55,KLAF 132355Z AUTO 15004KT 10SM CLR 21/18 A2987 RMK T02100180 VRB04KT  MADISHF
LAF,2021-10-14 00:00,KLAF 140000Z AUTO 16004KT 10SM CLR 21/18 A2987 RMK T02100180 MADISHF
LAF,2021-10-14 00:05,KLAF 140005Z AUTO 16004KT 10SM CLR 21/18 A2987 RMK T02100180 VRB04KT  MADISHF
LAF,2021-10-14 00:10,KLAF 140010Z AUTO 16004KT 10SM CLR 21/18 A2987 RMK T02100180 VRB04KT  MADISHF
LAF,2021-10-14 00:15,KLAF 140015Z AUTO 16004KT 10SM CLR 21/18 A2987 RMK T02100180 MADISHF
LAF,2021-10-14 00:20,KLAF 140020Z AUTO 15005KT 10SM CLR 21/18 A2987 RMK T02100180 MADISHF
LAF,2021-10-14 00:25,KLAF 140025Z AUTO 16005KT 10SM CLR 21/18 A2987 RMK T02100180 MADISHF
LAF,2021-10-14 00:30,KLAF 140030Z AUTO 14008KT 10SM CLR 21/18 A2987 RMK T02100180 MADISHF
LAF,2021-10-14 00:35,KLAF 140035Z AUTO 16005KT 10SM CLR 21/18 A2987 RMK T02100180 MADISHF
LAF,2021-10-14 00:40,KLAF 140040Z AUTO 16005KT 10SM CLR 21/18 A2987 RMK T02100180 MADISHF
LAF,2021-10-14 00:45,KLAF 140045Z AUTO 16007KT 10SM CLR 21/18 A2987 RMK T02100180 MADISHF
LAF,2021-10-14 00:50,KLAF 140050Z AUTO 15005KT 10SM CLR 21/18 A2987 RMK T02100180 VRB05KT  MADISHF
LAF,2021-10-14 00:54,KLAF 140054Z 15007KT 10SM CLR 21/18 A2987 RMK AO2 SLP114 T02060183
LAF,2021-10-14 00:55,KLAF 140055Z AUTO 15007KT 10SM CLR 21/18 A2987 RMK T02100180 MADISHF
LAF,2021-10-14 01:00,KLAF 140100Z AUTO 16005KT 10SM CLR 21/18 A2987 RMK T02100180 MADISHF
LAF,2021-10-14 01:05,KLAF 140105Z AUTO 16008KT 10SM CLR 21/18 A2987 RMK T02100180 MADISHF
LAF,2021-10-14 01:10,KLAF 140110Z AUTO 16007KT 10SM CLR 21/18 A2987 RMK T02100180 MADISHF
LAF,2021-10-14 01:15,KLAF 140115Z AUTO 16007KT 10SM CLR 21/18 A2987 RMK T02100180 MADISHF
LAF,2021-10-14 01:20,KLAF 140120Z AUTO 17005KT 10SM CLR 21/18 A2987 RMK T02100180 MADISHF
LAF,2021-10-14 01:25,KLAF 140125Z AUTO 17005KT 10SM CLR 21/18 A2987 RMK T02100180 MADISHF
LAF,2021-10-14 01:30,KLAF 140130Z AUTO 15008KT 10SM CLR 21/18 A2987 RMK T02100180 MADISHF
LAF,2021-10-14 01:35,KLAF 140135Z AUTO 16004KT 10SM CLR 21/18 A2987 RMK T02100180 VRB04KT  MADISHF
LAF,2021-10-14 01:40,KLAF 140140Z AUTO 17005KT 10SM CLR 21/18 A2987 RMK T02100180 MADISHF
LAF,2021-10-14 01:45,KLAF 140145Z AUTO 17007KT 10SM CLR 21/18 A2987 RMK T02100180 MADISHF
LAF,2021-10-14 01:50,KLAF 140150Z AUTO 17007KT 10SM CLR 21/18 A2988 RMK T02100180 MADISHF
LAF,2021-10-14 01:54,KLAF 140154Z AUTO 18005KT 10SM CLR 21/18 A2989 RMK AO2 SLP118 T02060183
LAF,2021-10-14 01:55,KLAF 140155Z AUTO 17005KT 10SM CLR 21/18 A2988 RMK T02100180 MADISHF
LAF,2021-10-14 02:00,KLAF 140200Z AUTO 17005KT 10SM CLR 21/18 A2988 RMK T02100180 MADISHF
LAF,2021-10-14 02:05,KLAF 140205Z AUTO 17007KT 10SM CLR 21/18 A2987 RMK T02100180 MADISHF
LAF,2021-10-14 02:10,KLAF 140210Z AUTO 17007KT 10SM CLR 21/19 A2987 RMK T02100190 MADISHF
LAF,2021-10-14 02:15,KLAF 140215Z AUTO 16007KT 10SM CLR 21/19 A2987 RMK T02100190 MADISHF
LAF,2021-10-14 02:20,KLAF 140220Z AUTO 17005KT 10SM CLR 21/19 A2987 RMK T02100190 MADISHF
LAF,2021-10-14 02:25,KLAF 140225Z AUTO 18005KT 10SM CLR 21/19 A2988 RMK T02100190 VRB05KT  MADISHF
LAF,2021-10-14 02:30,KLAF 140230Z AUTO 18007KT 10SM CLR 21/19 A2988 RMK T02100190 WND 14V21  MADISHF
LAF,2021-10-14 02:35,KLAF 140235Z AUTO 18005KT 10SM CLR 21/19 A2989 RMK T02100190 MADISHF
LAF,2021-10-14 02:40,KLAF 140240Z AUTO 17005KT 10SM CLR 21/19 A2989 RMK T02100190 MADISHF
LAF,2021-10-14 02:45,KLAF 140245Z AUTO 17005KT 10SM CLR 21/19 A2989 RMK T02100190 MADISHF
LAF,2021-10-14 02:50,KLAF 140250Z AUTO 17005KT 10SM CLR 21/19 A2989 RMK T02100190 MADISHF
LAF,2021-10-14 02:54,KLAF 140254Z AUTO 17006KT 10SM CLR 21/19 A2990 RMK AO2 SLP121 T02060189 53007
LAF,2021-10-14 02:55,KLAF 140255Z AUTO 17004KT 10SM CLR 21/19 A2989 RMK T02100190 MADISHF
LAF,2021-10-14 03:00,KLAF 140300Z AUTO 17005KT 10SM CLR 21/19 A2989 RMK T02100190 MADISHF
LAF,2021-10-14 03:05,KLAF 140305Z AUTO 17005KT 10SM CLR 21/19 A2989 RMK T02100190 MADISHF
LAF,2021-10-14 03:10,KLAF 140310Z AUTO 17004KT 10SM CLR 21/19 A2989 RMK T02100190 MADISHF
LAF,2021-10-14 03:15,KLAF 140315Z AUTO 20005KT 10SM CLR 21/19 A2989 RMK T02100190 MADISHF
LAF,2021-10-14 03:20,KLAF 140320Z AUTO 19005KT 10SM CLR 21/19 A2989 RMK T02100190 MADISHF
LAF,2021-10-14 03:25,KLAF 140325Z AUTO 22005KT 10SM FEW013 SCT022 21/19 A2989 RMK T02100190 MADISHF
LAF,2021-10-14 03:30,KLAF 140330Z AUTO 18005KT 10SM FEW013 SCT022 21/19 A2990 RMK T02100190 MADISHF
LAF,2021-10-14 03:35,KLAF 140335Z AUTO 19005KT 10SM SCT016 SCT022 21/19 A2990 RMK T02100190 MADISHF
LAF,2021-10-14 03:40,KLAF 140340Z AUTO 18005KT 10SM SCT016 SCT022 21/19 A2989 RMK T02100190 MADISHF
LAF,2021-10-14 03:45,KLAF 140345Z AUTO 19005KT 10SM FEW016 SCT022 21/19 A2989 RMK T02100190 MADISHF
LAF,2021-10-14 03:50,KLAF 140350Z AUTO 19005KT 10SM FEW016 21/19 A2989 RMK T02100190 MADISHF
LAF,2021-10-14 03:54,KLAF 140354Z AUTO 18005KT 10SM FEW016 21/19 A2990 RMK AO2 SLP122 T02060194
LAF,2021-10-14 03:55,KLAF 140355Z AUTO 18004KT 10SM FEW016 21/19 A2989 RMK T02100190 MADISHF
LAF,2021-10-14 04:00,KLAF 140400Z AUTO 18004KT 10SM FEW016 21/19 A2989 RMK T02100190 MADISHF
LAF,2021-10-14 04:05,KLAF 140405Z AUTO 18005KT 10SM FEW016 21/19 A2989 RMK T02100190 MADISHF
LAF,2021-10-14 04:10,KLAF 140410Z AUTO 19004KT 10SM SCT016 21/19 A2989 RMK T02100190 MADISHF
LAF,2021-10-14 04:15,KLAF 140415Z AUTO 19005KT 10SM SCT015 21/19 A2990 RMK T02100190 MADISHF
LAF,2021-10-14 04:20,KLAF 140420Z AUTO 18005KT 10SM SCT015 21/19 A2990 RMK T02100190 MADISHF
LAF,2021-10-14 04:25,KLAF 140425Z AUTO 18004KT 10SM SCT015 21/19 A2990 RMK T02100190 MADISHF
LAF,2021-10-14 04:30,KLAF 140430Z AUTO 18002KT 10SM BKN015 21/19 A2989 RMK T02100190 MADISHF
LAF,2021-10-14 04:35,KLAF 140435Z AUTO 19002KT 10SM BKN015 21/19 A2989 RMK T02100190 MADISHF
LAF,2021-10-14 04:36,KLAF 140436Z AUTO 19003KT 10SM BKN015 21/19 A2990 RMK AO2 T02060194
LAF,2021-10-14 04:40,KLAF 140440Z AUTO 19002KT 10SM BKN015 21/19 A2989 RMK T02100190 VRB03KT  MADISHF
LAF,2021-10-14 04:45,KLAF 140445Z AUTO 18002KT 10SM BKN014 21/19 A2989 RMK T02100190 VRB03KT  MADISHF
LAF,2021-10-14 04:50,KLAF 140450Z AUTO 18003KT 10SM BKN014 21/19 A2990 RMK AO2
LAF,2021-10-14 04:50,KLAF 140450Z AUTO 18002KT 10SM BKN014 21/19 A2989 RMK T02100190 MADISHF
LAF,2021-10-14 04:54,KLAF 140454Z AUTO 18003KT 10SM BKN014 21/19 A2990 RMK AO2 SLP123 T02060194 402330106
LAF,2021-10-14 04:55,KLAF 140455Z AUTO 19002KT 10SM SCT014 21/19 A2989 RMK T02100190 MADISHF
LAF,2021-10-14 05:00,KLAF 140500Z AUTO 18002KT 10SM SCT014 21/19 A2989 RMK T02100190 MADISHF
LAF,2021-10-14 05:01,KLAF 140501Z AUTO 18003KT 10SM SCT014 21/19 A2990 RMK AO2 T02060194
LAF,2021-10-14 05:05,KLAF 140505Z AUTO 00000KT 10SM FEW014 21/19 A2989 RMK T02100190 MADISHF
LAF,2021-10-14 05:10,KLAF 140510Z AUTO 00000KT 10SM FEW014 21/19 A2989 RMK T02100190 MADISHF
LAF,2021-10-14 05:15,KLAF 140515Z AUTO 00000KT 10SM CLR 21/19 A2989 RMK T02100190 MADISHF
LAF,2021-10-14 05:20,KLAF 140520Z AUTO 18002KT 10SM CLR 21/19 A2989 RMK T02100190 MADISHF
LAF,2021-10-14 05:25,KLAF 140525Z AUTO 00000KT 10SM CLR 21/19 A2989 RMK T02100190 MADISHF
LAF,2021-10-14 05:30,KLAF 140530Z AUTO 18002KT 10SM CLR 21/19 A2989 RMK T02100190 MADISHF
LAF,2021-10-14 05:35,KLAF 140535Z AUTO 18002KT 10SM CLR 21/19 A2989 RMK T02100190 MADISHF
LAF,2021-10-14 05:40,KLAF 140540Z AUTO 17002KT 10SM -RA FEW095 21/20 A2988 RMK T02100200 VRB03KT  MADISHF
LAF,2021-10-14 05:45,KLAF 140545Z AUTO 18002KT 10SM -RA FEW095 21/20 A2988 RMK T02100200 MADISHF
LAF,2021-10-14 05:50,KLAF 140550Z AUTO 18004KT 10SM CLR 21/20 A2988 RMK T02100200 MADISHF
LAF,2021-10-14 05:54,KLAF 140554Z AUTO 18003KT 10SM CLR 21/20 A2989 RMK AO2 RAB39E48 SLP119 P0000 60000 T02060200 10206 20206 58002
LAF,2021-10-14 05:55,KLAF 140555Z AUTO 18002KT 10SM CLR 21/20 A2988 RMK T02100200 MADISHF
LAF,2021-10-14 06:00,KLAF 140600Z AUTO 00000KT 10SM CLR 21/20 A2989 RMK T02100200 MADISHF
LAF,2021-10-14 06:05,KLAF 140605Z AUTO 17004KT 10SM CLR 21/20 A2989 RMK T02100200 MADISHF
LAF,2021-10-14 06:10,KLAF 140610Z AUTO 17005KT 10SM CLR 21/20 A2989 RMK T02100200 MADISHF
LAF,2021-10-14 06:15,KLAF 140615Z AUTO 17004KT 10SM CLR 21/20 A2989 RMK T02100200 MADISHF
LAF,2021-10-14 06:20,KLAF 140620Z AUTO 19004KT 10SM CLR 21/20 A2989 RMK T02100200 MADISHF
LAF,2021-10-14 06:25,KLAF 140625Z AUTO 17005KT 10SM CLR 21/20 A2989 RMK T02100200 MADISHF
LAF,2021-10-14 06:30,KLAF 140630Z AUTO 18004KT 10SM CLR 21/20 A2989 RMK T02100200 MADISHF
LAF,2021-10-14 06:35,KLAF 140635Z AUTO 18002KT 10SM CLR 21/20 A2989 RMK T02100200 VRB03KT  MADISHF
LAF,2021-10-14 06:40,KLAF 140640Z AUTO 17004KT 10SM CLR 21/20 A2989 RMK T02100200 MADISHF
LAF,2021-10-14 06:45,KLAF 140645Z AUTO 17002KT 10SM CLR 21/20 A2989 RMK T02100200 MADISHF
LAF,2021-10-14 06:50,KLAF 140650Z AUTO 17004KT 10SM CLR 21/20 A2989 RMK T02100200 MADISHF
LAF,2021-10-14 06:54,KLAF 140654Z AUTO 17003KT 10SM CLR 21/20 A2990 RMK AO2 SLP120 T02060200
LAF,2021-10-14 06:55,KLAF 140655Z AUTO 17002KT 10SM CLR 21/20 A2989 RMK T02100200 VRB03KT  MADISHF
LAF,2021-10-14 07:00,KLAF 140700Z AUTO 17004KT 10SM CLR 21/20 A2989 RMK T02100200 MADISHF
LAF,2021-10-14 07:05,KLAF 140705Z AUTO 18004KT 10SM CLR 21/20 A2989 RMK T02100200 MADISHF
LAF,2021-10-14 07:10,KLAF 140710Z AUTO 16002KT 10SM SCT039 21/20 A2989 RMK T02100200 VRB03KT  MADISHF
LAF,2021-10-14 07:15,KLAF 140715Z AUTO 17004KT 10SM SCT039 21/20 A2989 RMK T02100200 VRB04KT  MADISHF
LAF,2021-10-14 07:20,KLAF 140720Z AUTO 18002KT 10SM BKN039 21/20 A2989 RMK T02100200 MADISHF
LAF,2021-10-14 07:25,KLAF 140725Z AUTO 19002KT 10SM BKN039 21/20 A2989 RMK T02100200 VRB03KT  MADISHF
LAF,2021-10-14 07:30,KLAF 140730Z AUTO 17002KT 9SM -RA BKN039 BKN050 21/20 A2989 RMK T02100200 VRB03KT  MADISHF
LAF,2021-10-14 07:35,KLAF 140735Z AUTO 19004KT 10SM -RA SCT039 BKN050 21/20 A2988 RMK T02100200 VRB04KT  MADISHF
LAF,2021-10-14 07:40,KLAF 140740Z AUTO 17004KT 10SM SCT039 21/20 A2988 RMK T02100200 MADISHF
LAF,2021-10-14 07:45,KLAF 140745Z AUTO 19004KT 10SM SCT039 21/20 A2988 RMK T02100200 VRB04KT  MADISHF
LAF,2021-10-14 07:50,KLAF 140750Z AUTO 20004KT 10SM FEW042 21/20 A2988 RMK T02100200 MADISHF
LAF,2021-10-14 07:54,KLAF 140754Z AUTO 19005KT 10SM FEW042 21/20 A2989 RMK AO2 RAB30E39 SLP117 P0000 T02110200
LAF,2021-10-14 07:55,KLAF 140755Z AUTO 19005KT 10SM FEW042 21/20 A2988 RMK T02100200 MADISHF
LAF,2021-10-14 08:00,KLAF 140800Z AUTO 18005KT 10SM FEW042 21/20 A2988 RMK T02100200 MADISHF
LAF,2021-10-14 08:05,KLAF 140805Z AUTO 18005KT 10SM CLR 21/20 A2988 RMK T02100200 VRB05KT  MADISHF
LAF,2021-10-14 08:10,KLAF 140810Z AUTO 18005KT 10SM CLR 21/20 A2987 RMK T02100200 MADISHF
LAF,2021-10-14 08:15,KLAF 140815Z AUTO 19005KT 10SM CLR 21/20 A2987 RMK T02100200 MADISHF
LAF,2021-10-14 08:20,KLAF 140820Z AUTO 19007KT 10SM CLR 21/20 A2987 RMK T02100200 MADISHF
LAF,2021-10-14 08:25,KLAF 140825Z AUTO 19005KT 10SM CLR 21/20 A2987 RMK T02100200 MADISHF
LAF,2021-10-14 08:30,KLAF 140830Z AUTO 19004KT 10SM CLR 21/20 A2988 RMK T02100200 MADISHF
LAF,2021-10-14 08:35,KLAF 140835Z AUTO 18005KT 10SM CLR 21/20 A2988 RMK T02100200 MADISHF
LAF,2021-10-14 08:40,KLAF 140840Z AUTO 18007KT 10SM CLR 21/20 A2988 RMK T02100200 MADISHF
LAF,2021-10-14 08:45,KLAF 140845Z AUTO 19005KT 10SM CLR 22/20 A2988 RMK T02200200 MADISHF
LAF,2021-10-14 08:50,KLAF 140850Z AUTO 18005KT 10SM FEW060 22/20 A2988 RMK T02200200 VRB05KT  MADISHF
LAF,2021-10-14 08:54,KLAF 140854Z AUTO 21005KT 10SM SCT060 21/20 A2989 RMK AO2 SLP117 60000 T02110200 58003
LAF,2021-10-14 08:55,KLAF 140855Z AUTO 20005KT 10SM SCT060 22/20 A2988 RMK T02200200 MADISHF
LAF,2021-10-14 09:00,KLAF 140900Z AUTO 20007KT 10SM BKN060 22/20 A2988 RMK T02200200 MADISHF
LAF,2021-10-14 09:05,KLAF 140905Z AUTO 19005KT 10SM BKN065 22/20 A2988 RMK T02200200 MADISHF
LAF,2021-10-14 09:10,KLAF 140910Z AUTO 19005KT 10SM BKN065 22/20 A2988 RMK T02200200 MADISHF
LAF,2021-10-14 09:15,KLAF 140915Z AUTO 18007KT 10SM BKN065 22/20 A2988 RMK T02200200 MADISHF
LAF,2021-10-14 09:20,KLAF 140920Z AUTO 19005KT 10SM BKN065 21/20 A2988 RMK T02100200 VRB06KT  MADISHF
LAF,2021-10-14 09:25,KLAF 140925Z AUTO 19005KT 10SM BKN065 22/20 A2988 RMK T02200200 VRB06KT  MADISHF
LAF,2021-10-14 09:30,KLAF 140930Z AUTO 18004KT 10SM SCT065 21/20 A2988 RMK T02100200 MADISHF
LAF,2021-10-14 09:35,KLAF 140935Z AUTO 19005KT 10SM SCT070 21/20 A2988 RMK T02100200 MADISHF
LAF,2021-10-14 09:40,KLAF 140940Z AUTO 19007KT 10SM FEW070 21/20 A2988 RMK T02100200 MADISHF
LAF,2021-10-14 09:45,KLAF 140945Z AUTO 19007KT 10SM FEW065 21/20 A2989 RMK T02100200 MADISHF
LAF,2021-10-14 09:50,KLAF 140950Z AUTO 19005KT 10SM CLR 21/20 A2989 RMK T02100200 MADISHF
LAF,2021-10-14 09:54,KLAF 140954Z AUTO 19006KT 10SM CLR 21/20 A2990 RMK AO2 SLP121 T02110200
LAF,2021-10-14 09:55,KLAF 140955Z AUTO 19005KT 10SM CLR 21/20 A2989 RMK T02100200 MADISHF
LAF,2021-10-14 10:00,KLAF 141000Z AUTO 19007KT 10SM CLR 21/20 A2989 RMK T02100200 MADISHF
LAF,2021-10-14 10:05,KLAF 141005Z AUTO 20005KT 10SM FEW047 21/20 A2989 RMK T02100200 MADISHF
LAF,2021-10-14 10:10,KLAF 141010Z AUTO 18005KT 10SM SCT049 21/20 A2989 RMK T02100200 MADISHF
LAF,2021-10-14 10:15,KLAF 141015Z AUTO 19005KT 10SM SCT047 21/20 A2989 RMK T02100200 MADISHF
LAF,2021-10-14 10:20,KLAF 141020Z AUTO 19004KT 10SM BKN047 21/20 A2989 RMK T02100200 MADISHF
LAF,2021-10-14 10:25,KLAF 141025Z AUTO 19004KT 10SM BKN045 21/20 A2989 RMK T02100200 MADISHF
LAF,2021-10-14 10:30,KLAF 141030Z AUTO 19004KT 10SM BKN045 BKN060 21/20 A2989 RMK T02100200 MADISHF
LAF,2021-10-14 10:35,KLAF 141035Z AUTO 19005KT 10SM SCT043 SCT050 BKN060 21/19 A2989 RMK T02100190 MADISHF
LAF,2021-10-14 10:40,KLAF 141040Z AUTO 19005KT 10SM BKN041 BKN050 BKN060 21/20 A2989 RMK T02100200 MADISHF
LAF,2021-10-14 10:45,KLAF 141045Z AUTO 20005KT 10SM SCT037 BKN044 BKN060 21/20 A2990 RMK T02100200 MADISHF
LAF,2021-10-14 10:50,KLAF 141050Z AUTO 20005KT 10SM FEW029 BKN037 BKN060 21/20 A2990 RMK T02100200 MADISHF
LAF,2021-10-14 10:54,KLAF 141054Z 20004KT 10SM SCT029 BKN037 BKN060 21/20 A2991 RMK AO2 SLP123 T02110200
LAF,2021-10-14 10:55,KLAF 141055Z AUTO 21005KT 10SM SCT029 BKN037 OVC060 21/20 A2990 RMK T02100200 MADISHF
LAF,2021-10-14 11:00,KLAF 141100Z AUTO 19005KT 10SM BKN029 OVC037 21/20 A2990 RMK T02100200 MADISHF
LAF,2021-10-14 11:04,KLAF 141104Z 19007KT 10SM BKN029 OVC037 21/20 A2990 RMK AO2 T02110200
LAF,2021-10-14 11:05,KLAF 141105Z AUTO 19007KT 10SM BKN029 OVC037 21/19 A2989 RMK T02100190 MADISHF
LAF,2021-10-14 11:10,KLAF 141110Z AUTO 18007KT 10SM BKN027 OVC037 21/20 A2989 RMK T02100200 MADISHF
LAF,2021-10-14 11:15,KLAF 141115Z AUTO 18005KT 10SM BKN027 OVC037 21/20 A2989 RMK T02100200 MADISHF
LAF,2021-10-14 11:20,KLAF 141120Z AUTO 19004KT 10SM BKN027 BKN037 BKN075 21/19 A2989 RMK T02100190 MADISHF
LAF,2021-10-14 11:25,KLAF 141125Z AUTO 18005KT 10SM SCT027 BKN037 BKN075 21/19 A2989 RMK T02100190 VRB05KT  MADISHF
LAF,2021-10-14 11:30,KLAF 141130Z AUTO 19005KT 10SM SCT027 SCT037 BKN075 21/19 A2989 RMK T02100190 MADISHF
LAF,2021-10-14 11:30,KLAF 141130Z 19006KT 10SM SCT027 SCT037 BKN075 21/19 A2990 RMK AO2 T02110194
LAF,2021-10-14 11:35,KLAF 141135Z AUTO 19002KT 10SM SCT025 SCT037 BKN075 21/19 A2989 RMK T02100190 MADISHF
LAF,2021-10-14 11:40,KLAF 141140Z AUTO 18004KT 10SM FEW025 SCT075 21/19 A2989 RMK T02100190 MADISHF
LAF,2021-10-14 11:45,KLAF 141145Z AUTO 18004KT 10SM FEW025 SCT079 21/19 A2989 RMK T02100190 MADISHF
LAF,2021-10-14 11:50,KLAF 141150Z AUTO 20004KT 10SM FEW024 FEW079 21/19 A2989 RMK T02100190 MADISHF
LAF,2021-10-14 11:54,KLAF 141154Z 19004KT 10SM FEW024 21/19 A2990 RMK AO2 SLP121 60000 70009 T02060194 10217 20206 50004
LAF,2021-10-14 11:55,KLAF 141155Z AUTO 20004KT 10SM FEW024 FEW070 21/19 A2989 RMK T02100190 MADISHF
LAF,2021-10-14 12:00,KLAF 141200Z AUTO 20004KT 10SM FEW024 SCT070 21/19 A2990 RMK T02100190 MADISHF
LAF,2021-10-14 12:05,KLAF 141205Z AUTO 20002KT 10SM FEW039 BKN070 21/19 A2990 RMK T02100190 MADISHF
LAF,2021-10-14 12:10,KLAF 141210Z AUTO 21002KT 10SM SCT039 BKN070 21/19 A2990 RMK T02100190 MADISHF
LAF,2021-10-14 12:15,KLAF 141215Z AUTO 21004KT 10SM BKN041 BKN070 21/19 A2990 RMK T02100190 MADISHF
LAF,2021-10-14 12:20,KLAF 141220Z AUTO 20004KT 10SM BKN041 OVC070 21/19 A2990 RMK T02100190 MADISHF
LAF,2021-10-14 12:25,KLAF 141225Z AUTO 21002KT 10SM BKN041 OVC070 21/19 A2990 RMK T02100190 MADISHF
LAF,2021-10-14 12:30,KLAF 141230Z AUTO 20002KT 10SM OVC041 21/19 A2992 RMK T02100190 VRB03KT  MADISHF
LAF,2021-10-14 12:35,KLAF 141235Z AUTO 20004KT 10SM OVC041 21/19 A2992 RMK T02100190 VRB04KT  MADISHF
LAF,2021-10-14 12:40,KLAF 141240Z AUTO 20004KT 10SM OVC041 21/19 A2992 RMK T02100190 MADISHF
LAF,2021-10-14 12:45,KLAF 141245Z AUTO 20002KT 10SM OVC041 21/19 A2992 RMK T02100190 MADISHF
LAF,2021-10-14 12:50,KLAF 141250Z AUTO 22004KT 10SM OVC041 21/19 A2992 RMK T02100190 MADISHF
LAF,2021-10-14 12:54,KLAF 141254Z 21003KT 10SM OVC043 21/19 A2992 RMK AO2 SLP129 T02110194
LAF,2021-10-14 12:55,KLAF 141255Z AUTO 00000KT 10SM BKN043 OVC070 21/19 A2992 RMK T02100190 MADISHF
LAF,2021-10-14 13:00,KLAF 141300Z AUTO 21002KT 10SM BKN043 BKN070 21/19 A2992 RMK T02100190 VRB03KT  MADISHF
LAF,2021-10-14 13:05,KLAF 141305Z AUTO 20002KT 10SM BKN043 BKN065 21/19 A2992 RMK T02100190 MADISHF
LAF,2021-10-14 13:10,KLAF 141310Z AUTO 22004KT 10SM BKN043 BKN070 21/19 A2992 RMK T02100190 MADISHF
LAF,2021-10-14 13:15,KLAF 141315Z AUTO 22002KT 10SM BKN043 BKN070 21/20 A2992 RMK T02100200 MADISHF
LAF,2021-10-14 13:20,KLAF 141320Z AUTO 20004KT 10SM SCT043 BKN070 22/20 A2992 RMK T02200200 VRB04KT  MADISHF
LAF,2021-10-14 13:25,KLAF 141325Z AUTO 20004KT 10SM FEW043 SCT070 22/20 A2992 RMK T02200200 VRB04KT  MADISHF
LAF,2021-10-14 13:30,KLAF 141330Z AUTO 20005KT 10SM FEW042 22/20 A2992 RMK T02200200 MADISHF
LAF,2021-10-14 13:35,KLAF 141335Z AUTO 21004KT 10SM FEW042 22/20 A2992 RMK T02200200 MADISHF
LAF,2021-10-14 13:40,KLAF 141340Z AUTO 20005KT 10SM CLR 22/20 A2992 RMK T02200200 MADISHF
LAF,2021-10-14 13:45,KLAF 141345Z AUTO 22007KT 10SM CLR 22/20 A2993 RMK T02200200 MADISHF
LAF,2021-10-14 13:50,KLAF 141350Z AUTO 21007KT 10SM CLR 22/20 A2992 RMK T02200200 MADISHF
LAF,2021-10-14 13:54,KLAF 141354Z VRB05KT 10SM CLR 22/20 A2993 RMK AO2 SLP129 T02220200
LAF,2021-10-14 13:55,KLAF 141355Z AUTO 19005KT 10SM CLR 22/20 A2993 RMK T02200200 MADISHF
LAF,2021-10-14 14:00,KLAF 141400Z AUTO 21005KT 10SM CLR 22/20 A2993 RMK T02200200 MADISHF
LAF,2021-10-14 14:05,KLAF 141405Z AUTO 20005KT 10SM CLR 23/20 A2993 RMK T02300200 MADISHF
LAF,2021-10-14 14:10,KLAF 141410Z AUTO 21005KT 10SM FEW018 23/20 A2993 RMK T02300200 MADISHF
LAF,2021-10-14 14:15,KLAF 141415Z AUTO 22005KT 10SM FEW018 SCT027 23/20 A2993 RMK T02300200 MADISHF
LAF,2021-10-14 14:20,KLAF 141420Z AUTO 21005KT 10SM FEW018 SCT027 SCT031 23/20 A2994 RMK T02300200 MADISHF
LAF,2021-10-14 14:25,KLAF 141425Z AUTO 22009G16KT 10SM FEW018 BKN025 BKN031 23/20 A2993 RMK T02300200 MADISHF
LAF,2021-10-14 14:30,KLAF 141430Z AUTO 22005KT 10SM BKN025 23/20 A2993 RMK T02300200 MADISHF
LAF,2021-10-14 14:30,KLAF 141430Z VRB06G16KT 10SM BKN025 23/20 A2993 RMK AO2 T02280200
LAF,2021-10-14 14:35,KLAF 141435Z AUTO 21005KT 10SM BKN018 BKN025 23/20 A2993 RMK T02300200 VRB06KT  MADISHF
LAF,2021-10-14 14:40,KLAF 141440Z AUTO 21005KT 10SM BKN018 OVC025 23/20 A2993 RMK T02300200 MADISHF
LAF,2021-10-14 14:45,KLAF 141445Z AUTO 21004KT 10SM BKN018 OVC025 23/20 A2993 RMK T02300200 MADISHF
LAF,2021-10-14 14:50,KLAF 141450Z AUTO 21004KT 10SM BKN019 OVC025 23/20 A2992 RMK T02300200 MADISHF
LAF,2021-10-14 14:54,KLAF 141454Z 22007KT 10SM BKN019 OVC025 23/20 A2993 RMK AO2 SLP129 T02280200 51008
LAF,2021-10-14 14:55,KLAF 141455Z AUTO 21005KT 10SM BKN019 OVC025 23/20 A2993 RMK T02300200 MADISHF
LAF,2021-10-14 15:00,KLAF 141500Z AUTO 22005KT 10SM BKN019 OVC025 23/20 A2992 RMK T02300200 VRB06KT  MADISHF
LAF,2021-10-14 15:05,KLAF 141505Z AUTO 22009G14KT 10SM OVC023 23/20 A2992 RMK T02300200 MADISHF
LAF,2021-10-14 15:10,KLAF 141510Z AUTO 22005KT 10SM OVC023 23/19 A2993 RMK T02300190 MADISHF
LAF,2021-10-14 15:15,KLAF 141515Z AUTO 22005KT 10SM OVC023 23/19 A2992 RMK T02300190 MADISHF
LAF,2021-10-14 15:20,KLAF 141520Z AUTO 22005KT 10SM OVC023 23/20 A2992 RMK T02300200 VRB06KT  MADISHF
LAF,2021-10-14 15:25,KLAF 141525Z AUTO 22004KT 10SM OVC023 23/20 A2992 RMK T02300200 VRB04KT  MADISHF
LAF,2021-10-14 15:30,KLAF 141530Z AUTO 22005KT 10SM OVC023 23/20 A2992 RMK T02300200 MADISHF
LAF,2021-10-14 15:35,KLAF 141535Z AUTO 25007KT 10SM OVC023 23/19 A2993 RMK T02300190 MADISHF
LAF,2021-10-14 15:40,KLAF 141540Z AUTO 23005KT 10SM OVC023 23/19 A2994 RMK T02300190 MADISHF
LAF,2021-10-14 15:45,KLAF 141545Z AUTO 24007KT 10SM OVC023 23/19 A2993 RMK T02300190 MADISHF
LAF,2021-10-14 15:50,KLAF 141550Z AUTO 23005KT 10SM OVC023 23/19 A2993 RMK T02300190 MADISHF
LAF,2021-10-14 15:54,KLAF 141554Z 24007KT 10SM OVC023 23/19 A2994 RMK AO2 SLP132 T02280194
LAF,2021-10-14 15:55,KLAF 141555Z AUTO 24008KT 10SM OVC023 23/19 A2994 RMK T02300190 MADISHF
LAF,2021-10-14 16:00,KLAF 141600Z AUTO 24005KT 10SM OVC023 23/19 A2994 RMK T02300190 MADISHF
LAF,2021-10-14 16:05,KLAF 141605Z AUTO 25005KT 10SM SCT019 OVC024 23/19 A2993 RMK T02300190 MADISHF
LAF,2021-10-14 16:10,KLAF 141610Z AUTO 26008KT 10SM BKN022 OVC027 23/20 A2993 RMK T02300200 MADISHF
LAF,2021-10-14 16:15,KLAF 141615Z AUTO 25005KT 10SM BKN022 OVC027 23/20 A2993 RMK T02300200 MADISHF
LAF,2021-10-14 16:20,KLAF 141620Z AUTO 25008KT 10SM BKN022 OVC029 23/19 A2993 RMK T02300190 MADISHF
LAF,2021-10-14 16:25,KLAF 141625Z AUTO 24007KT 10SM SCT022 OVC029 23/19 A2993 RMK T02300190 MADISHF
LAF,2021-10-14 16:30,KLAF 141630Z AUTO 25009KT 10SM SCT022 OVC031 24/19 A2993 RMK T02400190 MADISHF
LAF,2021-10-14 16:35,KLAF 141635Z AUTO 23005KT 10SM FEW022 OVC031 24/20 A2993 RMK T02400200 MADISHF
LAF,2021-10-14 16:35,KLAF 141635Z 23005KT 10SM FEW022 OVC031 24/20 A2993 RMK AO2 T02390200
LAF,2021-10-14 16:40,KLAF 141640Z AUTO 25011G17KT 10SM FEW022 OVC031 24/20 A2993 RMK T02400200 MADISHF
LAF,2021-10-14 16:45,KLAF 141645Z AUTO 25009KT 10SM FEW022 OVC031 24/19 A2993 RMK T02400190 MADISHF
LAF,2021-10-14 16:50,KLAF 141650Z AUTO 24007KT 10SM FEW024 OVC032 24/19 A2993 RMK T02400190 MADISHF
LAF,2021-10-14 16:54,KLAF 141654Z 22007KT 10SM FEW024 BKN034 OVC050 24/19 A2993 RMK AO2 SLP131 T02390194
LAF,2021-10-14 16:55,KLAF 141655Z AUTO 22007KT 10SM FEW024 BKN033 OVC050 24/19 A2993 RMK T02400190 MADISHF
LAF,2021-10-14 17:00,KLAF 141700Z AUTO 24005KT 10SM FEW024 BKN033 OVC050 24/19 A2993 RMK T02400190 MADISHF
LAF,2021-10-14 17:05,KLAF 141705Z AUTO 24010KT 10SM FEW023 SCT033 OVC050 24/19 A2993 RMK T02400190 MADISHF
LAF,2021-10-14 17:10,KLAF 141710Z AUTO 23009KT 10SM FEW025 SCT033 OVC050 24/19 A2993 RMK T02400190 MADISHF
LAF,2021-10-14 17:15,KLAF 141715Z AUTO 22007KT 10SM FEW022 SCT035 OVC055 24/19 A2993 RMK T02400190 MADISHF
LAF,2021-10-14 17:20,KLAF 141720Z AUTO 26008KT 10SM FEW022 BKN050 BKN060 24/19 A2992 RMK T02400190 MADISHF
LAF,2021-10-14 17:25,KLAF 141725Z AUTO 22005KT 10SM FEW024 SCT048 OVC060 24/20 A2992 RMK T02400200 MADISHF
LAF,2021-10-14 17:30,KLAF 141730Z AUTO 24007KT 10SM SCT024 OVC060 24/19 A2992 RMK T02400190 MADISHF
LAF,2021-10-14 17:35,KLAF 141735Z AUTO 25005KT 10SM SCT023 BKN028 OVC060 24/19 A2992 RMK T02400190 MADISHF
LAF,2021-10-14 17:40,KLAF 141740Z AUTO 28009KT 10SM BKN023 BKN028 OVC060 24/20 A2992 RMK T02400200 MADISHF
LAF,2021-10-14 17:41,KLAF 141741Z 27009KT 10SM BKN023 BKN028 OVC060 24/20 A2992 RMK AO2 T02390200
LAF,2021-10-14 17:45,KLAF 141745Z AUTO 27009KT 10SM BKN023 BKN028 OVC060 24/20 A2992 RMK T02400200 MADISHF
LAF,2021-10-14 17:50,KLAF 141750Z AUTO 27009KT 10SM BKN023 BKN030 OVC060 23/19 A2992 RMK T02300190 MADISHF
LAF,2021-10-14 17:54,KLAF 141754Z 27007KT 10SM BKN023 OVC030 23/20 A2992 RMK AO2 SLP126 T02330200 10244 20206 58003
LAF,2021-10-14 17:55,KLAF 141755Z AUTO 27008KT 10SM BKN023 OVC030 23/20 A2992 RMK T02300200 MADISHF
LAF,2021-10-14 18:00,KLAF 141800Z AUTO 25005KT 10SM BKN023 BKN028 OVC033 24/20 A2992 RMK T02400200 VRB05KT  MADISHF
LAF,2021-10-14 18:05,KLAF 141805Z AUTO 27008KT 10SM FEW022 OVC028 23/19 A2992 RMK T02300190 MADISHF
LAF,2021-10-14 18:10,KLAF 141810Z AUTO 28008KT 10SM BKN024 OVC032 23/19 A2990 RMK T02300190 MADISHF
LAF,2021-10-14 18:15,KLAF 141815Z AUTO 32007KT 10SM BKN024 OVC028 22/19 A2990 RMK T02200190 MADISHF
LAF,2021-10-14 18:20,KLAF 141820Z AUTO 30008KT 10SM BKN024 OVC033 22/19 A2990 RMK T02200190 MADISHF
LAF,2021-10-14 18:25,KLAF 141825Z AUTO 32008KT 10SM BKN024 OVC033 22/19 A2990 RMK T02200190 MADISHF
LAF,2021-10-14 18:30,KLAF 141830Z AUTO 30005KT 10SM BKN024 BKN028 OVC033 22/19 A2990 RMK T02200190 MADISHF
LAF,2021-10-14 18:35,KLAF 141835Z AUTO 31007KT 10SM BKN022 OVC028 22/19 A2990 RMK T02200190 MADISHF
LAF,2021-10-14 18:40,KLAF 141840Z AUTO 32008KT 10SM BKN019 OVC027 21/19 A2990 RMK T02100190 MADISHF
LAF,2021-10-14 18:45,KLAF 141845Z AUTO 33009KT 10SM BKN019 OVC025 21/19 A2989 RMK T02100190 MADISHF
LAF,2021-10-14 18:50,KLAF 141850Z AUTO 31013G19KT 4SM RA BR FEW009 BKN019 OVC025 21/19 A2989 RMK P0002 T02100190 MADISHF
LAF,2021-10-14 18:52,KLAF 141852Z 33014G19KT 2 1/2SM +RA BR FEW009 BKN019 OVC025 20/19 A2990 RMK AO2 RAB48 P0006
LAF,2021-10-14 18:54,KLAF 141854Z 33014G19KT 2SM +RA BR FEW009 BKN020 OVC025 20/19 A2990 RMK AO2 RAB48 SLP120 P0007 T02000189
LAF,2021-10-14 18:55,KLAF 141855Z AUTO 33013KT 2SM +RA BR FEW009 BKN019 OVC025 19/19 A2989 RMK T01900190 MADISHF
LAF,2021-10-14 19:00,KLAF 141900Z AUTO 33013G18KT 2 1/2SM -RA BR FEW008 OVC022 19/18 A2989 RMK T01900180 MADISHF
LAF,2021-10-14 19:05,KLAF 141905Z 32015G21KT 8SM -RA BKN008 OVC022 19/18 A2990 RMK AO2 P0000 T01890183
LAF,2021-10-14 19:05,KLAF 141905Z AUTO 32015KT 8SM -RA BKN008 OVC022 19/18 A2989 RMK T01900180 MADISHF
LAF,2021-10-14 19:10,KLAF 141910Z AUTO 33011KT 4SM -RA BR BKN008 OVC022 18/18 A2989 RMK P0003 T01800180 MADISHF
LAF,2021-10-14 19:15,KLAF 141915Z AUTO 34009KT 3SM RA BR BKN008 OVC022 18/18 A2989 RMK P0005 T01800180 MADISHF
LAF,2021-10-14 19:20,KLAF 141920Z AUTO 34011G17KT 5SM -RA BR BKN008 OVC022 18/17 A2989 RMK P0005 T01800170 MADISHF
LAF,2021-10-14 19:25,KLAF 141925Z AUTO 32013G21KT 10SM -RA BKN008 OVC022 18/17 A2989 RMK P0005 T01800170 MADISHF
LAF,2021-10-14 19:30,KLAF 141930Z AUTO 33018G22KT 10SM -RA OVC022 17/16 A2989 RMK P0005 T01700160 MADISHF
LAF,2021-10-14 19:34,KLAF 141934Z 30015G25KT 10SM -RA BKN022 OVC027 17/14 A2991 RMK AO2 P0006 T01670144
LAF,2021-10-14 19:35,KLAF 141935Z AUTO ///14KT 9SM -RA BKN019 OVC027 16/14 A2992 RMK P0005 T01600140 MADISHF
LAF,2021-10-14 19:40,KLAF 141940Z AUTO 33013KT 2 1/2SM +RA BR BKN019 BKN025 OVC036 16/14 A2990 RMK P0014 T01600140 MADISHF
LAF,2021-10-14 19:43,KLAF 141943Z 32010G22KT 1 3/4SM +RA BR BKN020 BKN025 OVC036 15/14 A2992 RMK AO2 P0017 T01500139
LAF,2021-10-14 19:45,KLAF 141945Z AUTO 33011KT 1 1/2SM +RA BR BKN022 BKN029 OVC036 15/14 A2990 RMK P0018 T01500140 MADISHF
LAF,2021-10-14 19:50,KLAF 141950Z AUTO 33008KT 2SM +RA BR SCT022 BKN027 OVC044 15/14 A2992 RMK P0020 T01500140 MADISHF
LAF,2021-10-14 19:54,KLAF 141954Z 35008G20KT 2 1/2SM RA BR SCT020 SCT028 OVC039 15/14 A2991 RMK AO2 SLP124 P0021 T01500139
LAF,2021-10-14 19:55,KLAF 141955Z AUTO 35008KT 3SM RA BR SCT019 BKN033 OVC041 15/14 A2990 RMK T01500140 MADISHF
LAF,2021-10-14 20:00,KLAF 142000Z AUTO 34007KT 4SM RA BR FEW022 SCT033 OVC044 15/14 A2990 RMK P0001 T01500140 MADISHF
LAF,2021-10-14 20:01,KLAF 142001Z 36005KT 4SM RA BR FEW020 BKN038 OVC046 15/14 A2991 RMK AO2 P0002 T01500139
LAF,2021-10-14 20:05,KLAF 142005Z AUTO 36002KT 3SM +RA BR FEW023 SCT035 OVC046 14/14 A2990 RMK P0003 T01400140 VRB03KT  MADISHF
LAF,2021-10-14 20:10,KLAF 142010Z AUTO 00000KT 1 1/2SM +RA BR FEW025 BKN035 OVC046 14/14 A2992 RMK P0010 T01400140 MADISHF
LAF,2021-10-14 20:10,KLAF 142010Z 00000KT 1 1/2SM +RA BR FEW025 BKN035 OVC046 14/14 A2992 RMK AO2 P0010 T01440144
LAF,2021-10-14 20:15,KLAF 142015Z AUTO 12004KT 1SM +RA BR SCT016 BKN035 OVC046 14/14 A2989 RMK P0025 T01400140 MADISHF
LAF,2021-10-14 20:19,KLAF 142019Z 00000KT 1/2SM +RA FG SCT019 BKN033 OVC046 14/14 A2991 RMK AO2 P0033 T01440144
LAF,2021-10-14 20:20,KLAF 142020Z AUTO 00000KT 1/2SM +RA FG FEW006 BKN033 OVC046 14/14 A2992 RMK P0034 T01400140 MADISHF
LAF,2021-10-14 20:21,KLAF 142021Z 00000KT 1/2SM +RA FG FEW006 BKN019 OVC046 14/14 A2992 RMK AO2 P0035 T01440144
LAF,2021-10-14 20:25,KLAF 142025Z AUTO 36002KT 1SM +RA BR FEW006 BKN019 OVC046 14/14 A2990 RMK P0037 T01400140 MADISHF
LAF,2021-10-14 20:30,KLAF 142030Z AUTO 33005KT 1 1/2SM RA BR SCT008 BKN022 OVC044 14/14 A2990 RMK P0038 T01400140 MADISHF
LAF,2021-10-14 20:31,KLAF 142031Z 33005KT 2SM RA BR SCT008 BKN025 OVC044 14/14 A2991 RMK AO2 P0040 T01440144
LAF,2021-10-14 20:35,KLAF 142035Z AUTO 34005KT 2 1/2SM RA BR SCT009 BKN025 OVC095 15/14 A2989 RMK P0040 T01500140 MADISHF
LAF,2021-10-14 20:40,KLAF 142040Z AUTO 04004KT 1 1/2SM RA BR FEW009 BKN025 OVC110 14/14 A2988 RMK P0041 T01400140 MADISHF
LAF,2021-10-14 20:42,KLAF 142042Z VRB03KT 1 1/2SM RA BR SCT010 BKN028 OVC110 14/14 A2989 RMK AO2 PRESFR P0043 T01440144
LAF,2021-10-14 20:45,KLAF 142045Z AUTO 00000KT 1 1/2SM RA BR SCT009 BKN031 OVC100 15/14 A2989 RMK P0043 T01500140 MADISHF
LAF,2021-10-14 20:46,KLAF 142046Z 00000KT 1 1/2SM RA BR SCT008 BKN031 OVC110 15/14 A2990 RMK AO2 P0044 T01500144
LAF,2021-10-14 20:50,KLAF 142050Z AUTO 02005KT 1 1/2SM RA BR FEW008 BKN016 OVC110 15/14 A2989 RMK P0044 T01500140 MADISHF
LAF,2021-10-14 20:54,KLAF 142054Z 04006KT 1 1/2SM RA BR SCT013 BKN080 OVC100 15/14 A2989 RMK AO2 SLP120 P0046 60074 T01500144 56008
LAF,2021-10-14 20:55,KLAF 142055Z AUTO 04005KT 4SM RA BR FEW013 BKN079 OVC110 15/14 A2988 RMK P0000 T01500140 MADISHF
LAF,2021-10-14 21:00,KLAF 142100Z AUTO 07004KT 5SM -RA BR FEW013 BKN090 OVC110 15/15 A2988 RMK P0000 T01500150 MADISHF
LAF,2021-10-14 21:01,KLAF 142101Z 07003KT 5SM -RA BR FEW011 SCT050 OVC100 15/15 A2989 RMK AO2 P0001 T01500150
LAF,2021-10-14 21:05,KLAF 142105Z AUTO 00000KT 9SM -RA SCT009 BKN050 OVC110 15/15 A2989 RMK P0000 T01500150 MADISHF
LAF,2021-10-14 21:06,KLAF 142106Z 00000KT 10SM -RA SCT006 BKN016 OVC110 16/15 A2991 RMK AO2 P0001 T01560150
LAF,2021-10-14 21:10,KLAF 142110Z AUTO 00000KT 10SM -RA BKN006 BKN016 OVC110 16/15 A2990 RMK P0000 T01600150 MADISHF
LAF,2021-10-14 21:15,KLAF 142115Z AUTO 01002KT 10SM BKN006 BKN018 OVC110 16/15 A2989 RMK P0000 T01600150  LTG DSNT S! MADISHF
LAF,2021-10-14 21:16,KLAF 142116Z 36004KT 10SM BKN006 BKN080 OVC110 16/15 A2990 RMK AO2 LTG DSNT S RAE13 P0001 T01560150
LAF,2021-10-14 21:20,KLAF 142120Z AUTO 35005KT 10SM BKN006 BKN022 OVC110 16/15 A2989 RMK P0000 T01600150  LTG DSNT S! MADISHF
LAF,2021-10-14 21:25,KLAF 142125Z AUTO 33005KT 10SM BKN006 BKN024 OVC100 16/15 A2990 RMK P0000 T01600150  LTG DSNT S! MADISHF
LAF,2021-10-14 21:30,KLAF 142130Z AUTO 34004KT 10SM BKN006 BKN024 OVC075 16/15 A2990 RMK P0000 T01600150 MADISHF
LAF,2021-10-14 21:35,KLAF 142135Z AUTO 00000KT 9SM SCT006 BKN024 OVC070 16/15 A2990 RMK P0000 T01600150  LTG DSNT SE! MADISHF
LAF,2021-10-14 21:36,KLAF 142136Z 00000KT 9SM -RA SCT006 SCT024 OVC070 16/15 A2991 RMK AO2 LTG DSNT SE RAE13B36 P0001 T01560150
LAF,2021-10-14 21:40,KLAF 142140Z AUTO 34004KT 8SM -RA FEW006 BKN070 OVC085 16/15 A2990 RMK P0000 T01600150  LTG DSNT SE! MADISHF
LAF,2021-10-14 21:45,KLAF 142145Z AUTO 32005KT 8SM -RA FEW006 FEW024 OVC070 16/15 A2990 RMK P0001 T01600150  LTG DSNT SE! MADISHF
LAF,2021-10-14 21:50,KLAF 142150Z AUTO 31005KT 7SM -RA FEW022 OVC070 16/15 A2990 RMK P0001 T01600150 MADISHF
LAF,2021-10-14 21:54,KLAF 142154Z 32005KT 8SM -RA OVC070 16/15 A2991 RMK AO2 RAE13B36 SLP127 P0002 T01560150
LAF,2021-10-14 21:55,KLAF 142155Z AUTO 31005KT 9SM -RA OVC070 16/15 A2990 RMK T01600150 MADISHF
LAF,2021-10-14 22:00,KLAF 142200Z AUTO 29002KT 8SM -RA OVC070 16/15 A2992 RMK P0000 T01600150 MADISHF
LAF,2021-10-14 22:05,KLAF 142205Z AUTO 32002KT 5SM -RA BR FEW050 BKN070 OVC085 16/15 A2992 RMK P0001 T01600150 MADISHF
LAF,2021-10-14 22:10,KLAF 142210Z AUTO 35004KT 4SM -RA BR FEW050 BKN070 OVC085 16/15 A2990 RMK P0001 T01600150 MADISHF
LAF,2021-10-14 22:15,KLAF 142215Z AUTO 34002KT 7SM -RA FEW050 OVC070 16/14 A2992 RMK P0001 T01600140 MADISHF
LAF,2021-10-14 22:20,KLAF 142220Z AUTO 32002KT 10SM -RA FEW050 OVC065 16/14 A2992 RMK P0001 T01600140 MADISHF
LAF,2021-10-14 22:25,KLAF 142225Z AUTO 33002KT 10SM FEW050 BKN065 OVC075 16/14 A2992 RMK P0001 T01600140 MADISHF
LAF,2021-10-14 22:30,KLAF 142230Z AUTO 00000KT 10SM -RA FEW050 BKN065 OVC075 16/14 A2992 RMK P0001 T01600140 MADISHF
LAF,2021-10-14 22:35,KLAF 142235Z AUTO 00000KT 10SM -RA BKN060 OVC079 16/14 A2992 RMK P0001 T01600140 MADISHF
LAF,2021-10-14 22:40,KLAF 142240Z AUTO 00000KT 10SM -RA OVC060 16/15 A2993 RMK P0001 T01600150 MADISHF
LAF,2021-10-14 22:45,KLAF 142245Z AUTO 00000KT 10SM -RA BKN060 OVC075 16/14 A2993 RMK P0002 T01600140 MADISHF
LAF,2021-10-14 22:50,KLAF 142250Z AUTO 00000KT 10SM -RA BKN060 BKN075 OVC090 16/14 A2992 RMK P0002 T01600140 MADISHF
LAF,2021-10-14 22:54,KLAF 142254Z 00000KT 10SM -RA BKN060 OVC080 16/14 A2992 RMK AO2 SLP130 P0003 T01560144
LAF,2021-10-14 22:55,KLAF 142255Z AUTO 00000KT 10SM -RA BKN060 OVC079 16/14 A2992 RMK T01600140 MADISHF
LAF,2021-10-14 23:00,KLAF 142300Z AUTO 00000KT 10SM -RA BKN060 OVC075 16/14 A2993 RMK T01600140 MADISHF
LAF,2021-10-14 23:05,KLAF 142305Z AUTO 08002KT 10SM -RA BKN055 BKN070 OVC090 16/14 A2992 RMK T01600140 MADISHF
LAF,2021-10-14 23:10,KLAF 142310Z AUTO 00000KT 10SM -RA SCT055 BKN075 OVC090 16/14 A2992 RMK T01600140 MADISHF
LAF,2021-10-14 23:15,KLAF 142315Z AUTO 00000KT 10SM -RA BKN060 BKN079 OVC090 16/14 A2992 RMK T01600140 MADISHF
LAF,2021-10-14 23:20,KLAF 142320Z AUTO 00000KT 10SM BKN055 BKN065 BKN079 16/14 A2992 RMK T01600140 MADISHF
LAF,2021-10-14 23:25,KLAF 142325Z AUTO 00000KT 10SM BKN050 BKN070 OVC090 16/14 A2992 RMK T01600140 MADISHF
LAF,2021-10-14 23:30,KLAF 142330Z AUTO 27002KT 10SM BKN050 BKN070 OVC090 16/15 A2993 RMK T01600150 MADISHF
LAF,2021-10-14 23:35,KLAF 142335Z AUTO 00000KT 10SM FEW030 BKN050 OVC079 16/15 A2993 RMK T01600150 MADISHF
LAF,2021-10-14 23:40,KLAF 142340Z AUTO 16002KT 10SM -RA FEW030 OVC050 16/15 A2993 RMK T01600150 MADISHF
LAF,2021-10-14 23:45,KLAF 142345Z AUTO 00000KT 10SM -RA FEW030 OVC050 15/15 A2993 RMK T01500150 MADISHF
LAF,2021-10-14 23:50,KLAF 142350Z AUTO 00000KT 10SM FEW030 OVC050 15/15 A2992 RMK T01500150 MADISHF
LAF,2021-10-14 23:54,KLAF 142354Z 00000KT 10SM -RA FEW030 OVC050 16/15 A2993 RMK AO2 RAE17B37 SLP131 P0000 60079 T01560150 10239 20144 51011
LAF,2021-10-14 23:55,KLAF 142355Z AUTO 00000KT 10SM -RA FEW030 OVC050 16/15 A2993 RMK T01600150 MADISHF
LAF,2021-10-15 00:00,KLAF 150000Z AUTO 00000KT 9SM -RA FEW030 OVC050 16/15 A2993 RMK P0000 T01600150 MADISHF
LAF,2021-10-15 00:05,KLAF 150005Z AUTO 00000KT 8SM -RA BKN050 OVC075 16/15 A2992 RMK P0000 T01600150 MADISHF
LAF,2021-10-15 00:10,KLAF 150010Z AUTO 10004KT 6SM -RA BR BKN050 BKN075 OVC095 15/15 A2992 RMK P0001 T01500150 MADISHF
LAF,2021-10-15 00:15,KLAF 150015Z AUTO 10004KT 5SM -RA BR BKN055 BKN075 OVC090 15/15 A2992 RMK P0002 T01500150 MADISHF
LAF,2021-10-15 00:20,KLAF 150020Z AUTO 13002KT 5SM -RA BR SCT048 BKN060 OVC075 15/15 A2992 RMK P0002 T01500150 MADISHF
LAF,2021-10-15 00:25,KLAF 150025Z AUTO 10004KT 8SM -RA SCT048 BKN060 OVC075 15/15 A2992 RMK P0002 T01500150 MADISHF
LAF,2021-10-15 00:30,KLAF 150030Z AUTO 00000KT 10SM BKN048 BKN060 OVC075 15/15 A2992 RMK P0002 T01500150 MADISHF
LAF,2021-10-15 00:35,KLAF 150035Z AUTO 14002KT 10SM BKN046 OVC060 15/15 A2992 RMK P0002 T01500150 MADISHF
LAF,2021-10-15 00:40,KLAF 150040Z AUTO 00000KT 10SM BKN046 OVC060 16/15 A2992 RMK P0002 T01600150 MADISHF
LAF,2021-10-15 00:45,KLAF 150045Z AUTO 00000KT 10SM OVC046 16/15 A2992 RMK P0002 T01600150 MADISHF
LAF,2021-10-15 00:50,KLAF 150050Z AUTO 07004KT 10SM OVC044 15/15 A2990 RMK P0002 T01500150 MADISHF
LAF,2021-10-15 00:54,KLAF 150054Z 05003KT 10SM OVC044 16/15 A2991 RMK AO2 RAE30 SLP125 P0003 T01560150
LAF,2021-10-15 00:55,KLAF 150055Z AUTO 05002KT 10SM BKN044 OVC050 16/15 A2990 RMK T01600150 MADISHF
LAF,2021-10-15 01:00,KLAF 150100Z AUTO 00000KT 10SM BKN044 OVC050 16/15 A2990 RMK T01600150 MADISHF
LAF,2021-10-15 01:05,KLAF 150105Z AUTO 11002KT 10SM OVC044 16/15 A2990 RMK T01600150 MADISHF
LAF,2021-10-15 01:10,KLAF 150110Z AUTO 13002KT 10SM BKN044 OVC095 16/15 A2990 RMK T01600150 MADISHF
LAF,2021-10-15 01:15,KLAF 150115Z AUTO 00000KT 10SM BKN044 OVC100 16/15 A2992 RMK T01600150 MADISHF
LAF,2021-10-15 01:20,KLAF 150120Z AUTO 00000KT 10SM BKN043 OVC100 16/15 A2992 RMK T01600150 MADISHF
LAF,2021-10-15 01:25,KLAF 150125Z AUTO 00000KT 10SM BKN043 OVC100 16/15 A2992 RMK T01600150 MADISHF
LAF,2021-10-15 01:30,KLAF 150130Z AUTO 00000KT 10SM BKN043 OVC100 16/15 A2992 RMK T01600150 MADISHF
LAF,2021-10-15 01:35,KLAF 150135Z AUTO 00000KT 10SM BKN043 OVC100 16/15 A2992 RMK T01600150 MADISHF
LAF,2021-10-15 01:40,KLAF 150140Z AUTO 00000KT 10SM OVC042 16/15 A2992 RMK T01600150 MADISHF
LAF,2021-10-15 01:45,KLAF 150145Z AUTO 00000KT 10SM OVC042 16/15 A2992 RMK T01600150 MADISHF
LAF,2021-10-15 01:50,KLAF 150150Z AUTO 00000KT 10SM OVC043 16/15 A2992 RMK T01600150 MADISHF
LAF,2021-10-15 01:54,KLAF 150154Z AUTO 00000KT 10SM OVC043 16/16 A2992 RMK AO2 SLP129 T01560156
LAF,2021-10-15 01:55,KLAF 150155Z AUTO 00000KT 10SM BKN043 16/16 A2992 RMK T01600160 MADISHF
LAF,2021-10-15 02:00,KLAF 150200Z AUTO 00000KT 10SM BKN043 OVC070 16/16 A2993 RMK T01600160 MADISHF
LAF,2021-10-15 02:05,KLAF 150205Z AUTO 00000KT 10SM -RA BKN043 BKN065 OVC079 16/16 A2992 RMK T01600160 MADISHF
LAF,2021-10-15 02:10,KLAF 150210Z AUTO 00000KT 10SM -RA BKN044 OVC075 16/16 A2992 RMK T01600160 MADISHF
LAF,2021-10-15 02:15,KLAF 150215Z AUTO 00000KT 10SM -RA BKN044 OVC075 16/15 A2992 RMK T01600150 MADISHF
LAF,2021-10-15 02:20,KLAF 150220Z AUTO 00000KT 10SM SCT044 OVC075 16/15 A2992 RMK T01600150 MADISHF
LAF,2021-10-15 02:25,KLAF 150225Z AUTO 00000KT 10SM FEW044 OVC079 16/16 A2992 RMK T01600160 MADISHF
LAF,2021-10-15 02:30,KLAF 150230Z AUTO 00000KT 10SM FEW044 OVC079 16/16 A2992 RMK T01600160 MADISHF
LAF,2021-10-15 02:35,KLAF 150235Z AUTO 00000KT 10SM FEW044 OVC075 16/16 A2993 RMK T01600160 MADISHF
LAF,2021-10-15 02:40,KLAF 150240Z AUTO 00000KT 10SM FEW043 OVC075 16/16 A2993 RMK T01600160 MADISHF
LAF,2021-10-15 02:45,KLAF 150245Z AUTO 34002KT 10SM FEW041 OVC075 16/16 A2992 RMK T01600160 MADISHF
LAF,2021-10-15 02:50,KLAF 150250Z AUTO 00000KT 9SM FEW041 OVC075 16/16 A2992 RMK T01600160 MADISHF
LAF,2021-10-15 02:54,KLAF 150254Z AUTO 00000KT 8SM FEW041 OVC075 16/16 A2992 RMK AO2 RAB03E16 SLP128 P0000 60003 T01560156 55002
LAF,2021-10-15 02:55,KLAF 150255Z AUTO 00000KT 8SM FEW041 OVC075 16/16 A2992 RMK T01600160 MADISHF
LAF,2021-10-15 03:00,KLAF 150300Z AUTO 33002KT 8SM FEW041 BKN075 OVC085 16/16 A2992 RMK T01600160 MADISHF
LAF,2021-10-15 03:05,KLAF 150305Z AUTO 34004KT 8SM FEW041 BKN075 OVC085 16/16 A2992 RMK T01600160 MADISHF
LAF,2021-10-15 03:10,KLAF 150310Z AUTO 02002KT 9SM BKN079 OVC110 16/16 A2992 RMK T01600160 MADISHF
LAF,2021-10-15 03:15,KLAF 150315Z AUTO 00000KT 10SM BKN079 OVC110 16/16 A2992 RMK T01600160 MADISHF
LAF,2021-10-15 03:20,KLAF 150320Z AUTO 00000KT 10SM -RA SCT079 OVC110 16/15 A2992 RMK T01600150 MADISHF
LAF,2021-10-15 03:25,KLAF 150325Z AUTO 36002KT 10SM -RA FEW065 SCT085 OVC110 16/15 A2992 RMK P0000 T01600150 MADISHF
LAF,2021-10-15 03:30,KLAF 150330Z AUTO 35002KT 9SM -RA FEW065 SCT085 OVC110 16/15 A2992 RMK P0000 T01600150 MADISHF
LAF,2021-10-15 03:35,KLAF 150335Z AUTO 00000KT 6SM RA BR FEW065 SCT085 OVC110 16/15 A2992 RMK P0002 T01600150 MADISHF
LAF,2021-10-15 03:40,KLAF 150340Z AUTO 00000KT 4SM RA BR FEW060 SCT085 OVC110 16/16 A2993 RMK P0003 T01600160 MADISHF
LAF,2021-10-15 03:45,KLAF 150345Z AUTO 36004KT 3SM +RA BR FEW065 BKN090 OVC110 16/16 A2992 RMK P0007 T01600160 MADISHF
LAF,2021-10-15 03:50,KLAF 150350Z AUTO 04002KT 4SM RA BR FEW065 SCT079 OVC100 16/16 A2992 RMK P0009 T01600160 MADISHF
LAF,2021-10-15 03:54,KLAF 150354Z AUTO 00000KT 5SM RA BR FEW065 BKN100 OVC120 16/16 A2992 RMK AO2 RAB16 SLP129 P0009 T01560156
LAF,2021-10-15 03:55,KLAF 150355Z AUTO 00000KT 5SM RA BR FEW065 BKN100 OVC120 16/16 A2992 RMK P0000 T01600160 MADISHF
LAF,2021-10-15 04:00,KLAF 150400Z AUTO 00000KT 5SM RA BR FEW065 BKN095 OVC120 16/16 A2992 RMK P0002 T01600160 MADISHF
LAF,2021-10-15 04:05,KLAF 150405Z AUTO 00000KT 6SM -RA BR FEW065 SCT079 OVC100 16/16 A2993 RMK P0002 T01600160 MADISHF
LAF,2021-10-15 04:10,KLAF 150410Z AUTO 00000KT 7SM -RA FEW079 BKN100 OVC120 16/16 A2992 RMK P0003 T01600160 MADISHF
LAF,2021-10-15 04:15,KLAF 150415Z AUTO 00000KT 5SM RA BR FEW050 OVC100 16/16 A2993 RMK P0005 T01600160 MADISHF
LAF,2021-10-15 04:20,KLAF 150420Z AUTO 00000KT 3SM RA BR FEW050 OVC090 16/16 A2993 RMK P0007 T01600160 MADISHF
LAF,2021-10-15 04:25,KLAF 150425Z AUTO 00000KT 3SM RA BR BKN085 OVC100 16/16 A2992 RMK P0009 T01600160  LTG DSNT SE! MADISHF
LAF,2021-10-15 04:30,KLAF 150430Z AUTO 00000KT 4SM RA BR BKN079 OVC100 16/16 A2990 RMK P0010 T01600160  LTG DSNT SE! MADISHF
LAF,2021-10-15 04:35,KLAF 150435Z AUTO 00000KT 4SM RA BR SCT079 OVC100 16/16 A2990 RMK P0010 T01600160  LTG DSNT SE! MADISHF
LAF,2021-10-15 04:40,KLAF 150440Z AUTO 00000KT 5SM RA BR BKN090 OVC100 16/16 A2990 RMK P0010 T01600160  LTG DSNT SE! MADISHF
LAF,2021-10-15 04:45,KLAF 150445Z AUTO 00000KT 5SM RA BR BKN079 OVC100 16/16 A2990 RMK P0012 T01600160 MADISHF
LAF,2021-10-15 04:50,KLAF 150450Z AUTO 00000KT 5SM -RA BR BKN079 OVC100 16/16 A2990 RMK P0012 T01600160 MADISHF
LAF,2021-10-15 04:54,KLAF 150454Z AUTO 00000KT 5SM -RA BR BKN080 OVC095 16/16 A2991 RMK AO2 SLP126 P0014 T01560156 402440144
LAF,2021-10-15 04:55,KLAF 150455Z AUTO 00000KT 5SM -RA BR BKN079 OVC095 16/16 A2990 RMK T01600160 MADISHF
LAF,2021-10-15 05:00,KLAF 150500Z AUTO 00000KT 4SM RA BR BKN079 OVC095 16/16 A2990 RMK P0000 T01600160  LTG DSNT SE! MADISHF
LAF,2021-10-15 05:05,KLAF 150505Z AUTO 00000KT 4SM RA BR BKN079 OVC095 16/16 A2990 RMK P0001 T01600160  LTG DSNT SE! MADISHF
LAF,2021-10-15 05:10,KLAF 150510Z AUTO 00000KT 4SM RA BR FEW047 OVC075 16/16 A2990 RMK P0002 T01600160  LTG DSNT SE! MADISHF
LAF,2021-10-15 05:15,KLAF 150515Z AUTO 00000KT 4SM -RA BR FEW047 BKN070 OVC085 16/16 A2990 RMK P0002 T01600160  LTG DSNT E! MADISHF
LAF,2021-10-15 05:20,KLAF 150520Z AUTO 11002KT 5SM RA BR OVC075 16/16 A2990 RMK P0003 T01600160  LTG DSNT E! MADISHF
LAF,2021-10-15 05:25,KLAF 150525Z AUTO 10004KT 4SM RA BR OVC070 16/16 A2990 RMK P0005 T01600160  LTG DSNT E AND SE! MADISHF
LAF,2021-10-15 05:30,KLAF 150530Z AUTO 10004KT 4SM RA BR BKN070 OVC079 16/16 A2990 RMK P0005 T01600160  LTG DSNT SE! MADISHF
LAF,2021-10-15 05:35,KLAF 150535Z AUTO 10004KT 4SM RA BR BKN065 BKN079 OVC090 16/16 A2989 RMK P0007 T01600160  LTG DSNT SE! MADISHF
LAF,2021-10-15 05:40,KLAF 150540Z AUTO 08005KT 4SM RA BR SCT065 OVC079 16/16 A2988 RMK P0007 T01600160 MADISHF
LAF,2021-10-15 05:45,KLAF 150545Z AUTO 09004KT 4SM -RA BR BKN070 BKN090 OVC110 16/16 A2989 RMK P0009 T01600160 MADISHF
LAF,2021-10-15 05:50,KLAF 150550Z AUTO 07005KT 5SM -RA BR FEW014 BKN065 OVC110 16/16 A2988 RMK P0009 T01600160 MADISHF
LAF,2021-10-15 05:54,KLAF 150554Z AUTO 07005KT 6SM -RA BR SCT010 BKN060 OVC110 16/16 A2989 RMK AO2 SLP116 P0009 60035 T01560156 10161 20150 58012
LAF,2021-10-15 05:55,KLAF 150555Z AUTO 07005KT 6SM -RA BR SCT009 BKN060 OVC110 16/16 A2987 RMK T01600160 MADISHF
LAF,2021-10-15 06:00,KLAF 150600Z AUTO 08005KT 8SM -RA BKN009 BKN065 OVC110 16/16 A2987 RMK T01600160 MADISHF
LAF,2021-10-15 06:05,KLAF 150605Z AUTO 09004KT 10SM -RA BKN009 BKN070 OVC110 16/16 A2987 RMK T01600160 MADISHF
LAF,2021-10-15 06:05,KLAF 150605Z AUTO 09004KT 10SM -RA BKN010 BKN070 OVC110 16/16 A2988 RMK AO2 P0000 T01610156
LAF,2021-10-15 06:10,KLAF 150610Z AUTO 06004KT 10SM BKN009 BKN065 OVC120 16/16 A2987 RMK T01600160 MADISHF
LAF,2021-10-15 06:15,KLAF 150615Z AUTO 06002KT 10SM BKN009 16/16 A2987 RMK T01600160 MADISHF
LAF,2021-10-15 06:16,KLAF 150616Z AUTO 07003KT 10SM BKN009 16/16 A2988 RMK AO2 RAE06 P0000 T01610161
LAF,2021-10-15 06:20,KLAF 150620Z AUTO 06002KT 10SM BKN009 16/16 A2987 RMK T01600160 MADISHF
LAF,2021-10-15 06:25,KLAF 150625Z AUTO 05002KT 10SM OVC009 16/16 A2987 RMK T01600160 MADISHF
LAF,2021-10-15 06:30,KLAF 150630Z AUTO 05004KT 10SM BKN009 16/16 A2987 RMK T01600160 MADISHF
LAF,2021-10-15 06:35,KLAF 150635Z AUTO 05005KT 10SM BKN009 BKN060 16/16 A2987 RMK T01600160 MADISHF
LAF,2021-10-15 06:40,KLAF 150640Z AUTO 05004KT 10SM SCT009 BKN065 BKN120 16/16 A2987 RMK T01600160 MADISHF
LAF,2021-10-15 06:45,KLAF 150645Z AUTO 06005KT 10SM SCT009 BKN065 OVC120 16/16 A2987 RMK T01600160 MADISHF
LAF,2021-10-15 06:46,KLAF 150646Z AUTO 07005KT 10SM SCT009 BKN065 OVC120 16/16 A2988 RMK AO2 RAE06 P0000 T01610161
LAF,2021-10-15 06:50,KLAF 150650Z AUTO 06005KT 10SM SCT009 OVC065 16/16 A2987 RMK T01600160 MADISHF
LAF,2021-10-15 06:54,KLAF 150654Z AUTO 06004KT 10SM SCT009 OVC065 16/16 A2988 RMK AO2 RAE06 SLP115 P0000 T01610161
LAF,2021-10-15 06:55,KLAF 150655Z AUTO 06004KT 10SM SCT009 OVC065 16/16 A2987 RMK T01600160 MADISHF
LAF,2021-10-15 07:00,KLAF 150700Z AUTO 07004KT 10SM BKN009 OVC065 16/16 A2987 RMK T01600160 MADISHF
LAF,2021-10-15 07:05,KLAF 150705Z AUTO 05004KT 10SM BKN009 OVC070 16/16 A2987 RMK T01600160 MADISHF
LAF,2021-10-15 07:05,KLAF 150705Z AUTO 05004KT 10SM BKN010 OVC070 16/16 A2988 RMK AO2 T01610161
LAF,2021-10-15 07:10,KLAF 150710Z AUTO 05004KT 10SM BKN009 OVC070 16/16 A2987 RMK T01600160 MADISHF
LAF,2021-10-15 07:15,KLAF 150715Z AUTO 04005KT 10SM BKN009 OVC065 16/16 A2987 RMK T01600160 MADISHF
LAF,2021-10-15 07:20,KLAF 150720Z AUTO 02004KT 10SM FEW004 OVC009 16/16 A2987 RMK T01600160 MADISHF
LAF,2021-10-15 07:22,KLAF 150722Z AUTO 01004KT 10SM FEW005 OVC010 16/16 A2987 RMK AO2 T01610161
LAF,2021-10-15 07:25,KLAF 150725Z AUTO 03002KT 9SM -RA FEW004 OVC009 16/16 A2987 RMK T01600160 MADISHF
LAF,2021-10-15 07:30,KLAF 150730Z AUTO 04004KT 9SM -RA FEW004 OVC009 16/16 A2987 RMK T01600160 MADISHF
LAF,2021-10-15 07:35,KLAF 150735Z AUTO 04004KT 8SM -RA SCT004 BKN009 OVC060 16/16 A2987 RMK T01600160 MADISHF
LAF,2021-10-15 07:40,KLAF 150740Z AUTO 04005KT 8SM -RA SCT004 BKN011 OVC060 16/16 A2987 RMK T01600160 MADISHF
LAF,2021-10-15 07:45,KLAF 150745Z AUTO 03005KT 6SM -RA BR BKN004 BKN011 OVC060 16/16 A2986 RMK P0000 T01600160 MADISHF
LAF,2021-10-15 07:46,KLAF 150746Z AUTO 03005KT 6SM -RA BR BKN004 BKN011 OVC060 16/16 A2986 RMK AO2 RAB24 P0001 T01610161
LAF,2021-10-15 07:50,KLAF 150750Z AUTO 01004KT 5SM -RA BR BKN004 BKN011 OVC060 16/16 A2987 RMK P0000 T01600160 MADISHF
LAF,2021-10-15 07:54,KLAF 150754Z AUTO 36005KT 6SM -RA BR BKN004 BKN011 OVC060 16/16 A2987 RMK AO2 RAB24 SLP113 P0001 T01610161
LAF,2021-10-15 07:55,KLAF 150755Z AUTO 01005KT 6SM -RA BR BKN004 BKN011 OVC060 16/16 A2987 RMK T01600160 MADISHF
LAF,2021-10-15 08:00,KLAF 150800Z AUTO 02004KT 7SM -RA BKN004 OVC060 16/16 A2987 RMK T01600160 MADISHF
LAF,2021-10-15 08:05,KLAF 150805Z AUTO 02004KT 6SM -RA BR OVC004 16/16 A2987 RMK T01600160 MADISHF
LAF,2021-10-15 08:10,KLAF 150810Z AUTO 36002KT 4SM RA BR OVC004 16/16 A2987 RMK P0000 T01600160 MADISHF
LAF,2021-10-15 08:15,KLAF 150815Z AUTO 35002KT 3SM RA BR BKN004 OVC008 16/16 A2987 RMK P0005 T01600160 MADISHF
LAF,2021-10-15 08:20,KLAF 150820Z AUTO 05004KT 2SM +RA BR BKN004 OVC019 16/16 A2987 RMK P0009 T01600160 MADISHF
LAF,2021-10-15 08:22,KLAF 150822Z AUTO 07005KT 2SM +RA BR BKN004 OVC029 16/16 A2986 RMK AO2 P0010 T01610161
LAF,2021-10-15 08:25,KLAF 150825Z AUTO 06004KT 2SM +RA BR BKN004 OVC039 16/16 A2986 RMK P0011 T01600160 MADISHF
LAF,2021-10-15 08:30,KLAF 150830Z AUTO 06005KT 2 1/2SM +RA BR SCT004 BKN043 OVC090 16/16 A2985 RMK P0015 T01600160 MADISHF
LAF,2021-10-15 08:32,KLAF 150832Z AUTO 06004KT 2 1/2SM +RA BR SCT005 BKN043 OVC090 16/16 A2985 RMK AO2 PRESFR P0016 T01610161
LAF,2021-10-15 08:35,KLAF 150835Z AUTO 07002KT 3SM RA BR SCT004 BKN041 OVC110 16/16 A2985 RMK P0015 T01600160 MADISHF
LAF,2021-10-15 08:40,KLAF 150840Z AUTO 05002KT 4SM RA BR FEW007 BKN039 OVC100 16/16 A2985 RMK P0017 T01600160 MADISHF
LAF,2021-10-15 08:41,KLAF 150841Z AUTO 05003KT 4SM RA BR FEW007 BKN039 OVC100 16/16 A2986 RMK AO2 P0017 T01610161
LAF,2021-10-15 08:45,KLAF 150845Z AUTO 06004KT 5SM RA BR FEW007 BKN070 OVC100 16/16 A2986 RMK P0018 T01600160 MADISHF
LAF,2021-10-15 08:50,KLAF 150850Z AUTO 06002KT 5SM RA BR FEW004 BKN070 OVC100 16/16 A2986 RMK P0020 T01600160 MADISHF
LAF,2021-10-15 08:54,KLAF 150854Z AUTO 07004KT 5SM RA BR SCT005 BKN055 OVC110 16/16 A2986 RMK AO2 SLP110 P0022 60023 T01610161 58008
LAF,2021-10-15 08:55,KLAF 150855Z AUTO 07004KT 5SM RA BR SCT004 BKN050 OVC110 16/16 A2986 RMK T01600160 MADISHF
LAF,2021-10-15 09:00,KLAF 150900Z AUTO 00000KT 5SM RA BR BKN004 BKN070 OVC100 16/16 A2986 RMK P0000 T01600160 MADISHF
LAF,2021-10-15 09:02,KLAF 150902Z AUTO 09003KT 5SM RA BR BKN005 BKN070 OVC100 16/16 A2986 RMK AO2 P0002 T01610161
LAF,2021-10-15 09:05,KLAF 150905Z AUTO 08002KT 5SM RA BR BKN004 OVC100 16/16 A2987 RMK P0002 T01600160 MADISHF
LAF,2021-10-15 09:10,KLAF 150910Z AUTO 04002KT 5SM RA BR BKN004 OVC100 16/16 A2986 RMK P0005 T01600160 MADISHF
LAF,2021-10-15 09:15,KLAF 150915Z AUTO 01004KT 4SM RA BR OVC004 16/16 A2986 RMK P0007 T01600160 MADISHF
LAF,2021-10-15 09:20,KLAF 150920Z AUTO 01002KT 4SM +RA BR OVC004 16/16 A2985 RMK P0009 T01600160 MADISHF
LAF,2021-10-15 09:25,KLAF 150925Z AUTO 03005KT 4SM RA BR OVC004 16/16 A2985 RMK P0010 T01600160 CIG 4V8  MADISHF
LAF,2021-10-15 09:30,KLAF 150930Z AUTO 04004KT 5SM RA BR OVC004 16/16 A2985 RMK P0011 T01600160 CIG 4V8  MADISHF
LAF,2021-10-15 09:35,KLAF 150935Z AUTO 05002KT 5SM RA BR OVC004 16/16 A2985 RMK P0012 T01600160 CIG 4V8  MADISHF
LAF,2021-10-15 09:40,KLAF 150940Z AUTO 05004KT 7SM -RA OVC006 16/16 A2984 RMK P0012 T01600160 CIG 4V8  MADISHF
LAF,2021-10-15 09:45,KLAF 150945Z AUTO 04004KT 9SM -RA OVC006 16/16 A2984 RMK P0012 T01600160 MADISHF
LAF,2021-10-15 09:50,KLAF 150950Z AUTO 02005KT 10SM -RA OVC006 16/16 A2984 RMK P0012 T01600160 MADISHF
LAF,2021-10-15 09:54,KLAF 150954Z AUTO 01005KT 10SM -RA OVC006 16/16 A2984 RMK AO2 SLP103 P0013 T01610161
LAF,2021-10-15 09:55,KLAF 150955Z AUTO 01005KT 10SM -RA OVC006 16/16 A2984 RMK T01600160 MADISHF
LAF,2021-10-15 10:00,KLAF 151000Z AUTO 36004KT 10SM OVC006 16/16 A2984 RMK T01600160 MADISHF
LAF,2021-10-15 10:05,KLAF 151005Z AUTO 35004KT 10SM OVC006 16/16 A2984 RMK T01600160 MADISHF
LAF,2021-10-15 10:10,KLAF 151010Z AUTO 35005KT 10SM -RA OVC006 16/16 A2985 RMK T01600160 MADISHF
LAF,2021-10-15 10:15,KLAF 151015Z AUTO 03002KT 7SM RA OVC006 16/16 A2985 RMK P0000 T01600160 MADISHF
LAF,2021-10-15 10:20,KLAF 151020Z AUTO 02005KT 6SM RA BR OVC006 16/16 A2985 RMK P0001 T01600160 MADISHF
LAF,2021-10-15 10:25,KLAF 151025Z AUTO 02005KT 6SM -RA BR OVC004 16/16 A2984 RMK P0002 T01600160 MADISHF
LAF,2021-10-15 10:30,KLAF 151030Z AUTO 36004KT 5SM RA BR OVC004 16/16 A2985 RMK P0002 T01600160 MADISHF
LAF,2021-10-15 10:35,KLAF 151035Z AUTO 01005KT 5SM -RA BR OVC004 16/16 A2985 RMK P0003 T01600160 MADISHF
LAF,2021-10-15 10:40,KLAF 151040Z AUTO 02005KT 6SM -RA BR OVC004 16/16 A2985 RMK P0003 T01600160 MADISHF
LAF,2021-10-15 10:44,KLAF 151044Z 02006KT 7SM -RA BKN004 BKN009 OVC055 16/16 A2985 RMK AO2 P0004 T01610156
LAF,2021-10-15 10:45,KLAF 151045Z AUTO 02007KT 7SM -RA BKN004 OVC055 16/16 A2985 RMK P0003 T01600160 CIG 3V9  MADISHF
LAF,2021-10-15 10:50,KLAF 151050Z AUTO 03007KT 9SM -RA BKN004 BKN033 OVC055 16/16 A2984 RMK P0003 T01600160 MADISHF
LAF,2021-10-15 10:54,KLAF 151054Z 02004KT 10SM -RA BKN006 BKN019 OVC055 16/16 A2984 RMK AO2 SLP104 P0004 T01610156
LAF,2021-10-15 10:55,KLAF 151055Z AUTO 02004KT 10SM -RA SCT004 BKN008 OVC033 16/16 A2984 RMK T01600160 MADISHF
LAF,2021-10-15 11:00,KLAF 151100Z AUTO 36004KT 9SM -RA BKN004 BKN008 OVC033 16/16 A2985 RMK P0000 T01600160 MADISHF
LAF,2021-10-15 11:04,KLAF 151104Z 01003KT 7SM -RA BKN004 BKN008 OVC033 16/16 A2985 RMK AO2 P0001 T01610156
LAF,2021-10-15 11:05,KLAF 151105Z AUTO 01002KT 7SM -RA BKN004 BKN008 OVC033 16/16 A2985 RMK P0000 T01600160 MADISHF
LAF,2021-10-15 11:10,KLAF 151110Z AUTO 02002KT 6SM -RA BR BKN004 OVC033 16/16 A2985 RMK P0000 T01600160 MADISHF
LAF,2021-10-15 11:13,KLAF 151113Z 01003KT 5SM -RA BR BKN005 BKN009 OVC034 16/16 A2985 RMK AO2 P0001 T01610161
LAF,2021-10-15 11:15,KLAF 151115Z AUTO 01002KT 5SM -RA BR BKN004 OVC033 16/16 A2985 RMK P0001 T01600160 MADISHF
LAF,2021-10-15 11:20,KLAF 151120Z AUTO 02002KT 5SM -RA BR BKN004 OVC009 16/16 A2985 RMK P0001 T01600160 MADISHF
LAF,2021-10-15 11:25,KLAF 151125Z AUTO 01002KT 5SM -RA BR BKN004 OVC009 16/16 A2985 RMK P0001 T01600160 MADISHF
LAF,2021-10-15 11:30,KLAF 151130Z AUTO 34002KT 5SM -RA BR BKN004 OVC009 16/16 A2985 RMK P0001 T01600160 MADISHF
LAF,2021-10-15 11:35,KLAF 151135Z AUTO 00000KT 5SM -RA BR BKN004 OVC009 16/16 A2985 RMK P0001 T01600160 MADISHF
LAF,2021-10-15 11:40,KLAF 151140Z AUTO 35002KT 6SM -RA BR OVC004 16/16 A2984 RMK P0001 T01600160 MADISHF
LAF,2021-10-15 11:45,KLAF 151145Z AUTO 36004KT 7SM -RA OVC004 16/16 A2984 RMK P0001 T01600160 MADISHF
LAF,2021-10-15 11:50,KLAF 151150Z AUTO 02004KT 7SM -RA BKN004 OVC009 16/16 A2984 RMK P0002 T01600160 MADISHF
LAF,2021-10-15 11:54,KLAF 151154Z 02004KT 7SM -RA BKN005 OVC010 16/16 A2984 RMK AO2 SLP102 P0003 60043 70157 T01610156 10161 20156 56007
LAF,2021-10-15 11:55,KLAF 151155Z AUTO 02005KT 7SM -RA BKN004 OVC009 16/16 A2984 RMK T01600160 MADISHF
LAF,2021-10-15 12:00,KLAF 151200Z AUTO 03005KT 8SM BKN004 BKN009 OVC047 16/16 A2982 RMK T01600160 MADISHF
LAF,2021-10-15 12:05,KLAF 151205Z AUTO 03005KT 10SM BKN004 BKN009 OVC047 16/16 A2982 RMK T01600160 MADISHF
LAF,2021-10-15 12:10,KLAF 151210Z AUTO 03007KT 10SM BKN004 BKN009 OVC047 16/16 A2982 RMK T01600160 MADISHF
LAF,2021-10-15 12:15,KLAF 151215Z AUTO 04008KT 10SM BKN004 BKN009 OVC047 16/16 A2982 RMK T01600160 MADISHF
LAF,2021-10-15 12:20,KLAF 151220Z AUTO 04007KT 10SM -RA BKN004 BKN009 OVC047 16/16 A2982 RMK T01600160 MADISHF
LAF,2021-10-15 12:25,KLAF 151225Z AUTO 03004KT 9SM -RA BKN004 BKN009 OVC047 16/16 A2982 RMK T01600160 MADISHF
LAF,2021-10-15 12:30,KLAF 151230Z AUTO 02004KT 9SM -RA BKN004 BKN009 OVC047 16/16 A2982 RMK T01600160 MADISHF
LAF,2021-10-15 12:35,KLAF 151235Z AUTO 34002KT 10SM -RA BKN004 BKN009 OVC047 16/16 A2984 RMK T01600160 MADISHF
LAF,2021-10-15 12:40,KLAF 151240Z AUTO 33004KT 10SM BKN004 BKN009 OVC047 16/16 A2984 RMK T01600160 MADISHF
LAF,2021-10-15 12:45,KLAF 151245Z AUTO 35004KT 10SM BKN004 BKN009 OVC047 16/16 A2984 RMK T01600160 MADISHF
LAF,2021-10-15 12:50,KLAF 151250Z AUTO 36005KT 9SM OVC004 16/16 A2984 RMK T01600160 MADISHF
LAF,2021-10-15 12:54,KLAF 151254Z 36004KT 9SM OVC005 16/16 A2984 RMK AO2 RAE1159B20E37 SLP104 P0000 T01610161
LAF,2021-10-15 12:55,KLAF 151255Z AUTO 01004KT 9SM OVC004 16/16 A2984 RMK T01600160 MADISHF
LAF,2021-10-15 13:00,KLAF 151300Z AUTO 01005KT 8SM -RA OVC004 16/16 A2984 RMK T01600160 MADISHF
LAF,2021-10-15 13:05,KLAF 151305Z AUTO 02007KT 7SM -RA OVC004 16/16 A2984 RMK T01600160 MADISHF
LAF,2021-10-15 13:10,KLAF 151310Z 01006KT 8SM OVC004 16/16 A2984 RMK AO2 RAB1258E10 P0000 T01610161
LAF,2021-10-15 13:10,KLAF 151310Z AUTO 01005KT 8SM OVC004 16/16 A2984 RMK T01600160 MADISHF
LAF,2021-10-15 13:15,KLAF 151315Z AUTO 35005KT 7SM OVC004 16/16 A2984 RMK T01600160 MADISHF
LAF,2021-10-15 13:20,KLAF 151320Z AUTO 01005KT 7SM OVC004 16/16 A2984 RMK T01600160 MADISHF
LAF,2021-10-15 13:25,KLAF 151325Z AUTO 01005KT 7SM OVC004 16/16 A2984 RMK T01600160 MADISHF
LAF,2021-10-15 13:30,KLAF 151330Z AUTO 01005KT 6SM -RA BR OVC004 17/16 A2984 RMK T01700160 MADISHF
LAF,2021-10-15 13:35,KLAF 151335Z AUTO 36009KT 5SM -RA BR OVC004 16/16 A2984 RMK T01600160 MADISHF
LAF,2021-10-15 13:40,KLAF 151340Z AUTO 34009KT 4SM -RA BR OVC004 16/16 A2984 RMK T01600160 MADISHF
LAF,2021-10-15 13:45,KLAF 151345Z AUTO 35007KT 3SM -RA BR OVC004 16/16 A2985 RMK T01600160 MADISHF
LAF,2021-10-15 13:50,KLAF 151350Z AUTO 34008KT 2 1/2SM -RA BR OVC003 16/16 A2984 RMK T01600160 MADISHF
LAF,2021-10-15 13:54,KLAF 151354Z 35008KT 2 1/2SM -RA BR OVC003 16/16 A2985 RMK AO2 RAB1258E10B27 SLP105 P0000 T01560156
LAF,2021-10-15 13:55,KLAF 151355Z AUTO 34008KT 2 1/2SM -RA BR OVC003 16/16 A2985 RMK T01600160 MADISHF
LAF,2021-10-15 14:00,KLAF 151400Z AUTO 34005KT 2 1/2SM -RA BR OVC004 16/16 A2985 RMK T01600160 MADISHF
LAF,2021-10-15 14:05,KLAF 151405Z AUTO 34005KT 2 1/2SM BR OVC004 16/16 A2985 RMK T01600160 MADISHF
LAF,2021-10-15 14:10,KLAF 151410Z AUTO 34005KT 2 1/2SM BR OVC003 16/15 A2985 RMK T01600150 MADISHF
LAF,2021-10-15 14:15,KLAF 151415Z AUTO 35007KT 3SM BR OVC003 16/15 A2985 RMK T01600150 MADISHF
LAF,2021-10-15 14:20,KLAF 151420Z 01007KT 3SM BR OVC003 16/15 A2985 RMK AO2 RAE01 P0000 T01560150
LAF,2021-10-15 14:20,KLAF 151420Z AUTO 01007KT 3SM BR OVC003 16/15 A2985 RMK T01600150 MADISHF
LAF,2021-10-15 14:25,KLAF 151425Z AUTO 01009KT 1 1/2SM BR OVC003 16/15 A2985 RMK T01600150 MADISHF
LAF,2021-10-15 14:27,KLAF 151427Z 02007KT 1 1/2SM BR OVC003 16/15 A2985 RMK AO2 RAE01 P0000 T01560150
LAF,2021-10-15 14:30,KLAF 151430Z AUTO 36005KT 1 1/2SM BR OVC003 16/15 A2984 RMK T01600150 MADISHF
LAF,2021-10-15 14:35,KLAF 151435Z AUTO 02007KT 1 1/2SM BR OVC004 16/15 A2984 RMK T01600150 MADISHF
LAF,2021-10-15 14:40,KLAF 151440Z AUTO 36007KT 1 1/2SM BR OVC004 16/15 A2984 RMK T01600150 MADISHF
LAF,2021-10-15 14:45,KLAF 151445Z AUTO 35008KT 1 1/2SM BR OVC004 16/15 A2984 RMK T01600150 MADISHF
LAF,2021-10-15 14:50,KLAF 151450Z AUTO 36009KT 2SM BR OVC004 16/15 A2985 RMK T01600150 MADISHF
LAF,2021-10-15 14:54,KLAF 151454Z 36006KT 2SM BR OVC004 16/15 A2985 RMK AO2 RAE01 SLP105 P0000 60000 T01560150 51003
LAF,2021-10-15 14:55,KLAF 151455Z AUTO 36004KT 6SM BR OVC004 16/15 A2985 RMK T01600150 MADISHF
LAF,2021-10-15 15:00,KLAF 151500Z AUTO 02008KT 2SM BR OVC004 16/15 A2985 RMK T01600150 MADISHF
LAF,2021-10-15 15:05,KLAF 151505Z AUTO 01005KT 2SM BR OVC004 16/15 A2984 RMK T01600150 MADISHF
LAF,2021-10-15 15:10,KLAF 151510Z AUTO 02005KT 2SM BR OVC004 16/15 A2984 RMK T01600150 MADISHF
LAF,2021-10-15 15:15,KLAF 151515Z AUTO 02007KT 2SM BR OVC004 16/15 A2984 RMK T01600150 MADISHF
LAF,2021-10-15 15:20,KLAF 151520Z AUTO 02007KT 2SM BR OVC004 16/15 A2984 RMK T01600150 MADISHF
LAF,2021-10-15 15:20,KLAF 151520Z 02007KT 2SM BR OVC005 16/15 A2984 RMK AO2 T01560150
LAF,2021-10-15 15:25,KLAF 151525Z AUTO 36005KT 2SM BR OVC004 16/15 A2984 RMK T01600150 MADISHF
LAF,2021-10-15 15:30,KLAF 151530Z AUTO 02005KT 2SM BR OVC004 16/15 A2984 RMK T01600150 MADISHF
LAF,2021-10-15 15:35,KLAF 151535Z AUTO 35005KT 2SM BR OVC004 16/16 A2984 RMK T01600160 MADISHF
LAF,2021-10-15 15:40,KLAF 151540Z AUTO 36004KT 2SM BR OVC004 16/16 A2984 RMK T01600160 MADISHF
LAF,2021-10-15 15:45,KLAF 151545Z AUTO 02004KT 2SM BR OVC004 16/16 A2984 RMK T01600160 MADISHF
LAF,2021-10-15 15:50,KLAF 151550Z AUTO 02005KT 5SM BR OVC004 16/16 A2984 RMK T01600160 MADISHF
LAF,2021-10-15 15:54,KLAF 151554Z 03005KT 4SM BR OVC005 16/16 A2984 RMK AO2 SLP102 T01610156
LAF,2021-10-15 15:55,KLAF 151555Z AUTO 03005KT 3SM BR OVC004 16/16 A2984 RMK T01600160 MADISHF
LAF,2021-10-15 16:00,KLAF 151600Z AUTO 02005KT 3SM BR OVC004 16/16 A2982 RMK T01600160 MADISHF
LAF,2021-10-15 16:05,KLAF 151605Z AUTO 35005KT 3SM BR OVC004 16/16 A2984 RMK T01600160 MADISHF
LAF,2021-10-15 16:10,KLAF 151610Z AUTO 34005KT 4SM BR OVC004 16/16 A2984 RMK T01600160 MADISHF
LAF,2021-10-15 16:15,KLAF 151615Z AUTO 35005KT 5SM BR OVC004 16/16 A2984 RMK T01600160 MADISHF
LAF,2021-10-15 16:20,KLAF 151620Z AUTO 33007KT 8SM OVC004 16/16 A2984 RMK T01600160 MADISHF
LAF,2021-10-15 16:25,KLAF 151625Z AUTO 35005KT 8SM OVC004 16/16 A2985 RMK T01600160 MADISHF
LAF,2021-10-15 16:30,KLAF 151630Z AUTO 33004KT 8SM OVC004 16/16 A2985 RMK T01600160 MADISHF
LAF,2021-10-15 16:35,KLAF 151635Z AUTO 34005KT 9SM OVC004 16/16 A2985 RMK T01600160 MADISHF
LAF,2021-10-15 16:40,KLAF 151640Z AUTO 32007KT 9SM OVC004 16/16 A2986 RMK T01600160 MADISHF
LAF,2021-10-15 16:45,KLAF 151645Z AUTO 36005KT 6SM BR OVC004 16/16 A2986 RMK T01600160 MADISHF
LAF,2021-10-15 16:50,KLAF 151650Z AUTO 33005KT 4SM BR OVC004 16/16 A2986 RMK T01600160 MADISHF
LAF,2021-10-15 16:54,KLAF 151654Z 35005KT 3SM BR OVC005 16/16 A2986 RMK AO2 SLP108 T01610156
LAF,2021-10-15 16:55,KLAF 151655Z AUTO 35005KT 3SM BR OVC004 16/16 A2986 RMK T01600160 MADISHF
LAF,2021-10-15 17:00,KLAF 151700Z AUTO 35005KT 2 1/2SM BR OVC004 16/16 A2985 RMK T01600160 MADISHF
LAF,2021-10-15 17:00,KLAF 151700Z 35005KT 2 1/2SM BR OVC004 16/16 A2985 RMK AO2 T01610156
LAF,2021-10-15 17:05,KLAF 151705Z AUTO 35002KT 2 1/2SM BR OVC004 16/16 A2985 RMK T01600160 MADISHF
LAF,2021-10-15 17:10,KLAF 151710Z AUTO 33007KT 2 1/2SM BR OVC004 17/16 A2985 RMK T01700160 MADISHF
LAF,2021-10-15 17:15,KLAF 151715Z AUTO 34005KT 2 1/2SM BR OVC004 17/16 A2986 RMK T01700160 MADISHF
LAF,2021-10-15 17:18,KLAF 151718Z 35006KT 9SM OVC005 17/16 A2985 RMK AO2 CIG 003V008 T01670156
LAF,2021-10-15 17:20,KLAF 151720Z AUTO 33005KT 4SM BR OVC004 17/16 A2986 RMK T01700160 CIG 3V8  MADISHF
LAF,2021-10-15 17:25,KLAF 151725Z AUTO 31005KT 4SM BR OVC004 17/16 A2986 RMK T01700160 MADISHF
LAF,2021-10-15 17:30,KLAF 151730Z AUTO 31005KT 4SM BR OVC004 16/16 A2986 RMK T01600160 MADISHF
LAF,2021-10-15 17:35,KLAF 151735Z AUTO 33005KT 4SM BR OVC004 16/16 A2986 RMK T01600160 MADISHF
LAF,2021-10-15 17:40,KLAF 151740Z AUTO 33005KT 4SM BR OVC004 17/16 A2986 RMK T01700160 MADISHF
LAF,2021-10-15 17:45,KLAF 151745Z AUTO 33005KT 5SM BR OVC006 17/16 A2986 RMK T01700160 MADISHF
LAF,2021-10-15 17:50,KLAF 151750Z AUTO 30005KT 2SM BR OVC003 16/16 A2986 RMK T01600160 MADISHF
LAF,2021-10-15 17:54,KLAF 151754Z 31005KT 2SM BR OVC003 16/16 A2986 RMK AO2 SLP108 60000 T01610156 10167 20156 53003
LAF,2021-10-15 17:55,KLAF 151755Z AUTO 31005KT 3SM BR OVC004 16/16 A2985 RMK T01600160 MADISHF
LAF,2021-10-15 18:00,KLAF 151800Z AUTO 32005KT 2SM BR OVC003 16/16 A2985 RMK T01600160 MADISHF
LAF,2021-10-15 18:01,KLAF 151801Z 33006KT 1 3/4SM BR OVC003 16/16 A2985 RMK AO2 T01610156
LAF,2021-10-15 18:05,KLAF 151805Z AUTO 33005KT 2SM -RA BR OVC003 16/16 A2985 RMK T01600160 MADISHF
LAF,2021-10-15 18:10,KLAF 151810Z AUTO 35004KT 2SM -RA BR OVC003 16/16 A2984 RMK T01600160 MADISHF
LAF,2021-10-15 18:15,KLAF 151815Z AUTO 34005KT 2SM -RA BR OVC003 16/16 A2984 RMK T01600160 MADISHF
LAF,2021-10-15 18:20,KLAF 151820Z AUTO 34005KT 2SM -RA BR OVC003 17/16 A2984 RMK T01700160 MADISHF
LAF,2021-10-15 18:25,KLAF 151825Z AUTO 31005KT 2SM BR OVC003 17/16 A2984 RMK T01700160 MADISHF
LAF,2021-10-15 18:30,KLAF 151830Z AUTO 30005KT 2SM -RA BR OVC003 17/16 A2985 RMK T01700160 MADISHF
LAF,2021-10-15 18:35,KLAF 151835Z AUTO 30005KT 2SM -RA BR OVC003 17/16 A2985 RMK T01700160 MADISHF
LAF,2021-10-15 18:40,KLAF 151840Z AUTO 31007KT 2SM BR OVC003 17/16 A2985 RMK T01700160 MADISHF
LAF,2021-10-15 18:45,KLAF 151845Z AUTO 31005KT 2SM -RA BR OVC003 17/16 A2985 RMK P0000 T01700160 MADISHF
LAF,2021-10-15 18:50,KLAF 151850Z AUTO 30004KT 2SM -RA BR OVC003 17/16 A2985 RMK P0000 T01700160 MADISHF
LAF,2021-10-15 18:54,KLAF 151854Z VRB04KT 1 3/4SM -RA BR OVC003 17/16 A2985 RMK AO2 RAB03 SLP105 P0001 T01670161
LAF,2021-10-15 18:55,KLAF 151855Z AUTO 27004KT 9SM -RA OVC011 17/16 A2985 RMK T01700160 MADISHF
LAF,2021-10-15 19:00,KLAF 151900Z AUTO 28005KT 10SM -RA SCT008 BKN013 OVC019 17/16 A2984 RMK T01700160 MADISHF
LAF,2021-10-15 19:01,KLAF 151901Z 29004KT 10SM -RA SCT008 BKN013 OVC019 17/16 A2984 RMK AO2 P0000 T01670161
LAF,2021-10-15 19:05,KLAF 151905Z AUTO 31004KT 10SM -RA BKN008 BKN013 OVC019 17/16 A2985 RMK T01700160 VRB04KT  MADISHF
LAF,2021-10-15 19:08,KLAF 151908Z 29005KT 10SM BKN008 BKN013 OVC019 17/16 A2985 RMK AO2 RAE06 P0000 T01720161
LAF,2021-10-15 19:10,KLAF 151910Z AUTO 29007KT 10SM BKN008 BKN013 OVC019 17/16 A2985 RMK T01700160 MADISHF
LAF,2021-10-15 19:15,KLAF 151915Z AUTO 31005KT 10SM BKN008 BKN013 OVC019 17/16 A2985 RMK T01700160 MADISHF
LAF,2021-10-15 19:20,KLAF 151920Z AUTO 32004KT 10SM BKN008 BKN013 OVC019 17/16 A2985 RMK T01700160 MADISHF
LAF,2021-10-15 19:25,KLAF 151925Z AUTO 32008KT 10SM BKN008 BKN013 OVC019 17/16 A2985 RMK T01700160 MADISHF
LAF,2021-10-15 19:30,KLAF 151930Z AUTO 32008KT 10SM BKN008 BKN013 OVC019 17/16 A2985 RMK T01700160 MADISHF
LAF,2021-10-15 19:35,KLAF 151935Z AUTO 32008KT 10SM BKN008 BKN013 OVC019 17/15 A2985 RMK T01700150 MADISHF
LAF,2021-10-15 19:40,KLAF 151940Z AUTO 33008KT 10SM BKN008 BKN013 OVC019 17/15 A2985 RMK T01700150 MADISHF
LAF,2021-10-15 19:45,KLAF 151945Z AUTO 32007KT 10SM OVC015 17/15 A2985 RMK T01700150 MADISHF
LAF,2021-10-15 19:50,KLAF 151950Z AUTO 32007KT 10SM OVC015 17/15 A2985 RMK T01700150 MADISHF
LAF,2021-10-15 19:51,KLAF 151951Z 32007KT 10SM OVC015 17/15 A2985 RMK AO2 RAE06 P0000
LAF,2021-10-15 19:54,KLAF 151954Z 32008KT 10SM OVC015 16/15 A2986 RMK AO2 RAE06 SLP109 P0000 T01610150
LAF,2021-10-15 19:55,KLAF 151955Z AUTO 32005KT 10SM OVC015 16/14 A2986 RMK T01600140 MADISHF
LAF,2021-10-15 20:00,KLAF 152000Z AUTO 32005KT 10SM OVC016 16/15 A2985 RMK T01600150 MADISHF
LAF,2021-10-15 20:05,KLAF 152005Z AUTO 33005KT 10SM BKN016 OVC022 17/15 A2985 RMK T01700150 MADISHF
LAF,2021-10-15 20:10,KLAF 152010Z AUTO 33005KT 10SM BKN016 OVC022 17/15 A2985 RMK T01700150 MADISHF
LAF,2021-10-15 20:15,KLAF 152015Z AUTO 32007KT 10SM SCT016 OVC022 17/15 A2985 RMK T01700150 MADISHF
LAF,2021-10-15 20:20,KLAF 152020Z AUTO 32009KT 10SM OVC022 17/14 A2985 RMK T01700140 MADISHF
LAF,2021-10-15 20:25,KLAF 152025Z AUTO 32008KT 10SM OVC022 17/15 A2985 RMK T01700150 MADISHF
LAF,2021-10-15 20:30,KLAF 152030Z AUTO 31008KT 10SM OVC024 17/15 A2985 RMK T01700150 MADISHF
LAF,2021-10-15 20:35,KLAF 152035Z AUTO 32005KT 10SM OVC024 17/15 A2985 RMK T01700150 MADISHF
LAF,2021-10-15 20:40,KLAF 152040Z AUTO 33005KT 10SM OVC024 17/15 A2985 RMK T01700150 MADISHF
LAF,2021-10-15 20:45,KLAF 152045Z AUTO 33005KT 10SM OVC024 17/15 A2985 RMK T01700150 MADISHF
LAF,2021-10-15 20:50,KLAF 152050Z AUTO 32002KT 10SM OVC025 17/14 A2985 RMK T01700140 MADISHF
LAF,2021-10-15 20:54,KLAF 152054Z 30004KT 10SM OVC025 17/15 A2985 RMK AO2 SLP105 60001 T01670150 50000
LAF,2021-10-15 20:55,KLAF 152055Z AUTO 30004KT 10SM OVC025 17/15 A2985 RMK T01700150 MADISHF
LAF,2021-10-15 21:00,KLAF 152100Z AUTO 31005KT 10SM OVC027 17/15 A2985 RMK T01700150 MADISHF
LAF,2021-10-15 21:05,KLAF 152105Z AUTO 30004KT 10SM OVC027 17/15 A2985 RMK T01700150 MADISHF
LAF,2021-10-15 21:10,KLAF 152110Z AUTO 00000KT 10SM OVC027 17/15 A2984 RMK T01700150 MADISHF
LAF,2021-10-15 21:15,KLAF 152115Z AUTO 33002KT 10SM FEW021 OVC027 17/15 A2984 RMK T01700150 MADISHF
LAF,2021-10-15 21:20,KLAF 152120Z AUTO 32004KT 10SM SCT016 OVC028 17/14 A2985 RMK T01700140 MADISHF
LAF,2021-10-15 21:25,KLAF 152125Z AUTO 31005KT 10SM SCT015 BKN019 OVC028 17/14 A2985 RMK T01700140 MADISHF
LAF,2021-10-15 21:30,KLAF 152130Z AUTO 32004KT 10SM BKN015 OVC028 17/14 A2985 RMK T01700140 MADISHF
LAF,2021-10-15 21:35,KLAF 152135Z AUTO 30005KT 10SM BKN013 OVC028 16/15 A2985 RMK T01600150 MADISHF
LAF,2021-10-15 21:40,KLAF 152140Z AUTO 31009KT 10SM BKN013 OVC028 16/14 A2985 RMK T01600140 MADISHF
LAF,2021-10-15 21:40,KLAF 152140Z 31009KT 10SM BKN013 OVC028 16/14 A2985 RMK AO2 T01610144
LAF,2021-10-15 21:45,KLAF 152145Z AUTO 30008KT 8SM OVC013 16/14 A2985 RMK T01600140 MADISHF
LAF,2021-10-15 21:50,KLAF 152150Z AUTO 30008KT 5SM BR FEW008 OVC013 16/14 A2985 RMK T01600140 MADISHF
LAF,2021-10-15 21:51,KLAF 152151Z 30009KT 4SM BR BKN008 OVC013 16/14 A2985 RMK AO2
LAF,2021-10-15 21:54,KLAF 152154Z 31009KT 3SM -RA BR BKN008 OVC013 16/14 A2985 RMK AO2 RAB53 SLP107 P0000 T01560144
LAF,2021-10-15 21:55,KLAF 152155Z AUTO 32010KT 3SM -RA BR FEW008 OVC013 16/14 A2985 RMK T01600140 MADISHF
LAF,2021-10-15 21:56,KLAF 152156Z 32010KT 2 1/2SM -RA BR BKN008 OVC013 16/14 A2985 RMK AO2 P0000 T01560144
LAF,2021-10-15 22:00,KLAF 152200Z AUTO 32010KT 2SM -RA BR BKN008 OVC013 15/14 A2985 RMK T01500140 MADISHF
LAF,2021-10-15 22:05,KLAF 152205Z AUTO 32008KT 2SM -RA BR BKN008 OVC013 15/14 A2985 RMK T01500140 MADISHF
LAF,2021-10-15 22:10,KLAF 152210Z AUTO 33007KT 2 1/2SM -RA BR BKN008 OVC013 15/14 A2985 RMK T01500140 MADISHF
LAF,2021-10-15 22:15,KLAF 152215Z AUTO 34008KT 2 1/2SM -RA BR BKN008 OVC013 15/14 A2985 RMK T01500140 MADISHF
LAF,2021-10-15 22:20,KLAF 152220Z AUTO 34009G14KT 2 1/2SM -RA BR BKN008 OVC013 15/14 A2985 RMK T01500140 MADISHF
LAF,2021-10-15 22:25,KLAF 152225Z AUTO 34009KT 2 1/2SM -RA BR BKN008 OVC013 15/14 A2985 RMK T01500140 MADISHF
LAF,2021-10-15 22:30,KLAF 152230Z AUTO 35010KT 3SM -RA BR BKN008 OVC013 14/14 A2985 RMK T01400140 MADISHF
LAF,2021-10-15 22:35,KLAF 152235Z AUTO 01008KT 5SM BR BKN008 OVC013 15/14 A2984 RMK T01500140 MADISHF
LAF,2021-10-15 22:35,KLAF 152235Z 01008KT 5SM BR BKN008 OVC013 15/14 A2984 RMK AO2 RAE33 P0000 T01500139
LAF,2021-10-15 22:40,KLAF 152240Z AUTO 36007KT 10SM BKN006 BKN018 OVC038 15/14 A2984 RMK T01500140 MADISHF
LAF,2021-10-15 22:45,KLAF 152245Z AUTO 36005KT 10SM BKN006 BKN018 OVC038 15/14 A2985 RMK T01500140 MADISHF
LAF,2021-10-15 22:50,KLAF 152250Z AUTO 33004KT 10SM BKN006 BKN018 OVC038 15/14 A2985 RMK T01500140 MADISHF
LAF,2021-10-15 22:54,KLAF 152254Z 32003KT 10SM BKN006 BKN018 OVC038 15/14 A2985 RMK AO2 RAE33 SLP107 P0000 T01500144
LAF,2021-10-15 22:55,KLAF 152255Z AUTO 32004KT 10SM FEW018 BKN024 OVC038 15/14 A2985 RMK T01500140 MADISHF
LAF,2021-10-15 23:00,KLAF 152300Z AUTO 33004KT 10SM BKN024 OVC038 15/14 A2985 RMK T01500140 MADISHF
LAF,2021-10-15 23:01,KLAF 152301Z 33004KT 10SM BKN024 OVC038 15/14 A2985 RMK AO2 T01500144
LAF,2021-10-15 23:05,KLAF 152305Z AUTO 00000KT 10SM BKN024 OVC037 15/14 A2985 RMK T01500140 MADISHF
LAF,2021-10-15 23:10,KLAF 152310Z AUTO 00000KT 10SM OVC026 15/14 A2986 RMK T01500140 MADISHF
LAF,2021-10-15 23:15,KLAF 152315Z AUTO 33004KT 10SM OVC026 15/14 A2985 RMK T01500140 MADISHF
LAF,2021-10-15 23:20,KLAF 152320Z AUTO 34005KT 10SM OVC026 15/14 A2985 RMK T01500140 MADISHF
LAF,2021-10-15 23:25,KLAF 152325Z AUTO 33007KT 10SM OVC028 15/14 A2986 RMK T01500140 MADISHF
LAF,2021-10-15 23:30,KLAF 152330Z AUTO 32005KT 10SM OVC028 15/14 A2986 RMK T01500140 MADISHF
LAF,2021-10-15 23:35,KLAF 152335Z AUTO 32005KT 10SM OVC028 15/14 A2986 RMK T01500140 MADISHF
LAF,2021-10-15 23:40,KLAF 152340Z AUTO 31005KT 10SM OVC030 15/14 A2986 RMK T01500140 MADISHF
LAF,2021-10-15 23:42,KLAF 152342Z 31005KT 10SM -RA OVC030 15/14 A2987 RMK AO2 RAB42 P0000 T01500139
LAF,2021-10-15 23:45,KLAF 152345Z AUTO 29005KT 8SM -RA FEW021 OVC030 15/14 A2987 RMK P0000 T01500140 MADISHF
LAF,2021-10-15 23:50,KLAF 152350Z AUTO 27005KT 7SM -RA FEW015 SCT021 OVC030 15/14 A2987 RMK P0000 T01500140 MADISHF
LAF,2021-10-15 23:54,KLAF 152354Z 27004KT 5SM -RA BR SCT013 BKN021 OVC030 15/14 A2989 RMK AO2 RAB42 PRESRR SLP118 P0001 60002 T01500144 10172 20144 53013
LAF,2021-10-15 23:55,KLAF 152355Z AUTO 27005KT 4SM -RA BR SCT013 BKN021 OVC030 15/14 A2988 RMK P0000 T01500140 MADISHF
LAF,2021-10-15 23:59,KLAF 152359Z 28005KT 2 1/2SM +RA BR BKN013 BKN019 OVC031 14/14 A2989 RMK AO2 P0002 T01440144
LAF,2021-10-16 00:00,KLAF 160000Z AUTO 28004KT 2 1/2SM +RA BR BKN013 BKN019 OVC031 14/14 A2988 RMK P0002 T01400140 MADISHF
LAF,2021-10-16 00:05,KLAF 160005Z 30004KT 3SM RA BR SCT012 BKN019 OVC031 14/14 A2988 RMK AO2 P0003 T01440144
LAF,2021-10-16 00:05,KLAF 160005Z AUTO 30004KT 3SM RA BR SCT012 BKN019 OVC031 14/14 A2987 RMK P0002 T01400140 MADISHF
LAF,2021-10-16 00:10,KLAF 160010Z AUTO 34005KT 3SM -RA BR SCT012 BKN021 OVC033 14/14 A2987 RMK P0003 T01400140 VRB06KT  MADISHF
LAF,2021-10-16 00:15,KLAF 160015Z AUTO 01005KT 3SM -RA BR SCT012 BKN021 OVC049 14/14 A2986 RMK P0003 T01400140 MADISHF
LAF,2021-10-16 00:20,KLAF 160020Z AUTO 35005KT 5SM -RA BR SCT009 BKN026 OVC049 14/14 A2986 RMK P0003 T01400140 MADISHF
LAF,2021-10-16 00:25,KLAF 160025Z AUTO 33005KT 8SM -RA BKN009 BKN019 OVC036 14/14 A2987 RMK P0003 T01400140 MADISHF
LAF,2021-10-16 00:29,KLAF 160029Z 34009G14KT 10SM BKN010 BKN019 OVC036 14/14 A2988 RMK AO2 RAE29 P0004 T01440139
LAF,2021-10-16 00:30,KLAF 160030Z AUTO 34010KT 10SM SCT009 BKN019 OVC036 14/14 A2987 RMK P0003 T01400140 MADISHF
LAF,2021-10-16 00:33,KLAF 160033Z 36012KT 10SM SCT008 BKN027 OVC038 14/13 A2987 RMK AO2 RAE29 P0004 T01440133
LAF,2021-10-16 00:35,KLAF 160035Z AUTO 35008KT 10SM SCT009 BKN030 OVC038 14/13 A2987 RMK P0003 T01400130 MADISHF
LAF,2021-10-16 00:40,KLAF 160040Z AUTO 35008KT 10SM FEW008 BKN033 OVC046 14/13 A2987 RMK P0003 T01400130 MADISHF
LAF,2021-10-16 00:45,KLAF 160045Z AUTO 36007KT 10SM FEW008 SCT013 OVC036 14/13 A2987 RMK P0003 T01400130 MADISHF
LAF,2021-10-16 00:46,KLAF 160046Z 36006KT 10SM FEW008 SCT027 OVC036 14/13 A2988 RMK AO2 RAE29 P0004 T01440133
LAF,2021-10-16 00:50,KLAF 160050Z AUTO 36007KT 10SM FEW008 SCT029 OVC039 14/13 A2987 RMK P0005 T01400130 MADISHF
LAF,2021-10-16 00:54,KLAF 160054Z 35006KT 10SM FEW008 SCT032 OVC041 14/13 A2988 RMK AO2 RAE29 SLP115 P0005 T01440133
LAF,2021-10-16 00:55,KLAF 160055Z AUTO 35007KT 10SM FEW027 BKN036 OVC043 14/13 A2987 RMK T01400130 MADISHF
LAF,2021-10-16 01:00,KLAF 160100Z AUTO 31008KT 10SM SCT035 OVC043 14/13 A2988 RMK T01400130 MADISHF
LAF,2021-10-16 01:05,KLAF 160105Z AUTO 33007KT 9SM -RA BKN039 OVC048 14/13 A2988 RMK T01400130 MADISHF
LAF,2021-10-16 01:10,KLAF 160110Z AUTO 31005KT 5SM RA BR BKN042 OVC050 14/13 A2989 RMK P0001 T01400130 MADISHF
LAF,2021-10-16 01:15,KLAF 160115Z AUTO 32007KT 4SM RA BR SCT042 OVC050 14/13 A2989 RMK P0002 T01400130 MADISHF
LAF,2021-10-16 01:20,KLAF 160120Z AUTO 33008KT 4SM RA BR BKN047 OVC055 14/13 A2988 RMK P0003 T01400130 MADISHF
LAF,2021-10-16 01:25,KLAF 160125Z AUTO 34010KT 5SM RA BR OVC050 14/13 A2988 RMK P0005 T01400130 MADISHF
LAF,2021-10-16 01:30,KLAF 160130Z AUTO 35010KT 6SM -RA BR OVC055 14/13 A2988 RMK P0005 T01400130 MADISHF
LAF,2021-10-16 01:35,KLAF 160135Z AUTO 35010KT 8SM -RA BKN055 OVC070 13/13 A2988 RMK P0005 T01300130 MADISHF
LAF,2021-10-16 01:40,KLAF 160140Z AUTO 35010KT 8SM -RA BKN060 OVC070 13/13 A2989 RMK P0005 T01300130 MADISHF
LAF,2021-10-16 01:45,KLAF 160145Z AUTO 33011G16KT 6SM RA BR FEW016 BKN060 OVC075 13/13 A2987 RMK P0007 T01300130 MADISHF
LAF,2021-10-16 01:50,KLAF 160150Z AUTO 34011KT 6SM RA BR SCT013 BKN060 OVC070 13/12 A2988 RMK P0007 T01300120 MADISHF
LAF,2021-10-16 01:54,KLAF 160154Z AUTO 32008G22KT 6SM RA BR SCT013 BKN035 OVC070 13/12 A2991 RMK AO2 RAB01 SLP127 P0008 T01330122
LAF,2021-10-16 01:55,KLAF 160155Z AUTO 32009KT 6SM -RA BR SCT013 BKN035 OVC079 13/12 A2990 RMK T01300120 MADISHF
LAF,2021-10-16 02:00,KLAF 160200Z AUTO 34009KT 6SM -RA BR FEW013 BKN055 OVC070 13/12 A2990 RMK P0000 T01300120 MADISHF
LAF,2021-10-16 02:05,KLAF 160205Z AUTO 34011KT 6SM RA BR FEW013 BKN049 OVC070 13/12 A2989 RMK P0000 T01300120 MADISHF
LAF,2021-10-16 02:10,KLAF 160210Z AUTO 34013KT 7SM -RA FEW013 BKN055 OVC085 13/11 A2989 RMK P0001 T01300110 MADISHF
LAF,2021-10-16 02:15,KLAF 160215Z AUTO 33009KT 10SM -RA FEW011 BKN070 OVC085 12/11 A2992 RMK P0001 T01200110 MADISHF
LAF,2021-10-16 02:20,KLAF 160220Z AUTO 32007KT 10SM -RA FEW039 BKN070 OVC085 12/11 A2993 RMK P0001 T01200110 MADISHF
LAF,2021-10-16 02:25,KLAF 160225Z AUTO 32004KT 10SM -RA FEW037 BKN075 OVC085 12/11 A2993 RMK P0002 T01200110 MADISHF
LAF,2021-10-16 02:30,KLAF 160230Z AUTO 33005KT 9SM -RA BKN070 OVC085 12/11 A2993 RMK P0002 T01200110 MADISHF
LAF,2021-10-16 02:35,KLAF 160235Z AUTO 33005KT 8SM -RA BKN070 OVC085 12/11 A2992 RMK P0003 T01200110 MADISHF
LAF,2021-10-16 02:40,KLAF 160240Z AUTO 32005KT 6SM RA BR OVC070 12/11 A2993 RMK P0005 T01200110 MADISHF
LAF,2021-10-16 02:45,KLAF 160245Z AUTO 30004KT 5SM RA BR OVC070 12/11 A2993 RMK P0005 T01200110 MADISHF
LAF,2021-10-16 02:50,KLAF 160250Z AUTO 33005KT 6SM -RA BR OVC070 12/11 A2993 RMK P0005 T01200110 MADISHF
LAF,2021-10-16 02:54,KLAF 160254Z AUTO 32007KT 7SM -RA BKN070 OVC085 12/11 A2994 RMK AO2 SLP136 P0007 60020 T01170106 53017
LAF,2021-10-16 02:55,KLAF 160255Z AUTO 31007KT 8SM -RA BKN070 OVC085 12/11 A2994 RMK T01200110 MADISHF
LAF,2021-10-16 03:00,KLAF 160300Z AUTO 31007KT 8SM -RA FEW016 OVC075 12/11 A2992 RMK T01200110 MADISHF
LAF,2021-10-16 03:05,KLAF 160305Z AUTO 32007KT 8SM -RA FEW016 SCT060 OVC075 12/11 A2993 RMK P0000 T01200110 MADISHF
LAF,2021-10-16 03:10,KLAF 160310Z AUTO 31007KT 6SM RA BR FEW016 OVC070 11/11 A2993 RMK P0001 T01100110 MADISHF
LAF,2021-10-16 03:15,KLAF 160315Z AUTO 30005KT 5SM RA BR FEW018 BKN065 OVC079 11/11 A2993 RMK P0002 T01100110 MADISHF
LAF,2021-10-16 03:20,KLAF 160320Z AUTO 31005KT 6SM RA BR FEW015 BKN065 OVC079 11/11 A2992 RMK P0003 T01100110 MADISHF
LAF,2021-10-16 03:25,KLAF 160325Z AUTO 31008KT 6SM RA BR FEW015 OVC060 11/11 A2993 RMK P0005 T01100110 MADISHF
LAF,2021-10-16 03:30,KLAF 160330Z AUTO 31010G15KT 6SM RA BR FEW015 OVC065 11/11 A2992 RMK P0005 T01100110 MADISHF
LAF,2021-10-16 03:35,KLAF 160335Z AUTO 32008KT 5SM RA BR BKN065 OVC085 11/10 A2993 RMK P0007 T01100100 MADISHF
LAF,2021-10-16 03:40,KLAF 160340Z AUTO 32005KT 6SM RA BR BKN060 OVC085 11/10 A2993 RMK P0007 T01100100 MADISHF
LAF,2021-10-16 03:45,KLAF 160345Z AUTO 31007KT 7SM -RA SCT065 OVC079 11/09 A2994 RMK P0009 T01100090 MADISHF
LAF,2021-10-16 03:50,KLAF 160350Z AUTO 32008KT 9SM -RA SCT065 OVC079 11/09 A2993 RMK P0009 T01100090 MADISHF
LAF,2021-10-16 03:54,KLAF 160354Z AUTO 32006KT 9SM -RA FEW065 OVC085 11/09 A2993 RMK AO2 SLP134 P0009 T01060094
LAF,2021-10-16 03:55,KLAF 160355Z AUTO 32005KT 10SM -RA FEW065 OVC085 11/09 A2993 RMK P0000 T01100090 MADISHF
LAF,2021-10-16 04:00,KLAF 160400Z AUTO 31005KT 10SM -RA FEW070 OVC085 11/09 A2993 RMK P0000 T01100090 MADISHF
LAF,2021-10-16 04:05,KLAF 160405Z AUTO 31005KT 10SM -RA BKN079 OVC090 11/09 A2992 RMK P0000 T01100090 MADISHF
LAF,2021-10-16 04:10,KLAF 160410Z AUTO 31002KT 10SM -RA OVC075 11/09 A2993 RMK P0000 T01100090 MADISHF
LAF,2021-10-16 04:15,KLAF 160415Z AUTO 00000KT 10SM -RA BKN070 OVC085 11/10 A2993 RMK P0000 T01100100 MADISHF
LAF,2021-10-16 04:20,KLAF 160420Z AUTO 30002KT 10SM -RA BKN070 OVC085 11/10 A2993 RMK P0000 T01100100 MADISHF
LAF,2021-10-16 04:25,KLAF 160425Z AUTO 30004KT 10SM -RA OVC070 11/10 A2993 RMK P0000 T01100100 MADISHF
LAF,2021-10-16 04:30,KLAF 160430Z AUTO 29005KT 10SM -RA OVC065 11/10 A2994 RMK P0000 T01100100 MADISHF
LAF,2021-10-16 04:35,KLAF 160435Z AUTO 28004KT 10SM -RA OVC065 11/10 A2993 RMK P0000 T01100100 MADISHF
LAF,2021-10-16 04:40,KLAF 160440Z AUTO 29004KT 10SM -RA OVC060 11/10 A2993 RMK P0000 T01100100 MADISHF
LAF,2021-10-16 04:45,KLAF 160445Z AUTO 29005KT 10SM -RA BKN065 OVC075 11/10 A2993 RMK P0000 T01100100 MADISHF
LAF,2021-10-16 04:50,KLAF 160450Z AUTO 29005KT 10SM -RA BKN060 OVC075 11/10 A2992 RMK P0001 T01100100 MADISHF
LAF,2021-10-16 04:54,KLAF 160454Z AUTO 30004KT 10SM -RA SCT060 OVC075 11/10 A2992 RMK AO2 SLP129 P0002 T01060100 401720106
LAF,2021-10-16 04:55,KLAF 160455Z AUTO 30002KT 10SM -RA SCT060 OVC075 11/10 A2990 RMK T01100100 MADISHF
LAF,2021-10-16 05:00,KLAF 160500Z AUTO 30004KT 10SM -RA FEW060 OVC075 11/10 A2990 RMK T01100100 MADISHF
LAF,2021-10-16 05:05,KLAF 160505Z AUTO 27005KT 10SM -RA OVC079 11/10 A2992 RMK T01100100 MADISHF
LAF,2021-10-16 05:10,KLAF 160510Z AUTO 00000KT 10SM -RA OVC079 11/10 A2992 RMK T01100100 MADISHF
LAF,2021-10-16 05:15,KLAF 160515Z AUTO 26002KT 10SM -RA OVC079 11/10 A2992 RMK T01100100 MADISHF
LAF,2021-10-16 05:20,KLAF 160520Z AUTO 00000KT 10SM OVC085 11/10 A2992 RMK T01100100 MADISHF
LAF,2021-10-16 05:25,KLAF 160525Z AUTO 00000KT 10SM FEW070 OVC085 11/10 A2990 RMK T01100100 MADISHF
LAF,2021-10-16 05:30,KLAF 160530Z AUTO 25002KT 10SM -RA OVC085 11/10 A2992 RMK T01100100 MADISHF
LAF,2021-10-16 05:35,KLAF 160535Z AUTO 30005KT 10SM -RA OVC090 11/10 A2990 RMK T01100100 MADISHF
LAF,2021-10-16 05:40,KLAF 160540Z AUTO 27005KT 10SM -RA SCT070 OVC090 11/09 A2992 RMK T01100090 MADISHF
LAF,2021-10-16 05:45,KLAF 160545Z AUTO 28005KT 10SM -RA BKN065 OVC090 11/09 A2993 RMK T01100090 MADISHF
LAF,2021-10-16 05:50,KLAF 160550Z AUTO 27007KT 10SM -RA BKN060 BKN075 OVC090 11/09 A2993 RMK T01100090 MADISHF
LAF,2021-10-16 05:54,KLAF 160554Z AUTO 28007KT 10SM BKN060 OVC090 11/09 A2994 RMK AO2 RAE51 SLP136 P0000 60031 T01060089 10150 20106 55000
LAF,2021-10-16 05:55,KLAF 160555Z AUTO 29007KT 10SM BKN060 OVC090 11/09 A2994 RMK T01100090 MADISHF
LAF,2021-10-16 06:00,KLAF 160600Z AUTO 28005KT 10SM BKN060 OVC090 11/09 A2993 RMK T01100090 MADISHF
LAF,2021-10-16 06:05,KLAF 160605Z AUTO 28005KT 10SM OVC060 11/09 A2993 RMK T01100090 MADISHF
LAF,2021-10-16 06:10,KLAF 160610Z AUTO 29004KT 10SM OVC060 11/09 A2993 RMK T01100090 MADISHF
LAF,2021-10-16 06:15,KLAF 160615Z AUTO 29007KT 10SM OVC060 11/09 A2993 RMK T01100090 MADISHF
LAF,2021-10-16 06:20,KLAF 160620Z AUTO 29005KT 10SM OVC060 11/09 A2993 RMK T01100090 MADISHF
LAF,2021-10-16 06:25,KLAF 160625Z AUTO 30005KT 10SM OVC060 11/09 A2993 RMK T01100090 MADISHF
LAF,2021-10-16 06:30,KLAF 160630Z AUTO 27005KT 10SM OVC060 11/09 A2993 RMK T01100090 MADISHF
LAF,2021-10-16 06:35,KLAF 160635Z AUTO 27005KT 10SM OVC060 11/09 A2994 RMK T01100090 MADISHF
LAF,2021-10-16 06:40,KLAF 160640Z AUTO 28005KT 10SM OVC060 11/09 A2994 RMK T01100090 MADISHF
LAF,2021-10-16 06:45,KLAF 160645Z AUTO 28005KT 10SM OVC060 10/09 A2994 RMK T01000090 MADISHF
LAF,2021-10-16 06:50,KLAF 160650Z AUTO 29005KT 10SM OVC060 10/09 A2993 RMK T01000090 MADISHF
LAF,2021-10-16 06:54,KLAF 160654Z AUTO 30006KT 10SM OVC065 11/09 A2993 RMK AO2 SLP135 T01060089
LAF,2021-10-16 06:55,KLAF 160655Z AUTO 29005KT 10SM OVC065 11/09 A2993 RMK T01100090 MADISHF
LAF,2021-10-16 07:00,KLAF 160700Z AUTO 28005KT 10SM OVC065 10/09 A2993 RMK T01000090 MADISHF
LAF,2021-10-16 07:05,KLAF 160705Z AUTO 28007KT 10SM BKN065 OVC079 10/08 A2994 RMK T01000080 MADISHF
LAF,2021-10-16 07:10,KLAF 160710Z AUTO 28008KT 10SM BKN065 BKN079 10/08 A2994 RMK T01000080 MADISHF
LAF,2021-10-16 07:15,KLAF 160715Z AUTO 28008KT 10SM SCT065 10/08 A2994 RMK T01000080 MADISHF
LAF,2021-10-16 07:20,KLAF 160720Z AUTO 28007KT 10SM SCT065 10/08 A2994 RMK T01000080 MADISHF
LAF,2021-10-16 07:25,KLAF 160725Z AUTO 28005KT 10SM FEW070 09/08 A2993 RMK T00900080 MADISHF
LAF,2021-10-16 07:30,KLAF 160730Z AUTO 28005KT 10SM FEW079 09/08 A2994 RMK T00900080 MADISHF
LAF,2021-10-16 07:35,KLAF 160735Z AUTO 28005KT 10SM CLR 09/08 A2993 RMK T00900080 MADISHF
LAF,2021-10-16 07:40,KLAF 160740Z AUTO 28005KT 10SM CLR 09/08 A2993 RMK T00900080 MADISHF
LAF,2021-10-16 07:45,KLAF 160745Z AUTO 28005KT 10SM CLR 09/08 A2993 RMK T00900080 MADISHF
LAF,2021-10-16 07:50,KLAF 160750Z AUTO 28005KT 10SM CLR 09/08 A2993 RMK T00900080 MADISHF
LAF,2021-10-16 07:54,KLAF 160754Z AUTO 28007KT 10SM CLR 09/08 A2993 RMK AO2 SLP136 T00890078
LAF,2021-10-16 07:55,KLAF 160755Z AUTO 28007KT 10SM CLR 09/08 A2993 RMK T00900080 MADISHF
LAF,2021-10-16 08:00,KLAF 160800Z AUTO 28007KT 10SM CLR 09/08 A2993 RMK T00900080 MADISHF
LAF,2021-10-16 08:05,KLAF 160805Z AUTO 28005KT 10SM CLR 09/08 A2993 RMK T00900080 MADISHF
LAF,2021-10-16 08:10,KLAF 160810Z AUTO 27005KT 10SM CLR 09/07 A2993 RMK T00900070 MADISHF
LAF,2021-10-16 08:15,KLAF 160815Z AUTO 28007KT 10SM CLR 09/07 A2993 RMK T00900070 MADISHF
LAF,2021-10-16 08:20,KLAF 160820Z AUTO 28007KT 10SM CLR 09/07 A2993 RMK T00900070 MADISHF
LAF,2021-10-16 08:25,KLAF 160825Z AUTO 29007KT 10SM CLR 09/07 A2993 RMK T00900070 MADISHF
LAF,2021-10-16 08:30,KLAF 160830Z AUTO 28007KT 10SM CLR 09/07 A2993 RMK T00900070 MADISHF
LAF,2021-10-16 08:35,KLAF 160835Z AUTO 28007KT 10SM CLR 08/07 A2993 RMK T00800070 MADISHF
LAF,2021-10-16 08:40,KLAF 160840Z AUTO 28007KT 10SM CLR 08/07 A2993 RMK T00800070 MADISHF
LAF,2021-10-16 08:45,KLAF 160845Z AUTO 28007KT 10SM CLR 08/07 A2993 RMK T00800070 MADISHF
LAF,2021-10-16 08:50,KLAF 160850Z AUTO 28007KT 10SM CLR 08/07 A2993 RMK T00800070 MADISHF
LAF,2021-10-16 08:54,KLAF 160854Z AUTO 29006KT 10SM CLR 08/07 A2993 RMK AO2 SLP137 T00830067 55001
LAF,2021-10-16 08:55,KLAF 160855Z AUTO 28005KT 10SM CLR 08/07 A2993 RMK T00800070 MADISHF
LAF,2021-10-16 09:00,KLAF 160900Z AUTO 28005KT 10SM CLR 08/07 A2994 RMK T00800070 MADISHF
LAF,2021-10-16 09:05,KLAF 160905Z AUTO 28007KT 10SM CLR 08/06 A2994 RMK T00800060 MADISHF
LAF,2021-10-16 09:10,KLAF 160910Z AUTO 29008KT 10SM CLR 08/06 A2994 RMK T00800060 MADISHF
LAF,2021-10-16 09:15,KLAF 160915Z AUTO 29008KT 10SM CLR 08/06 A2994 RMK T00800060 MADISHF
LAF,2021-10-16 09:20,KLAF 160920Z AUTO 29008KT 10SM CLR 08/06 A2994 RMK T00800060 MADISHF
LAF,2021-10-16 09:25,KLAF 160925Z AUTO 29008KT 10SM CLR 08/06 A2994 RMK T00800060 MADISHF
LAF,2021-10-16 09:30,KLAF 160930Z AUTO 29008KT 10SM CLR 08/06 A2995 RMK T00800060 MADISHF
LAF,2021-10-16 09:35,KLAF 160935Z AUTO 29008KT 10SM CLR 08/06 A2995 RMK T00800060 MADISHF
LAF,2021-10-16 09:40,KLAF 160940Z AUTO 29008KT 10SM CLR 08/06 A2995 RMK T00800060 MADISHF
LAF,2021-10-16 09:45,KLAF 160945Z AUTO 29007KT 10SM CLR 08/06 A2995 RMK T00800060 MADISHF
LAF,2021-10-16 09:50,KLAF 160950Z AUTO 29009KT 10SM CLR 08/06 A2995 RMK T00800060 MADISHF
LAF,2021-10-16 09:54,KLAF 160954Z AUTO 29008KT 10SM CLR 08/05 A2995 RMK AO2 SLP143 T00780050
LAF,2021-10-16 09:55,KLAF 160955Z AUTO 29008KT 10SM CLR 07/05 A2995 RMK T00700050 MADISHF
LAF,2021-10-16 10:00,KLAF 161000Z AUTO 29008KT 10SM CLR 07/05 A2995 RMK T00700050 MADISHF
LAF,2021-10-16 10:05,KLAF 161005Z AUTO 29009KT 10SM CLR 08/05 A2995 RMK T00800050 MADISHF
LAF,2021-10-16 10:10,KLAF 161010Z AUTO 28008KT 10SM CLR 07/05 A2995 RMK T00700050 MADISHF
LAF,2021-10-16 10:15,KLAF 161015Z AUTO 29010KT 10SM CLR 07/05 A2995 RMK T00700050 MADISHF
LAF,2021-10-16 10:20,KLAF 161020Z AUTO 28008KT 10SM CLR 07/05 A2995 RMK T00700050 MADISHF
LAF,2021-10-16 10:25,KLAF 161025Z AUTO 29008KT 10SM CLR 07/05 A2995 RMK T00700050 MADISHF
LAF,2021-10-16 10:30,KLAF 161030Z AUTO 28007KT 10SM CLR 07/05 A2995 RMK T00700050 MADISHF
LAF,2021-10-16 10:35,KLAF 161035Z AUTO 28008KT 10SM CLR 07/05 A2996 RMK T00700050 MADISHF
LAF,2021-10-16 10:40,KLAF 161040Z AUTO 28009KT 10SM CLR 07/05 A2996 RMK T00700050 MADISHF
LAF,2021-10-16 10:45,KLAF 161045Z AUTO 28008KT 10SM CLR 07/05 A2996 RMK T00700050 MADISHF
LAF,2021-10-16 10:50,KLAF 161050Z AUTO 29008KT 10SM CLR 07/05 A2996 RMK T00700050 MADISHF
LAF,2021-10-16 10:54,KLAF 161054Z AUTO 28007KT 10SM CLR 07/05 A2997 RMK AO2 SLP149 T00670050
LAF,2021-10-16 10:55,KLAF 161055Z AUTO 28008KT 10SM CLR 07/05 A2996 RMK T00700050 MADISHF
LAF,2021-10-16 11:00,KLAF 161100Z AUTO 29009KT 10SM CLR 07/05 A2997 RMK T00700050 MADISHF
LAF,2021-10-16 11:05,KLAF 161105Z AUTO 29010KT 10SM CLR 07/04 A2997 RMK T00700040 MADISHF
LAF,2021-10-16 11:10,KLAF 161110Z AUTO 29009KT 10SM CLR 07/04 A2997 RMK T00700040 MADISHF
LAF,2021-10-16 11:15,KLAF 161115Z AUTO 28008KT 10SM CLR 07/04 A2997 RMK T00700040 MADISHF
LAF,2021-10-16 11:20,KLAF 161120Z AUTO 28008KT 10SM CLR 07/04 A2997 RMK T00700040 MADISHF
LAF,2021-10-16 11:25,KLAF 161125Z AUTO 28008KT 10SM CLR 07/04 A2998 RMK T00700040 MADISHF
LAF,2021-10-16 11:30,KLAF 161130Z AUTO 28009KT 10SM CLR 07/04 A2998 RMK T00700040 MADISHF
LAF,2021-10-16 11:35,KLAF 161135Z AUTO 28008KT 10SM CLR 07/04 A2998 RMK T00700040 MADISHF
LAF,2021-10-16 11:40,KLAF 161140Z AUTO 27007KT 10SM CLR 06/04 A2998 RMK T00600040 MADISHF
LAF,2021-10-16 11:45,KLAF 161145Z AUTO 28007KT 10SM CLR 06/04 A2998 RMK T00600040 MADISHF
LAF,2021-10-16 11:50,KLAF 161150Z AUTO 28007KT 10SM CLR 06/04 A3000 RMK T00600040 MADISHF
LAF,2021-10-16 11:54,KLAF 161154Z 28007KT 10SM CLR 06/04 A3000 RMK AO2 SLP159 70033 T00610044 10106 20061 53021
LAF,2021-10-16 11:55,KLAF 161155Z AUTO 28007KT 10SM CLR 06/04 A3000 RMK T00600040 MADISHF
LAF,2021-10-16 12:00,KLAF 161200Z AUTO 28007KT 10SM CLR 06/04 A3000 RMK T00600040 MADISHF
LAF,2021-10-16 12:05,KLAF 161205Z AUTO 28007KT 10SM CLR 06/04 A3000 RMK T00600040 MADISHF
LAF,2021-10-16 12:10,KLAF 161210Z AUTO 27008KT 10SM CLR 06/04 A3000 RMK T00600040 MADISHF
LAF,2021-10-16 12:15,KLAF 161215Z AUTO 28007KT 10SM CLR 06/04 A3001 RMK T00600040 MADISHF
LAF,2021-10-16 12:20,KLAF 161220Z AUTO 28007KT 10SM CLR 06/04 A3001 RMK T00600040 MADISHF
LAF,2021-10-16 12:25,KLAF 161225Z AUTO 28007KT 10SM CLR 06/04 A3001 RMK T00600040 MADISHF
LAF,2021-10-16 12:30,KLAF 161230Z AUTO 27007KT 10SM CLR 06/04 A3001 RMK T00600040 MADISHF
LAF,2021-10-16 12:35,KLAF 161235Z AUTO 27007KT 10SM CLR 07/04 A3002 RMK T00700040 MADISHF
LAF,2021-10-16 12:40,KLAF 161240Z AUTO 26007KT 10SM CLR 07/04 A3002 RMK T00700040 MADISHF
LAF,2021-10-16 12:45,KLAF 161245Z AUTO 27007KT 10SM CLR 07/04 A3002 RMK T00700040 MADISHF
LAF,2021-10-16 12:50,KLAF 161250Z AUTO 27007KT 10SM CLR 07/04 A3003 RMK T00700040 MADISHF
LAF,2021-10-16 12:54,KLAF 161254Z 27007KT 10SM CLR 07/04 A3003 RMK AO2 SLP169 T00670044
LAF,2021-10-16 12:55,KLAF 161255Z AUTO 26007KT 10SM CLR 07/04 A3003 RMK T00700040 MADISHF
LAF,2021-10-16 13:00,KLAF 161300Z AUTO 27007KT 10SM CLR 07/04 A3003 RMK T00700040 MADISHF
LAF,2021-10-16 13:05,KLAF 161305Z AUTO 27005KT 10SM CLR 07/04 A3003 RMK T00700040 MADISHF
LAF,2021-10-16 13:10,KLAF 161310Z AUTO 27008KT 10SM CLR 07/05 A3003 RMK T00700050 MADISHF
LAF,2021-10-16 13:15,KLAF 161315Z AUTO 28008KT 10SM CLR 07/04 A3003 RMK T00700040 MADISHF
LAF,2021-10-16 13:20,KLAF 161320Z AUTO 28008KT 10SM CLR 08/05 A3004 RMK T00800050 MADISHF
LAF,2021-10-16 13:25,KLAF 161325Z AUTO 27008KT 10SM CLR 08/05 A3004 RMK T00800050 MADISHF
LAF,2021-10-16 13:30,KLAF 161330Z AUTO 28008KT 10SM CLR 08/05 A3004 RMK T00800050 MADISHF
LAF,2021-10-16 13:35,KLAF 161335Z AUTO 27007KT 10SM CLR 08/04 A3004 RMK T00800040 MADISHF
LAF,2021-10-16 13:40,KLAF 161340Z AUTO 28008KT 10SM CLR 08/05 A3004 RMK T00800050 MADISHF
LAF,2021-10-16 13:45,KLAF 161345Z AUTO 27009KT 10SM CLR 08/05 A3004 RMK T00800050 MADISHF
LAF,2021-10-16 13:50,KLAF 161350Z AUTO 27009KT 10SM CLR 09/05 A3004 RMK T00900050 MADISHF
LAF,2021-10-16 13:54,KLAF 161354Z 27008KT 10SM CLR 09/05 A3005 RMK AO2 SLP175 T00890050
LAF,2021-10-16 13:55,KLAF 161355Z AUTO 28008KT 10SM CLR 09/05 A3004 RMK T00900050 MADISHF
LAF,2021-10-16 14:00,KLAF 161400Z AUTO 29007KT 10SM CLR 09/05 A3004 RMK T00900050 MADISHF
LAF,2021-10-16 14:05,KLAF 161405Z AUTO 29007KT 10SM CLR 09/05 A3004 RMK T00900050 MADISHF
LAF,2021-10-16 14:10,KLAF 161410Z AUTO 30007KT 10SM CLR 09/05 A3004 RMK T00900050 MADISHF
LAF,2021-10-16 14:15,KLAF 161415Z AUTO 30007KT 10SM CLR 10/05 A3004 RMK T01000050 MADISHF
LAF,2021-10-16 14:20,KLAF 161420Z AUTO 29008KT 10SM CLR 10/05 A3004 RMK T01000050 MADISHF
LAF,2021-10-16 14:25,KLAF 161425Z AUTO 30008KT 10SM CLR 10/05 A3004 RMK T01000050 MADISHF
LAF,2021-10-16 14:30,KLAF 161430Z AUTO 29009G14KT 10SM CLR 10/05 A3004 RMK T01000050 MADISHF
LAF,2021-10-16 14:35,KLAF 161435Z AUTO 29010KT 10SM CLR 11/05 A3004 RMK T01100050 MADISHF
LAF,2021-10-16 14:40,KLAF 161440Z AUTO 27008KT 10SM CLR 11/06 A3004 RMK T01100060 MADISHF
LAF,2021-10-16 14:45,KLAF 161445Z AUTO 28009KT 10SM CLR 11/05 A3004 RMK T01100050 MADISHF
LAF,2021-10-16 14:50,KLAF 161450Z AUTO 30008KT 10SM CLR 11/05 A3004 RMK T01100050 MADISHF
LAF,2021-10-16 14:54,KLAF 161454Z 30009KT 10SM CLR 11/05 A3005 RMK AO2 SLP176 T01110050 51018
LAF,2021-10-16 14:55,KLAF 161455Z AUTO 30008KT 10SM CLR 11/05 A3004 RMK T01100050 MADISHF
LAF,2021-10-16 15:00,KLAF 161500Z AUTO 29008KT 10SM CLR 11/05 A3005 RMK T01100050 MADISHF
LAF,2021-10-16 15:05,KLAF 161505Z AUTO 29008KT 10SM CLR 11/05 A3005 RMK T01100050 MADISHF
LAF,2021-10-16 15:10,KLAF 161510Z AUTO 29007KT 10SM CLR 12/05 A3005 RMK T01200050 MADISHF
LAF,2021-10-16 15:15,KLAF 161515Z AUTO 29010KT 10SM CLR 12/05 A3005 RMK T01200050 MADISHF
LAF,2021-10-16 15:20,KLAF 161520Z AUTO 29011KT 10SM CLR 12/05 A3005 RMK T01200050 MADISHF
LAF,2021-10-16 15:25,KLAF 161525Z AUTO 28010KT 10SM CLR 12/04 A3005 RMK T01200040 MADISHF
LAF,2021-10-16 15:30,KLAF 161530Z AUTO 29011KT 10SM CLR 12/05 A3005 RMK T01200050 MADISHF
LAF,2021-10-16 15:35,KLAF 161535Z AUTO ///11KT 10SM CLR 12/05 A3005 RMK T01200050 MADISHF
LAF,2021-10-16 15:40,KLAF 161540Z AUTO 29011KT 10SM CLR 12/05 A3005 RMK T01200050 MADISHF
LAF,2021-10-16 15:45,KLAF 161545Z AUTO 29010G16KT 10SM CLR 13/05 A3005 RMK T01300050 MADISHF
LAF,2021-10-16 15:50,KLAF 161550Z AUTO 30009KT 10SM CLR 12/04 A3005 RMK T01200040 MADISHF
LAF,2021-10-16 15:54,KLAF 161554Z 30008G17KT 10SM CLR 13/05 A3006 RMK AO2 SLP181 T01280050
LAF,2021-10-16 15:55,KLAF 161555Z AUTO 30010KT 10SM CLR 13/05 A3006 RMK T01300050 MADISHF
LAF,2021-10-16 16:00,KLAF 161600Z AUTO 28008KT 10SM CLR 13/05 A3006 RMK T01300050 MADISHF
LAF,2021-10-16 16:05,KLAF 161605Z AUTO 28014KT 10SM CLR 13/05 A3005 RMK T01300050 MADISHF
LAF,2021-10-16 16:10,KLAF 161610Z AUTO 28011KT 10SM CLR 13/04 A3005 RMK T01300040 MADISHF
LAF,2021-10-16 16:15,KLAF 161615Z AUTO 29009KT 10SM CLR 13/05 A3005 RMK T01300050 MADISHF
LAF,2021-10-16 16:20,KLAF 161620Z AUTO 27008KT 10SM CLR 13/05 A3005 RMK T01300050 MADISHF
LAF,2021-10-16 16:25,KLAF 161625Z AUTO 28011KT 10SM CLR 13/05 A3005 RMK T01300050 MADISHF
LAF,2021-10-16 16:30,KLAF 161630Z AUTO ///15KT 10SM CLR 13/05 A3005 RMK T01300050 MADISHF
LAF,2021-10-16 16:35,KLAF 161635Z AUTO 29015KT 10SM CLR 13/04 A3005 RMK T01300040 MADISHF
LAF,2021-10-16 16:40,KLAF 161640Z AUTO 30011G19KT 10SM CLR 13/04 A3005 RMK T01300040 MADISHF
LAF,2021-10-16 16:45,KLAF 161645Z AUTO 30011G17KT 10SM CLR 13/04 A3005 RMK T01300040 MADISHF
LAF,2021-10-16 16:50,KLAF 161650Z AUTO 28011KT 10SM CLR 13/04 A3005 RMK T01300040 MADISHF
LAF,2021-10-16 16:54,KLAF 161654Z 28013G22KT 10SM CLR 13/04 A3006 RMK AO2 SLP180 T01330039
LAF,2021-10-16 16:55,KLAF 161655Z AUTO 29014G19KT 10SM CLR 13/04 A3005 RMK T01300040 MADISHF
LAF,2021-10-16 17:00,KLAF 161700Z AUTO 29010KT 10SM CLR 13/04 A3005 RMK T01300040 MADISHF
LAF,2021-10-16 17:05,KLAF 161705Z AUTO 30011KT 10SM CLR 13/03 A3005 RMK T01300030 MADISHF
LAF,2021-10-16 17:10,KLAF 161710Z AUTO 29014KT 10SM FEW050 13/04 A3004 RMK T01300040 MADISHF
LAF,2021-10-16 17:15,KLAF 161715Z AUTO 28010G15KT 10SM SCT050 13/03 A3004 RMK T01300030 MADISHF
LAF,2021-10-16 17:20,KLAF 161720Z AUTO 30011KT 10SM SCT050 14/04 A3004 RMK T01400040 MADISHF
LAF,2021-10-16 17:25,KLAF 161725Z AUTO 26010KT 10SM SCT050 14/04 A3004 RMK T01400040 MADISHF
LAF,2021-10-16 17:30,KLAF 161730Z AUTO 28013KT 10SM SCT050 14/04 A3004 RMK T01400040 MADISHF
LAF,2021-10-16 17:35,KLAF 161735Z AUTO 30011G19KT 10SM BKN050 14/04 A3004 RMK T01400040 MADISHF
LAF,2021-10-16 17:40,KLAF 161740Z AUTO 30014KT 10SM BKN050 14/04 A3004 RMK T01400040 MADISHF
LAF,2021-10-16 17:45,KLAF 161745Z AUTO 29014KT 10SM BKN050 13/03 A3004 RMK T01300030 MADISHF
LAF,2021-10-16 17:50,KLAF 161750Z AUTO 27010KT 10SM SCT050 14/04 A3004 RMK T01400040 MADISHF
LAF,2021-10-16 17:54,KLAF 161754Z 28014G21KT 10SM SCT050 14/04 A3004 RMK AO2 SLP174 T01440044 10144 20061 58002
LAF,2021-10-16 17:55,KLAF 161755Z AUTO 28017G22KT 10SM SCT050 14/04 A3004 RMK T01400040 MADISHF
LAF,2021-10-16 18:00,KLAF 161800Z AUTO 28013KT 10SM BKN050 14/04 A3004 RMK T01400040 MADISHF
LAF,2021-10-16 18:05,KLAF 161805Z AUTO 28013G18KT 10SM SCT050 14/04 A3004 RMK T01400040 MADISHF
LAF,2021-10-16 18:10,KLAF 161810Z AUTO 30014G21KT 10SM SCT050 13/03 A3004 RMK T01300030 MADISHF
LAF,2021-10-16 18:15,KLAF 161815Z AUTO 30013KT 10SM BKN050 14/04 A3004 RMK T01400040 MADISHF
LAF,2021-10-16 18:20,KLAF 161820Z AUTO 29015KT 10SM BKN050 14/04 A3004 RMK T01400040 MADISHF
LAF,2021-10-16 18:25,KLAF 161825Z AUTO 30014G21KT 10SM BKN050 13/04 A3004 RMK T01300040 MADISHF
LAF,2021-10-16 18:30,KLAF 161830Z AUTO 29011G18KT 10SM BKN050 13/04 A3004 RMK T01300040 MADISHF
LAF,2021-10-16 18:35,KLAF 161835Z AUTO 28014G19KT 10SM SCT050 13/04 A3004 RMK T01300040 MADISHF
LAF,2021-10-16 18:40,KLAF 161840Z AUTO 27011G19KT 10SM SCT050 14/04 A3004 RMK T01400040 MADISHF
LAF,2021-10-16 18:45,KLAF 161845Z AUTO ///16G21KT 10SM SCT050 14/04 A3004 RMK T01400040 MADISHF
LAF,2021-10-16 18:50,KLAF 161850Z AUTO 28015KT 10SM SCT050 14/04 A3004 RMK T01400040 MADISHF
LAF,2021-10-16 18:54,KLAF 161854Z 27012G23KT 10SM SCT050 15/04 A3004 RMK AO2 SLP171 T01500044
LAF,2021-10-16 18:55,KLAF 161855Z AUTO 28011KT 10SM SCT050 15/04 A3003 RMK T01500040 MADISHF
LAF,2021-10-16 19:00,KLAF 161900Z AUTO 29015KT 10SM SCT055 14/04 A3004 RMK T01400040 MADISHF
LAF,2021-10-16 19:05,KLAF 161905Z AUTO 29011G19KT 10SM SCT055 14/03 A3004 RMK T01400030 MADISHF
LAF,2021-10-16 19:10,KLAF 161910Z AUTO 30015KT 10SM BKN055 13/03 A3004 RMK T01300030 MADISHF
LAF,2021-10-16 19:15,KLAF 161915Z AUTO 31014G21KT 10SM BKN055 13/04 A3004 RMK T01300040 MADISHF
LAF,2021-10-16 19:20,KLAF 161920Z AUTO 29011G18KT 10SM BKN055 14/04 A3004 RMK T01400040 MADISHF
LAF,2021-10-16 19:25,KLAF 161925Z AUTO 30011KT 10SM BKN055 13/04 A3004 RMK T01300040 MADISHF
LAF,2021-10-16 19:30,KLAF 161930Z AUTO 29011KT 10SM BKN055 14/04 A3004 RMK T01400040 MADISHF
LAF,2021-10-16 19:35,KLAF 161935Z AUTO 30014KT 10SM BKN050 14/04 A3004 RMK T01400040 MADISHF
LAF,2021-10-16 19:40,KLAF 161940Z AUTO 29011KT 10SM BKN050 13/04 A3004 RMK T01300040 MADISHF
LAF,2021-10-16 19:45,KLAF 161945Z AUTO 28009KT 10SM BKN050 14/04 A3004 RMK T01400040 MADISHF
LAF,2021-10-16 19:50,KLAF 161950Z AUTO 28011G19KT 10SM BKN050 14/04 A3005 RMK T01400040 MADISHF
LAF,2021-10-16 19:54,KLAF 161954Z 29015G23KT 10SM BKN050 14/04 A3005 RMK AO2 SLP178 T01390044
LAF,2021-10-16 19:55,KLAF 161955Z AUTO 29016KT 10SM BKN050 14/04 A3004 RMK T01400040 MADISHF
LAF,2021-10-16 20:00,KLAF 162000Z AUTO 28011G16KT 10SM BKN050 13/04 A3004 RMK T01300040 MADISHF
LAF,2021-10-16 20:05,KLAF 162005Z AUTO 29011G17KT 10SM BKN050 14/05 A3004 RMK T01400050 MADISHF
LAF,2021-10-16 20:10,KLAF 162010Z AUTO 28015KT 10SM BKN050 14/04 A3005 RMK T01400040 MADISHF
LAF,2021-10-16 20:15,KLAF 162015Z AUTO 28011KT 10SM BKN050 14/04 A3005 RMK T01400040 MADISHF
LAF,2021-10-16 20:20,KLAF 162020Z AUTO 31010KT 10SM BKN050 14/04 A3005 RMK T01400040 MADISHF
LAF,2021-10-16 20:25,KLAF 162025Z AUTO 28009KT 10SM BKN050 15/04 A3005 RMK T01500040 WND 25V32  MADISHF
LAF,2021-10-16 20:30,KLAF 162030Z AUTO 28011G17KT 10SM BKN050 15/04 A3005 RMK T01500040 MADISHF
LAF,2021-10-16 20:35,KLAF 162035Z AUTO 29013KT 10SM SCT050 14/04 A3005 RMK T01400040 MADISHF
LAF,2021-10-16 20:40,KLAF 162040Z AUTO 27016G22KT 10SM BKN050 14/04 A3005 RMK T01400040 MADISHF
LAF,2021-10-16 20:45,KLAF 162045Z AUTO 29015G23KT 10SM BKN050 14/04 A3005 RMK T01400040 MADISHF
LAF,2021-10-16 20:50,KLAF 162050Z AUTO 29011G16KT 10SM SCT050 14/03 A3005 RMK T01400030 MADISHF
LAF,2021-10-16 20:54,KLAF 162054Z 30014G28KT 10SM FEW055 14/03 A3006 RMK AO2 PK WND 29028/2046 SLP181 T01440033 53006
LAF,2021-10-16 20:55,KLAF 162055Z AUTO 29014KT 10SM FEW055 14/03 A3005 RMK T01400030 MADISHF
LAF,2021-10-16 21:00,KLAF 162100Z AUTO 28014KT 10SM FEW055 14/03 A3005 RMK T01400030 MADISHF
LAF,2021-10-16 21:05,KLAF 162105Z AUTO ///15KT 10SM SCT055 14/04 A3005 RMK T01400040 MADISHF
LAF,2021-10-16 21:10,KLAF 162110Z AUTO 28011G17KT 10SM SCT055 14/04 A3006 RMK T01400040 MADISHF
LAF,2021-10-16 21:15,KLAF 162115Z AUTO ///15KT 10SM SCT055 14/04 A3006 RMK T01400040 MADISHF
LAF,2021-10-16 21:20,KLAF 162120Z AUTO 29016KT 10SM SCT055 14/03 A3005 RMK T01400030 MADISHF
LAF,2021-10-16 21:25,KLAF 162125Z AUTO 29011KT 10SM FEW055 14/03 A3005 RMK T01400030 MADISHF
LAF,2021-10-16 21:30,KLAF 162130Z AUTO 28013KT 10SM FEW055 14/03 A3005 RMK T01400030 MADISHF
LAF,2021-10-16 21:35,KLAF 162135Z AUTO 28014KT 10SM FEW055 14/03 A3006 RMK T01400030 MADISHF
LAF,2021-10-16 21:40,KLAF 162140Z AUTO 29013KT 10SM FEW055 14/03 A3006 RMK T01400030 MADISHF
LAF,2021-10-16 21:45,KLAF 162145Z AUTO 29009G14KT 10SM CLR 14/03 A3005 RMK T01400030 MADISHF
LAF,2021-10-16 21:50,KLAF 162150Z AUTO 29009KT 10SM CLR 14/03 A3006 RMK T01400030 MADISHF
LAF,2021-10-16 21:54,KLAF 162154Z 29014G19KT 10SM CLR 14/03 A3007 RMK AO2 SLP184 T01390033
LAF,2021-10-16 21:55,KLAF 162155Z AUTO ///14KT 10SM CLR 14/03 A3006 RMK T01400030 MADISHF
LAF,2021-10-16 22:00,KLAF 162200Z AUTO 29011KT 10SM CLR 14/03 A3006 RMK T01400030 MADISHF
LAF,2021-10-16 22:05,KLAF 162205Z AUTO 28011KT 10SM CLR 14/03 A3006 RMK T01400030 MADISHF
LAF,2021-10-16 22:10,KLAF 162210Z AUTO 29009KT 10SM CLR 14/03 A3006 RMK T01400030 MADISHF
LAF,2021-10-16 22:15,KLAF 162215Z AUTO 29013KT 10SM CLR 13/03 A3007 RMK T01300030 MADISHF
LAF,2021-10-16 22:20,KLAF 162220Z AUTO 29011G17KT 10SM CLR 13/02 A3007 RMK T01300020 MADISHF
LAF,2021-10-16 22:25,KLAF 162225Z AUTO 29011G17KT 10SM CLR 13/02 A3007 RMK T01300020 MADISHF
LAF,2021-10-16 22:30,KLAF 162230Z AUTO 28011KT 10SM CLR 13/02 A3006 RMK T01300020 MADISHF
LAF,2021-10-16 22:35,KLAF 162235Z AUTO 29011KT 10SM CLR 13/03 A3007 RMK T01300030 MADISHF
LAF,2021-10-16 22:40,KLAF 162240Z AUTO 29011KT 10SM CLR 13/02 A3007 RMK T01300020 MADISHF
LAF,2021-10-16 22:45,KLAF 162245Z AUTO 29011G16KT 10SM CLR 13/03 A3007 RMK T01300030 MADISHF
LAF,2021-10-16 22:50,KLAF 162250Z AUTO 28009KT 10SM CLR 12/02 A3007 RMK T01200020 MADISHF
LAF,2021-10-16 22:54,KLAF 162254Z 29009KT 10SM CLR 12/03 A3008 RMK AO2 SLP186 T01220028
LAF,2021-10-16 22:55,KLAF 162255Z AUTO 28008KT 10SM CLR 12/03 A3007 RMK T01200030 MADISHF
LAF,2021-10-16 23:00,KLAF 162300Z AUTO 28008KT 10SM CLR 12/03 A3007 RMK T01200030 MADISHF
LAF,2021-10-16 23:05,KLAF 162305Z AUTO 28008KT 10SM CLR 12/03 A3007 RMK T01200030 MADISHF
LAF,2021-10-16 23:10,KLAF 162310Z AUTO 28009KT 10SM CLR 12/03 A3007 RMK T01200030 MADISHF
LAF,2021-10-16 23:15,KLAF 162315Z AUTO 29005KT 10SM CLR 11/03 A3007 RMK T01100030 MADISHF
LAF,2021-10-16 23:20,KLAF 162320Z AUTO 28007KT 10SM CLR 11/03 A3007 RMK T01100030 MADISHF
LAF,2021-10-16 23:25,KLAF 162325Z AUTO 28007KT 10SM CLR 11/03 A3007 RMK T01100030 MADISHF
LAF,2021-10-16 23:30,KLAF 162330Z AUTO 28005KT 10SM CLR 11/03 A3009 RMK T01100030 MADISHF
LAF,2021-10-16 23:35,KLAF 162335Z AUTO 27005KT 10SM CLR 10/03 A3009 RMK T01000030 MADISHF
LAF,2021-10-16 23:40,KLAF 162340Z AUTO 26005KT 10SM CLR 09/04 A3009 RMK T00900040 MADISHF
LAF,2021-10-16 23:45,KLAF 162345Z AUTO 26004KT 10SM CLR 10/03 A3009 RMK T01000030 MADISHF
LAF,2021-10-16 23:50,KLAF 162350Z AUTO 26004KT 10SM CLR 10/03 A3009 RMK T01000030 MADISHF
LAF,2021-10-16 23:54,KLAF 162354Z 26004KT 10SM CLR 09/03 A3009 RMK AO2 SLP193 T00940033 10150 20094 53010
LAF,2021-10-16 23:55,KLAF 162355Z AUTO 26004KT 10SM CLR 09/03 A3009 RMK T00900030 MADISHF
LAF,2021-10-17 00:00,KLAF 170000Z AUTO 26002KT 10SM CLR 09/04 A3010 RMK T00900040 MADISHF
LAF,2021-10-17 00:05,KLAF 170005Z AUTO 26002KT 10SM CLR 09/04 A3010 RMK T00900040 MADISHF
LAF,2021-10-17 00:10,KLAF 170010Z AUTO 00000KT 10SM CLR 09/04 A3010 RMK T00900040 MADISHF
LAF,2021-10-17 00:15,KLAF 170015Z AUTO 00000KT 10SM CLR 10/04 A3010 RMK T01000040 MADISHF
LAF,2021-10-17 00:20,KLAF 170020Z AUTO 00000KT 10SM CLR 09/04 A3010 RMK T00900040 MADISHF
LAF,2021-10-17 00:25,KLAF 170025Z AUTO 00000KT 10SM CLR 09/04 A3010 RMK T00900040 MADISHF
LAF,2021-10-17 00:30,KLAF 170030Z AUTO 00000KT 10SM CLR 08/06 A3010 RMK T00800060 MADISHF
LAF,2021-10-17 00:35,KLAF 170035Z AUTO 00000KT 10SM CLR 08/06 A3010 RMK T00800060 MADISHF
LAF,2021-10-17 00:40,KLAF 170040Z AUTO 00000KT 10SM CLR 08/05 A3010 RMK T00800050 MADISHF
LAF,2021-10-17 00:45,KLAF 170045Z AUTO 00000KT 10SM CLR 08/05 A3010 RMK T00800050 MADISHF
LAF,2021-10-17 00:50,KLAF 170050Z AUTO 00000KT 10SM CLR 08/05 A3010 RMK T00800050 MADISHF
LAF,2021-10-17 00:54,KLAF 170054Z 00000KT 10SM CLR 08/05 A3010 RMK AO2 SLP196 T00830050
LAF,2021-10-17 00:55,KLAF 170055Z AUTO 00000KT 10SM CLR 08/05 A3010 RMK T00800050 MADISHF
LAF,2021-10-17 01:00,KLAF 170100Z AUTO 00000KT 10SM CLR 08/05 A3010 RMK T00800050 MADISHF
LAF,2021-10-17 01:05,KLAF 170105Z AUTO 00000KT 10SM CLR 08/05 A3010 RMK T00800050 MADISHF
LAF,2021-10-17 01:10,KLAF 170110Z AUTO 00000KT 10SM CLR 08/05 A3011 RMK T00800050 MADISHF
LAF,2021-10-17 01:15,KLAF 170115Z AUTO 25002KT 10SM CLR 07/05 A3011 RMK T00700050 MADISHF
LAF,2021-10-17 01:20,KLAF 170120Z AUTO 25002KT 10SM CLR 07/06 A3011 RMK T00700060 MADISHF
LAF,2021-10-17 01:25,KLAF 170125Z AUTO 25002KT 10SM CLR 07/06 A3011 RMK T00700060 MADISHF
LAF,2021-10-17 01:30,KLAF 170130Z AUTO 00000KT 10SM CLR 07/06 A3011 RMK T00700060 MADISHF
LAF,2021-10-17 01:35,KLAF 170135Z AUTO 00000KT 10SM CLR 08/05 A3011 RMK T00800050 MADISHF
LAF,2021-10-17 01:40,KLAF 170140Z AUTO 26002KT 10SM CLR 07/05 A3012 RMK T00700050 MADISHF
LAF,2021-10-17 01:45,KLAF 170145Z AUTO 28002KT 10SM CLR 07/04 A3012 RMK T00700040 MADISHF
LAF,2021-10-17 01:50,KLAF 170150Z AUTO 27002KT 10SM CLR 07/05 A3012 RMK T00700050 MADISHF
LAF,2021-10-17 01:54,KLAF 170154Z AUTO 26003KT 10SM CLR 07/05 A3012 RMK AO2 SLP200 T00720050
LAF,2021-10-17 01:55,KLAF 170155Z AUTO 26002KT 10SM CLR 07/05 A3012 RMK T00700050 MADISHF
LAF,2021-10-17 02:00,KLAF 170200Z AUTO 26004KT 10SM CLR 07/05 A3012 RMK T00700050 MADISHF
LAF,2021-10-17 02:05,KLAF 170205Z AUTO 26002KT 10SM CLR 07/05 A3012 RMK T00700050 MADISHF
LAF,2021-10-17 02:10,KLAF 170210Z AUTO 26002KT 10SM CLR 07/05 A3012 RMK T00700050 MADISHF
LAF,2021-10-17 02:15,KLAF 170215Z AUTO 26002KT 10SM CLR 07/05 A3012 RMK T00700050 MADISHF
LAF,2021-10-17 02:20,KLAF 170220Z AUTO 26004KT 10SM CLR 07/05 A3012 RMK T00700050 MADISHF
LAF,2021-10-17 02:25,KLAF 170225Z AUTO 25004KT 10SM CLR 07/05 A3012 RMK T00700050 MADISHF
LAF,2021-10-17 02:30,KLAF 170230Z AUTO 26004KT 10SM CLR 07/04 A3012 RMK T00700040 MADISHF
LAF,2021-10-17 02:35,KLAF 170235Z AUTO 26004KT 10SM CLR 07/04 A3012 RMK T00700040 MADISHF
LAF,2021-10-17 02:40,KLAF 170240Z AUTO 26004KT 10SM CLR 07/05 A3012 RMK T00700050 MADISHF
LAF,2021-10-17 02:45,KLAF 170245Z AUTO 26002KT 10SM CLR 07/04 A3012 RMK T00700040 MADISHF
LAF,2021-10-17 02:50,KLAF 170250Z AUTO 25002KT 10SM CLR 07/05 A3012 RMK T00700050 MADISHF
LAF,2021-10-17 02:54,KLAF 170254Z AUTO 26003KT 10SM CLR 07/05 A3013 RMK AO2 SLP203 T00670050 51011
LAF,2021-10-17 02:55,KLAF 170255Z AUTO 27002KT 10SM CLR 07/05 A3012 RMK T00700050 MADISHF
LAF,2021-10-17 03:00,KLAF 170300Z AUTO 28002KT 10SM CLR 07/04 A3012 RMK T00700040 MADISHF
LAF,2021-10-17 03:05,KLAF 170305Z AUTO 27002KT 10SM CLR 07/05 A3012 RMK T00700050 MADISHF
LAF,2021-10-17 03:10,KLAF 170310Z AUTO 27002KT 10SM CLR 07/05 A3012 RMK T00700050 MADISHF
LAF,2021-10-17 03:15,KLAF 170315Z AUTO 27002KT 10SM CLR 07/05 A3012 RMK T00700050 MADISHF
LAF,2021-10-17 03:20,KLAF 170320Z AUTO 27004KT 10SM CLR 07/05 A3012 RMK T00700050 MADISHF
LAF,2021-10-17 03:25,KLAF 170325Z AUTO 27004KT 10SM CLR 07/05 A3012 RMK T00700050 MADISHF
LAF,2021-10-17 03:30,KLAF 170330Z AUTO 26004KT 10SM CLR 06/05 A3012 RMK T00600050 MADISHF
LAF,2021-10-17 03:35,KLAF 170335Z AUTO 26004KT 10SM CLR 06/05 A3012 RMK T00600050 MADISHF
LAF,2021-10-17 03:40,KLAF 170340Z AUTO 26004KT 10SM CLR 06/05 A3012 RMK T00600050 MADISHF
LAF,2021-10-17 03:45,KLAF 170345Z AUTO 26002KT 10SM CLR 06/05 A3012 RMK T00600050 MADISHF
LAF,2021-10-17 03:50,KLAF 170350Z AUTO 25002KT 10SM CLR 06/05 A3012 RMK T00600050 MADISHF
LAF,2021-10-17 03:54,KLAF 170354Z AUTO 26003KT 10SM CLR 06/04 A3013 RMK AO2 SLP204 T00610044
LAF,2021-10-17 03:55,KLAF 170355Z AUTO 26004KT 10SM CLR 06/04 A3012 RMK T00600040 MADISHF
LAF,2021-10-17 04:00,KLAF 170400Z AUTO 26002KT 10SM CLR 06/05 A3012 RMK T00600050 MADISHF
LAF,2021-10-17 04:05,KLAF 170405Z AUTO 26004KT 10SM CLR 06/05 A3012 RMK T00600050 MADISHF
LAF,2021-10-17 04:10,KLAF 170410Z AUTO 27004KT 10SM CLR 06/04 A3012 RMK T00600040 MADISHF
LAF,2021-10-17 04:15,KLAF 170415Z AUTO 27005KT 10SM CLR 06/04 A3012 RMK T00600040 MADISHF
LAF,2021-10-17 04:20,KLAF 170420Z AUTO 27004KT 10SM CLR 06/05 A3012 RMK T00600050 MADISHF
LAF,2021-10-17 04:25,KLAF 170425Z AUTO 26004KT 10SM CLR 06/05 A3012 RMK T00600050 MADISHF
LAF,2021-10-17 04:30,KLAF 170430Z AUTO 26004KT 10SM CLR 06/05 A3012 RMK T00600050 MADISHF
LAF,2021-10-17 04:35,KLAF 170435Z AUTO 27004KT 10SM CLR 06/04 A3012 RMK T00600040 MADISHF
LAF,2021-10-17 04:40,KLAF 170440Z AUTO 27004KT 10SM CLR 06/04 A3012 RMK T00600040 MADISHF
LAF,2021-10-17 04:45,KLAF 170445Z AUTO 26004KT 10SM CLR 06/04 A3012 RMK T00600040 MADISHF
LAF,2021-10-17 04:50,KLAF 170450Z AUTO 26004KT 10SM CLR 06/04 A3012 RMK T00600040 MADISHF
LAF,2021-10-17 04:54,KLAF 170454Z AUTO 25004KT 10SM CLR 05/04 A3013 RMK AO2 SLP204 T00500044 401500050
LAF,2021-10-17 04:55,KLAF 170455Z AUTO 25004KT 10SM CLR 05/04 A3012 RMK T00500040 MADISHF
LAF,2021-10-17 05:00,KLAF 170500Z AUTO 25004KT 10SM CLR 05/04 A3012 RMK T00500040 MADISHF
LAF,2021-10-17 05:05,KLAF 170505Z AUTO 26004KT 10SM CLR 05/04 A3012 RMK T00500040 MADISHF
LAF,2021-10-17 05:10,KLAF 170510Z AUTO 26004KT 10SM CLR 05/04 A3012 RMK T00500040 MADISHF
LAF,2021-10-17 05:15,KLAF 170515Z AUTO 27004KT 10SM CLR 06/04 A3012 RMK T00600040 MADISHF
LAF,2021-10-17 05:20,KLAF 170520Z AUTO 26005KT 10SM CLR 05/04 A3012 RMK T00500040 MADISHF
LAF,2021-10-17 05:25,KLAF 170525Z AUTO 26004KT 10SM CLR 05/04 A3012 RMK T00500040 MADISHF
LAF,2021-10-17 05:30,KLAF 170530Z AUTO 26004KT 10SM CLR 05/04 A3012 RMK T00500040 MADISHF
LAF,2021-10-17 05:35,KLAF 170535Z AUTO 26004KT 10SM CLR 05/04 A3012 RMK T00500040 MADISHF
LAF,2021-10-17 05:40,KLAF 170540Z AUTO 26004KT 10SM CLR 05/04 A3012 RMK T00500040 MADISHF
LAF,2021-10-17 05:45,KLAF 170545Z AUTO 26004KT 10SM CLR 05/04 A3012 RMK T00500040 MADISHF
LAF,2021-10-17 05:50,KLAF 170550Z AUTO 26004KT 10SM CLR 04/04 A3012 RMK T00400040 MADISHF
LAF,2021-10-17 05:54,KLAF 170554Z AUTO 26004KT 10SM CLR 05/04 A3012 RMK AO2 SLP201 T00500039 10100 20044 58002
LAF,2021-10-17 05:55,KLAF 170555Z AUTO 26004KT 10SM CLR 05/04 A3012 RMK T00500040 MADISHF
LAF,2021-10-17 06:00,KLAF 170600Z AUTO 26004KT 10SM CLR 05/04 A3012 RMK T00500040 MADISHF
LAF,2021-10-17 06:05,KLAF 170605Z AUTO 26005KT 10SM CLR 05/04 A3012 RMK T00500040 MADISHF
LAF,2021-10-17 06:10,KLAF 170610Z AUTO 26004KT 10SM CLR 05/04 A3012 RMK T00500040 MADISHF
LAF,2021-10-17 06:15,KLAF 170615Z AUTO 26004KT 10SM CLR 05/04 A3012 RMK T00500040 MADISHF
LAF,2021-10-17 06:20,KLAF 170620Z AUTO 26004KT 10SM CLR 05/04 A3012 RMK T00500040 MADISHF
LAF,2021-10-17 06:25,KLAF 170625Z AUTO 27004KT 10SM CLR 05/04 A3012 RMK T00500040 MADISHF
LAF,2021-10-17 06:30,KLAF 170630Z AUTO 26004KT 10SM CLR 05/04 A3012 RMK T00500040 MADISHF
LAF,2021-10-17 06:35,KLAF 170635Z AUTO 27004KT 10SM CLR 05/04 A3012 RMK T00500040 MADISHF
LAF,2021-10-17 06:40,KLAF 170640Z AUTO 26004KT 10SM CLR 04/04 A3012 RMK T00400040 MADISHF
LAF,2021-10-17 06:45,KLAF 170645Z AUTO 26005KT 10SM CLR 05/04 A3012 RMK T00500040 MADISHF
LAF,2021-10-17 06:50,KLAF 170650Z AUTO 26005KT 10SM CLR 04/03 A3012 RMK T00400030 MADISHF
LAF,2021-10-17 06:54,KLAF 170654Z AUTO 26005KT 10SM CLR 05/03 A3013 RMK AO2 SLP202 T00500033
LAF,2021-10-17 06:55,KLAF 170655Z AUTO 26005KT 10SM CLR 05/03 A3012 RMK T00500030 MADISHF
LAF,2021-10-17 07:00,KLAF 170700Z AUTO 26005KT 10SM CLR 04/03 A3012 RMK T00400030 MADISHF
LAF,2021-10-17 07:05,KLAF 170705Z AUTO 25005KT 10SM CLR 05/03 A3012 RMK T00500030 MADISHF
LAF,2021-10-17 07:10,KLAF 170710Z AUTO 26004KT 10SM CLR 04/03 A3012 RMK T00400030 MADISHF
LAF,2021-10-17 07:15,KLAF 170715Z AUTO 26002KT 10SM CLR 04/03 A3012 RMK T00400030 MADISHF
LAF,2021-10-17 07:20,KLAF 170720Z AUTO 26004KT 10SM CLR 04/03 A3012 RMK T00400030 MADISHF
LAF,2021-10-17 07:25,KLAF 170725Z AUTO 27004KT 10SM CLR 05/04 A3012 RMK T00500040 MADISHF
LAF,2021-10-17 07:30,KLAF 170730Z AUTO 26004KT 10SM CLR 04/04 A3012 RMK T00400040 MADISHF
LAF,2021-10-17 07:35,KLAF 170735Z AUTO 26004KT 10SM CLR 04/04 A3012 RMK T00400040 MADISHF
LAF,2021-10-17 07:40,KLAF 170740Z AUTO 26004KT 10SM CLR 04/04 A3012 RMK T00400040 MADISHF
LAF,2021-10-17 07:45,KLAF 170745Z AUTO 26004KT 10SM CLR 04/03 A3012 RMK T00400030 MADISHF
LAF,2021-10-17 07:50,KLAF 170750Z AUTO 26004KT 10SM CLR 04/03 A3012 RMK T00400030 MADISHF
LAF,2021-10-17 07:54,KLAF 170754Z AUTO 25004KT 10SM CLR 04/03 A3013 RMK AO2 SLP202 T00440033
LAF,2021-10-17 07:55,KLAF 170755Z AUTO 25002KT 10SM CLR 04/03 A3012 RMK T00400030 MADISHF
LAF,2021-10-17 08:00,KLAF 170800Z AUTO 25002KT 10SM CLR 04/03 A3012 RMK T00400030 MADISHF
LAF,2021-10-17 08:05,KLAF 170805Z AUTO 26004KT 10SM CLR 04/03 A3012 RMK T00400030 MADISHF
LAF,2021-10-17 08:10,KLAF 170810Z AUTO 26002KT 10SM CLR 04/04 A3012 RMK T00400040 MADISHF
LAF,2021-10-17 08:15,KLAF 170815Z AUTO 26002KT 10SM CLR 04/03 A3012 RMK T00400030 MADISHF
LAF,2021-10-17 08:20,KLAF 170820Z AUTO 26002KT 10SM CLR 04/03 A3012 RMK T00400030 MADISHF
LAF,2021-10-17 08:25,KLAF 170825Z AUTO 26002KT 10SM CLR 04/04 A3012 RMK T00400040 MADISHF
LAF,2021-10-17 08:30,KLAF 170830Z AUTO 26002KT 10SM CLR 04/04 A3012 RMK T00400040 MADISHF
LAF,2021-10-17 08:35,KLAF 170835Z AUTO 25002KT 10SM CLR 04/03 A3012 RMK T00400030 MADISHF
LAF,2021-10-17 08:40,KLAF 170840Z AUTO 00000KT 10SM CLR 04/03 A3012 RMK T00400030 MADISHF
LAF,2021-10-17 08:45,KLAF 170845Z AUTO 26002KT 10SM CLR 04/03 A3012 RMK T00400030 MADISHF
LAF,2021-10-17 08:50,KLAF 170850Z AUTO 25002KT 10SM CLR 04/03 A3012 RMK T00400030 MADISHF
LAF,2021-10-17 08:54,KLAF 170854Z AUTO 00000KT 10SM CLR 04/03 A3013 RMK AO2 SLP203 T00440033 51002
LAF,2021-10-17 08:55,KLAF 170855Z AUTO 00000KT 10SM CLR 04/03 A3012 RMK T00400030 MADISHF
LAF,2021-10-17 09:00,KLAF 170900Z AUTO 26002KT 10SM CLR 04/03 A3012 RMK T00400030 MADISHF
LAF,2021-10-17 09:05,KLAF 170905Z AUTO 26002KT 10SM CLR 04/03 A3012 RMK T00400030 MADISHF
LAF,2021-10-17 09:10,KLAF 170910Z AUTO 27002KT 10SM CLR 04/03 A3012 RMK T00400030 MADISHF
LAF,2021-10-17 09:15,KLAF 170915Z AUTO 26002KT 10SM CLR 04/03 A3012 RMK T00400030 MADISHF
LAF,2021-10-17 09:20,KLAF 170920Z AUTO 25002KT 10SM CLR 04/03 A3012 RMK T00400030 MADISHF
LAF,2021-10-17 09:25,KLAF 170925Z AUTO 26002KT 10SM CLR 04/03 A3012 RMK T00400030 MADISHF
LAF,2021-10-17 09:30,KLAF 170930Z AUTO 25002KT 10SM CLR 04/03 A3013 RMK T00400030 MADISHF
LAF,2021-10-17 09:35,KLAF 170935Z AUTO 25002KT 10SM CLR 04/03 A3013 RMK T00400030 MADISHF
LAF,2021-10-17 09:40,KLAF 170940Z AUTO 25002KT 10SM CLR 04/03 A3013 RMK T00400030 MADISHF
LAF,2021-10-17 09:45,KLAF 170945Z AUTO 26002KT 10SM CLR 04/03 A3013 RMK T00400030 MADISHF
LAF,2021-10-17 09:50,KLAF 170950Z AUTO 26004KT 10SM CLR 04/03 A3013 RMK T00400030 MADISHF
LAF,2021-10-17 09:54,KLAF 170954Z AUTO 26004KT 10SM CLR 04/03 A3014 RMK AO2 SLP207 T00390033
LAF,2021-10-17 09:55,KLAF 170955Z AUTO 26004KT 10SM CLR 04/03 A3013 RMK T00400030 MADISHF
LAF,2021-10-17 10:00,KLAF 171000Z AUTO 26004KT 10SM CLR 04/03 A3013 RMK T00400030 MADISHF
LAF,2021-10-17 10:05,KLAF 171005Z AUTO 26002KT 10SM CLR 04/03 A3013 RMK T00400030 MADISHF
LAF,2021-10-17 10:10,KLAF 171010Z AUTO 25002KT 10SM CLR 04/03 A3013 RMK T00400030 MADISHF
LAF,2021-10-17 10:15,KLAF 171015Z AUTO 25002KT 10SM CLR 04/03 A3013 RMK T00400030 MADISHF
LAF,2021-10-17 10:20,KLAF 171020Z AUTO 26002KT 10SM CLR 04/03 A3013 RMK T00400030 MADISHF
LAF,2021-10-17 10:25,KLAF 171025Z AUTO 26004KT 10SM CLR 04/03 A3013 RMK T00400030 MADISHF
LAF,2021-10-17 10:30,KLAF 171030Z AUTO 25004KT 10SM CLR 04/03 A3013 RMK T00400030 MADISHF
LAF,2021-10-17 10:35,KLAF 171035Z AUTO 26004KT 10SM CLR 04/03 A3013 RMK T00400030 MADISHF
LAF,2021-10-17 10:40,KLAF 171040Z AUTO 26004KT 10SM CLR 04/03 A3013 RMK T00400030 MADISHF
LAF,2021-10-17 10:45,KLAF 171045Z AUTO 26004KT 10SM CLR 04/03 A3013 RMK T00400030 MADISHF
LAF,2021-10-17 10:50,KLAF 171050Z AUTO 26002KT 10SM CLR 04/03 A3013 RMK T00400030 MADISHF
LAF,2021-10-17 10:54,KLAF 171054Z 25003KT 10SM CLR 04/03 A3014 RMK AO2 SLP207 T00390033
LAF,2021-10-17 10:55,KLAF 171055Z AUTO 25002KT 10SM CLR 04/03 A3013 RMK T00400030 MADISHF
LAF,2021-10-17 11:00,KLAF 171100Z AUTO 25002KT 10SM CLR 04/03 A3013 RMK T00400030 MADISHF
LAF,2021-10-17 11:05,KLAF 171105Z AUTO 00000KT 10SM CLR 04/03 A3013 RMK T00400030 MADISHF
LAF,2021-10-17 11:10,KLAF 171110Z AUTO 00000KT 10SM CLR 04/03 A3013 RMK T00400030 MADISHF
LAF,2021-10-17 11:15,KLAF 171115Z AUTO 00000KT 10SM CLR 04/03 A3013 RMK T00400030 MADISHF
LAF,2021-10-17 11:20,KLAF 171120Z AUTO 26002KT 10SM CLR 04/03 A3013 RMK T00400030 MADISHF
LAF,2021-10-17 11:25,KLAF 171125Z AUTO 25002KT 10SM CLR 03/03 A3013 RMK T00300030 MADISHF
LAF,2021-10-17 11:30,KLAF 171130Z AUTO 25002KT 10SM CLR 03/03 A3013 RMK T00300030 MADISHF
LAF,2021-10-17 11:35,KLAF 171135Z AUTO 25002KT 10SM CLR 03/03 A3013 RMK T00300030 MADISHF
LAF,2021-10-17 11:40,KLAF 171140Z AUTO 00000KT 10SM CLR 03/03 A3013 RMK T00300030 MADISHF
LAF,2021-10-17 11:45,KLAF 171145Z AUTO 00000KT 10SM CLR 03/03 A3013 RMK T00300030 MADISHF
LAF,2021-10-17 11:50,KLAF 171150Z AUTO 00000KT 10SM CLR 03/03 A3013 RMK T00300030 MADISHF
LAF,2021-10-17 11:54,KLAF 171154Z 00000KT 10SM CLR 03/03 A3014 RMK AO2 SLP207 T00330028 10050 20033 50003
LAF,2021-10-17 11:55,KLAF 171155Z AUTO 00000KT 10SM CLR 03/03 A3013 RMK T00300030 MADISHF
LAF,2021-10-17 12:00,KLAF 171200Z AUTO 00000KT 10SM CLR 03/03 A3013 RMK T00300030 MADISHF
LAF,2021-10-17 12:05,KLAF 171205Z AUTO 00000KT 10SM CLR 03/03 A3013 RMK T00300030 MADISHF
LAF,2021-10-17 12:10,KLAF 171210Z AUTO 00000KT 10SM CLR 03/03 A3013 RMK T00300030 MADISHF
LAF,2021-10-17 12:15,KLAF 171215Z AUTO 27002KT 10SM CLR 03/03 A3013 RMK T00300030 MADISHF
LAF,2021-10-17 12:20,KLAF 171220Z AUTO 27002KT 10SM CLR 03/03 A3013 RMK T00300030 MADISHF
LAF,2021-10-17 12:25,KLAF 171225Z AUTO 27002KT 10SM CLR 03/03 A3013 RMK T00300030 MADISHF
LAF,2021-10-17 12:30,KLAF 171230Z AUTO 26002KT 10SM CLR 03/03 A3013 RMK T00300030 MADISHF
LAF,2021-10-17 12:35,KLAF 171235Z AUTO 26002KT 10SM CLR 03/03 A3014 RMK T00300030 MADISHF
LAF,2021-10-17 12:40,KLAF 171240Z AUTO 25002KT 10SM CLR 03/03 A3014 RMK T00300030 MADISHF
LAF,2021-10-17 12:45,KLAF 171245Z AUTO 00000KT 10SM CLR 04/04 A3014 RMK T00400040 MADISHF
LAF,2021-10-17 12:50,KLAF 171250Z AUTO 26002KT 10SM CLR 04/04 A3014 RMK T00400040 MADISHF
LAF,2021-10-17 12:54,KLAF 171254Z 00000KT 10SM CLR 04/04 A3015 RMK AO2 SLP212 T00440039
LAF,2021-10-17 12:55,KLAF 171255Z AUTO 00000KT 10SM CLR 04/04 A3014 RMK T00400040 MADISHF
LAF,2021-10-17 13:00,KLAF 171300Z AUTO 25002KT 10SM CLR 05/04 A3014 RMK T00500040 MADISHF
LAF,2021-10-17 13:05,KLAF 171305Z AUTO 26004KT 10SM CLR 05/04 A3014 RMK T00500040 MADISHF
LAF,2021-10-17 13:10,KLAF 171310Z AUTO 26004KT 10SM CLR 06/04 A3014 RMK T00600040 MADISHF
LAF,2021-10-17 13:15,KLAF 171315Z AUTO 26005KT 10SM CLR 06/04 A3014 RMK T00600040 MADISHF
LAF,2021-10-17 13:20,KLAF 171320Z AUTO 26005KT 10SM CLR 06/04 A3014 RMK T00600040 MADISHF
LAF,2021-10-17 13:25,KLAF 171325Z AUTO 26005KT 10SM CLR 06/04 A3015 RMK T00600040 MADISHF
LAF,2021-10-17 13:30,KLAF 171330Z AUTO 26005KT 10SM CLR 07/04 A3015 RMK T00700040 MADISHF
LAF,2021-10-17 13:35,KLAF 171335Z AUTO 25005KT 10SM CLR 07/04 A3015 RMK T00700040 MADISHF
LAF,2021-10-17 13:40,KLAF 171340Z AUTO 26005KT 10SM CLR 07/05 A3015 RMK T00700050 MADISHF
LAF,2021-10-17 13:45,KLAF 171345Z AUTO 26005KT 10SM CLR 07/05 A3015 RMK T00700050 MADISHF
LAF,2021-10-17 13:50,KLAF 171350Z AUTO 26005KT 10SM CLR 07/05 A3015 RMK T00700050 MADISHF
LAF,2021-10-17 13:54,KLAF 171354Z 26006KT 10SM CLR 08/05 A3016 RMK AO2 SLP216 T00780050
LAF,2021-10-17 13:55,KLAF 171355Z AUTO 26005KT 10SM CLR 08/05 A3015 RMK T00800050 MADISHF
LAF,2021-10-17 14:00,KLAF 171400Z AUTO 26007KT 10SM CLR 08/06 A3015 RMK T00800060 MADISHF
LAF,2021-10-17 14:05,KLAF 171405Z AUTO 26005KT 10SM CLR 08/05 A3015 RMK T00800050 MADISHF
LAF,2021-10-17 14:10,KLAF 171410Z AUTO 26004KT 10SM CLR 08/05 A3015 RMK T00800050 MADISHF
LAF,2021-10-17 14:15,KLAF 171415Z AUTO 26004KT 10SM CLR 09/06 A3015 RMK T00900060 MADISHF
LAF,2021-10-17 14:20,KLAF 171420Z AUTO 27005KT 10SM CLR 09/06 A3015 RMK T00900060 MADISHF
LAF,2021-10-17 14:25,KLAF 171425Z AUTO 26005KT 10SM CLR 09/06 A3015 RMK T00900060 MADISHF
LAF,2021-10-17 14:30,KLAF 171430Z AUTO 26005KT 10SM CLR 09/06 A3015 RMK T00900060 MADISHF
LAF,2021-10-17 14:35,KLAF 171435Z AUTO 26007KT 10SM CLR 10/06 A3015 RMK T01000060 MADISHF
LAF,2021-10-17 14:40,KLAF 171440Z AUTO 29005KT 10SM CLR 10/06 A3015 RMK T01000060 MADISHF
LAF,2021-10-17 14:45,KLAF 171445Z AUTO 28008KT 10SM CLR 11/06 A3015 RMK T01100060 MADISHF
LAF,2021-10-17 14:50,KLAF 171450Z AUTO 27007KT 10SM CLR 11/06 A3015 RMK T01100060 MADISHF
LAF,2021-10-17 14:54,KLAF 171454Z 28008KT 10SM CLR 11/06 A3016 RMK AO2 SLP215 T01060056 51009
LAF,2021-10-17 14:55,KLAF 171455Z AUTO 28009KT 10SM CLR 11/06 A3015 RMK T01100060 MADISHF
LAF,2021-10-17 15:00,KLAF 171500Z AUTO 28009KT 10SM CLR 11/05 A3015 RMK T01100050 MADISHF
LAF,2021-10-17 15:05,KLAF 171505Z AUTO 28005KT 10SM CLR 11/05 A3015 RMK T01100050 MADISHF
LAF,2021-10-17 15:10,KLAF 171510Z AUTO 27007KT 10SM CLR 12/06 A3015 RMK T01200060 MADISHF
LAF,2021-10-17 15:15,KLAF 171515Z AUTO 27005KT 10SM CLR 12/06 A3015 RMK T01200060 MADISHF
LAF,2021-10-17 15:20,KLAF 171520Z AUTO 29008KT 10SM CLR 12/06 A3015 RMK T01200060 MADISHF
LAF,2021-10-17 15:25,KLAF 171525Z AUTO 28005KT 10SM CLR 12/06 A3015 RMK T01200060 MADISHF
LAF,2021-10-17 15:30,KLAF 171530Z AUTO 28005KT 10SM CLR 12/06 A3015 RMK T01200060 MADISHF
LAF,2021-10-17 15:35,KLAF 171535Z AUTO 27005KT 10SM CLR 12/06 A3015 RMK T01200060 MADISHF
LAF,2021-10-17 15:40,KLAF 171540Z AUTO 26008KT 10SM CLR 13/06 A3017 RMK T01300060 MADISHF
LAF,2021-10-17 15:45,KLAF 171545Z AUTO 27004KT 10SM CLR 13/06 A3017 RMK T01300060 MADISHF
LAF,2021-10-17 15:50,KLAF 171550Z AUTO 25007KT 10SM CLR 13/06 A3017 RMK T01300060 MADISHF
LAF,2021-10-17 15:54,KLAF 171554Z 25007KT 10SM CLR 13/06 A3017 RMK AO2 SLP217 T01280056
LAF,2021-10-17 15:55,KLAF 171555Z AUTO 24005KT 10SM CLR 13/06 A3017 RMK T01300060 MADISHF
LAF,2021-10-17 16:00,KLAF 171600Z AUTO 27007KT 10SM CLR 13/06 A3017 RMK T01300060 MADISHF
LAF,2021-10-17 16:05,KLAF 171605Z AUTO 24005KT 10SM CLR 13/06 A3017 RMK T01300060 VRB05KT  MADISHF
LAF,2021-10-17 16:10,KLAF 171610Z AUTO 26005KT 10SM CLR 13/06 A3017 RMK T01300060 MADISHF
LAF,2021-10-17 16:15,KLAF 171615Z AUTO 25007KT 10SM CLR 14/06 A3015 RMK T01400060 MADISHF
LAF,2021-10-17 16:20,KLAF 171620Z AUTO 25008KT 10SM CLR 14/06 A3017 RMK T01400060 MADISHF
LAF,2021-10-17 16:25,KLAF 171625Z AUTO 28005KT 10SM CLR 14/06 A3017 RMK T01400060 MADISHF
LAF,2021-10-17 16:30,KLAF 171630Z AUTO 27007KT 10SM CLR 14/06 A3015 RMK T01400060 MADISHF
LAF,2021-10-17 16:35,KLAF 171635Z AUTO 26009KT 10SM CLR 14/06 A3015 RMK T01400060 MADISHF
LAF,2021-10-17 16:40,KLAF 171640Z AUTO 29008KT 10SM CLR 15/06 A3015 RMK T01500060 MADISHF
LAF,2021-10-17 16:45,KLAF 171645Z AUTO 26008KT 10SM CLR 15/06 A3015 RMK T01500060 MADISHF
LAF,2021-10-17 16:50,KLAF 171650Z AUTO 27009KT 10SM CLR 15/06 A3017 RMK T01500060 MADISHF
LAF,2021-10-17 16:54,KLAF 171654Z 31008KT 10SM CLR 16/06 A3016 RMK AO2 SLP216 T01560056
LAF,2021-10-17 16:55,KLAF 171655Z AUTO 32010KT 10SM CLR 16/06 A3015 RMK T01600060 MADISHF
LAF,2021-10-17 17:00,KLAF 171700Z AUTO 31008KT 10SM CLR 16/06 A3015 RMK T01600060 MADISHF
LAF,2021-10-17 17:05,KLAF 171705Z AUTO 26005KT 10SM CLR 16/06 A3015 RMK T01600060 MADISHF
LAF,2021-10-17 17:10,KLAF 171710Z AUTO 29007KT 10SM CLR 16/06 A3015 RMK T01600060 MADISHF
LAF,2021-10-17 17:15,KLAF 171715Z AUTO 27009KT 10SM CLR 16/06 A3015 RMK T01600060 MADISHF
LAF,2021-10-17 17:20,KLAF 171720Z AUTO 27007KT 10SM CLR 16/06 A3015 RMK T01600060 MADISHF
LAF,2021-10-17 17:25,KLAF 171725Z AUTO 26007KT 10SM CLR 16/06 A3014 RMK T01600060 MADISHF
LAF,2021-10-17 17:30,KLAF 171730Z AUTO 27009KT 10SM CLR 16/06 A3014 RMK T01600060 MADISHF
LAF,2021-10-17 17:35,KLAF 171735Z AUTO 25005KT 10SM CLR 17/06 A3014 RMK T01700060 MADISHF
LAF,2021-10-17 17:40,KLAF 171740Z AUTO 27010KT 10SM CLR 17/06 A3014 RMK T01700060 MADISHF
LAF,2021-10-17 17:45,KLAF 171745Z AUTO 30008KT 10SM CLR 17/06 A3014 RMK T01700060 MADISHF
LAF,2021-10-17 17:50,KLAF 171750Z AUTO 30005KT 10SM CLR 17/06 A3014 RMK T01700060 MADISHF
LAF,2021-10-17 17:54,KLAF 171754Z 31008KT 260V330 10SM CLR 17/06 A3015 RMK AO2 SLP209 T01670061 10167 20028 58006
LAF,2021-10-17 17:55,KLAF 171755Z AUTO 27007KT 10SM CLR 17/06 A3014 RMK T01700060 WND 22V33  MADISHF
LAF,2021-10-17 18:00,KLAF 171800Z AUTO 31007KT 10SM CLR 17/06 A3013 RMK T01700060 MADISHF
LAF,2021-10-17 18:05,KLAF 171805Z AUTO 30008KT 10SM CLR 17/06 A3013 RMK T01700060 MADISHF
LAF,2021-10-17 18:10,KLAF 171810Z AUTO 31010KT 10SM CLR 17/06 A3013 RMK T01700060 MADISHF
LAF,2021-10-17 18:15,KLAF 171815Z AUTO 28005KT 10SM CLR 17/06 A3013 RMK T01700060 MADISHF
LAF,2021-10-17 18:20,KLAF 171820Z AUTO 30005KT 10SM CLR 17/06 A3012 RMK T01700060 MADISHF
LAF,2021-10-17 18:25,KLAF 171825Z AUTO /////KT 10SM CLR 18/06 A3012 RMK T01800060 MADISHF
LAF,2021-10-17 18:30,KLAF 171830Z AUTO 31005KT 10SM CLR 18/06 A3013 RMK T01800060 VRB05KT  MADISHF
LAF,2021-10-17 18:35,KLAF 171835Z AUTO 27011KT 10SM CLR 18/05 A3012 RMK T01800050 MADISHF
LAF,2021-10-17 18:40,KLAF 171840Z AUTO 27008KT 10SM CLR 18/06 A3012 RMK T01800060 MADISHF
LAF,2021-10-17 18:45,KLAF 171845Z AUTO 27010KT 10SM CLR 18/06 A3012 RMK T01800060 MADISHF
LAF,2021-10-17 18:50,KLAF 171850Z AUTO 28008KT 10SM CLR 18/05 A3012 RMK T01800050 MADISHF
LAF,2021-10-17 18:54,KLAF 171854Z 24008KT 10SM CLR 18/05 A3013 RMK AO2 SLP202 T01780050
LAF,2021-10-17 18:55,KLAF 171855Z AUTO 25009KT 10SM CLR 18/05 A3012 RMK T01800050 MADISHF
LAF,2021-10-17 19:00,KLAF 171900Z AUTO 29008KT 10SM CLR 18/06 A3012 RMK T01800060 MADISHF
LAF,2021-10-17 19:05,KLAF 171905Z AUTO 28008KT 10SM CLR 18/06 A3012 RMK T01800060 MADISHF
LAF,2021-10-17 19:10,KLAF 171910Z AUTO 27011KT 10SM CLR 18/05 A3012 RMK T01800050 MADISHF
LAF,2021-10-17 19:15,KLAF 171915Z AUTO 30007KT 10SM CLR 18/04 A3012 RMK T01800040 MADISHF
LAF,2021-10-17 19:20,KLAF 171920Z AUTO 26010KT 10SM CLR 18/05 A3012 RMK T01800050 MADISHF
LAF,2021-10-17 19:25,KLAF 171925Z AUTO 28008KT 10SM CLR 18/05 A3012 RMK T01800050 MADISHF
LAF,2021-10-17 19:30,KLAF 171930Z AUTO 28010KT 10SM CLR 18/05 A3012 RMK T01800050 MADISHF
LAF,2021-10-17 19:35,KLAF 171935Z AUTO 29011KT 10SM CLR 18/05 A3012 RMK T01800050 MADISHF
LAF,2021-10-17 19:40,KLAF 171940Z AUTO 30011KT 10SM CLR 18/04 A3012 RMK T01800040 MADISHF
LAF,2021-10-17 19:45,KLAF 171945Z AUTO 27010KT 10SM CLR 18/05 A3012 RMK T01800050 MADISHF
LAF,2021-10-17 19:50,KLAF 171950Z AUTO 28009KT 10SM CLR 18/05 A3012 RMK T01800050 MADISHF
LAF,2021-10-17 19:54,KLAF 171954Z 28007KT 10SM CLR 19/06 A3012 RMK AO2 SLP200 T01890056
LAF,2021-10-17 19:55,KLAF 171955Z AUTO 28010G15KT 10SM CLR 19/05 A3012 RMK T01900050 MADISHF
LAF,2021-10-17 20:00,KLAF 172000Z AUTO 30010KT 10SM CLR 18/04 A3012 RMK T01800040 MADISHF
LAF,2021-10-17 20:05,KLAF 172005Z AUTO 30009KT 10SM CLR 18/04 A3012 RMK T01800040 MADISHF
LAF,2021-10-17 20:10,KLAF 172010Z AUTO 31011KT 10SM CLR 18/05 A3012 RMK T01800050 MADISHF
LAF,2021-10-17 20:15,KLAF 172015Z AUTO 30008KT 10SM CLR 18/05 A3011 RMK T01800050 MADISHF
LAF,2021-10-17 20:20,KLAF 172020Z AUTO 30005KT 10SM CLR 19/05 A3011 RMK T01900050 MADISHF
LAF,2021-10-17 20:25,KLAF 172025Z AUTO 28011KT 10SM CLR 19/05 A3011 RMK T01900050 MADISHF
LAF,2021-10-17 20:30,KLAF 172030Z AUTO 29011KT 10SM CLR 18/04 A3011 RMK T01800040 MADISHF
LAF,2021-10-17 20:35,KLAF 172035Z AUTO 30008KT 10SM CLR 18/04 A3011 RMK T01800040 MADISHF
LAF,2021-10-17 20:40,KLAF 172040Z AUTO 29010KT 10SM CLR 18/04 A3011 RMK T01800040 WND 26V32  MADISHF
LAF,2021-10-17 20:45,KLAF 172045Z AUTO 29009KT 10SM CLR 18/04 A3011 RMK T01800040 MADISHF
LAF,2021-10-17 20:50,KLAF 172050Z AUTO 30005KT 10SM CLR 18/04 A3011 RMK T01800040 MADISHF
LAF,2021-10-17 20:54,KLAF 172054Z 29008KT 10SM CLR 19/04 A3011 RMK AO2 SLP196 T01890044 56013
LAF,2021-10-17 20:55,KLAF 172055Z AUTO 30009KT 10SM CLR 19/05 A3011 RMK T01900050 MADISHF
LAF,2021-10-17 21:00,KLAF 172100Z AUTO 31009KT 10SM CLR 18/04 A3011 RMK T01800040 MADISHF
LAF,2021-10-17 21:05,KLAF 172105Z AUTO 31007KT 10SM CLR 18/04 A3011 RMK T01800040 MADISHF
LAF,2021-10-17 21:10,KLAF 172110Z AUTO 29008KT 10SM CLR 18/04 A3011 RMK T01800040 MADISHF
LAF,2021-10-17 21:15,KLAF 172115Z AUTO 28008KT 10SM CLR 18/04 A3011 RMK T01800040 MADISHF
LAF,2021-10-17 21:20,KLAF 172120Z AUTO 29008KT 10SM CLR 18/04 A3011 RMK T01800040 MADISHF
LAF,2021-10-17 21:25,KLAF 172125Z AUTO 28010KT 10SM CLR 18/04 A3011 RMK T01800040 MADISHF
LAF,2021-10-17 21:30,KLAF 172130Z AUTO 28008KT 10SM CLR 18/04 A3011 RMK T01800040 MADISHF
LAF,2021-10-17 21:35,KLAF 172135Z AUTO 28009KT 10SM CLR 18/04 A3011 RMK T01800040 MADISHF
LAF,2021-10-17 21:40,KLAF 172140Z AUTO 29008KT 10SM CLR 18/04 A3011 RMK T01800040 MADISHF
LAF,2021-10-17 21:45,KLAF 172145Z AUTO 29007KT 10SM CLR 18/04 A3011 RMK T01800040 MADISHF
LAF,2021-10-17 21:50,KLAF 172150Z AUTO 30007KT 10SM CLR 18/04 A3011 RMK T01800040 MADISHF
LAF,2021-10-17 21:54,KLAF 172154Z 29007KT 10SM CLR 18/04 A3011 RMK AO2 SLP196 T01780044
LAF,2021-10-17 21:55,KLAF 172155Z AUTO 29007KT 10SM CLR 18/04 A3011 RMK T01800040 MADISHF
LAF,2021-10-17 22:00,KLAF 172200Z AUTO 30005KT 10SM CLR 18/04 A3011 RMK T01800040 MADISHF
LAF,2021-10-17 22:05,KLAF 172205Z AUTO 29007KT 10SM CLR 18/04 A3011 RMK T01800040 MADISHF
LAF,2021-10-17 22:10,KLAF 172210Z AUTO 29005KT 10SM CLR 17/04 A3011 RMK T01700040 MADISHF
LAF,2021-10-17 22:15,KLAF 172215Z AUTO 28005KT 10SM CLR 17/04 A3011 RMK T01700040 MADISHF
LAF,2021-10-17 22:20,KLAF 172220Z AUTO 28005KT 10SM CLR 17/04 A3011 RMK T01700040 MADISHF
LAF,2021-10-17 22:25,KLAF 172225Z AUTO 29005KT 10SM CLR 17/04 A3011 RMK T01700040 MADISHF
LAF,2021-10-17 22:30,KLAF 172230Z AUTO 29005KT 10SM CLR 17/05 A3011 RMK T01700050 MADISHF
LAF,2021-10-17 22:35,KLAF 172235Z AUTO 29004KT 10SM CLR 17/05 A3011 RMK T01700050 MADISHF
LAF,2021-10-17 22:40,KLAF 172240Z AUTO 30004KT 10SM CLR 16/05 A3011 RMK T01600050 MADISHF
LAF,2021-10-17 22:45,KLAF 172245Z AUTO 31004KT 10SM CLR 16/05 A3011 RMK T01600050 MADISHF
LAF,2021-10-17 22:50,KLAF 172250Z AUTO 30002KT 10SM CLR 16/05 A3011 RMK T01600050 MADISHF
LAF,2021-10-17 22:54,KLAF 172254Z 30004KT 10SM CLR 15/05 A3011 RMK AO2 SLP198 T01500050
LAF,2021-10-17 22:55,KLAF 172255Z AUTO 30004KT 10SM CLR 15/06 A3011 RMK T01500060 MADISHF
LAF,2021-10-17 23:00,KLAF 172300Z AUTO 29002KT 10SM CLR 14/06 A3011 RMK T01400060 MADISHF
LAF,2021-10-17 23:05,KLAF 172305Z AUTO 28002KT 10SM CLR 14/06 A3011 RMK T01400060 MADISHF
LAF,2021-10-17 23:10,KLAF 172310Z AUTO 29002KT 10SM CLR 14/07 A3011 RMK T01400070 MADISHF
LAF,2021-10-17 23:15,KLAF 172315Z AUTO 29002KT 10SM CLR 14/06 A3011 RMK T01400060 MADISHF
LAF,2021-10-17 23:20,KLAF 172320Z AUTO 00000KT 10SM CLR 13/06 A3011 RMK T01300060 MADISHF
LAF,2021-10-17 23:25,KLAF 172325Z AUTO 00000KT 10SM CLR 13/06 A3012 RMK T01300060 MADISHF
LAF,2021-10-17 23:30,KLAF 172330Z AUTO 28002KT 10SM CLR 12/07 A3012 RMK T01200070 MADISHF
LAF,2021-10-17 23:35,KLAF 172335Z AUTO 00000KT 10SM CLR 12/07 A3012 RMK T01200070 MADISHF
LAF,2021-10-17 23:40,KLAF 172340Z AUTO 00000KT 10SM CLR 12/07 A3012 RMK T01200070 MADISHF
LAF,2021-10-17 23:45,KLAF 172345Z AUTO 00000KT 10SM CLR 12/07 A3012 RMK T01200070 MADISHF
LAF,2021-10-17 23:50,KLAF 172350Z AUTO 00000KT 10SM CLR 12/07 A3012 RMK T01200070 MADISHF
LAF,2021-10-17 23:54,KLAF 172354Z 00000KT 10SM CLR 12/07 A3012 RMK AO2 SLP201 T01170072 10189 20117 53003
LAF,2021-10-17 23:55,KLAF 172355Z AUTO 00000KT 10SM CLR 12/07 A3012 RMK T01200070 MADISHF
LAF,2021-10-18 00:00,KLAF 180000Z AUTO 00000KT 10SM CLR 11/07 A3012 RMK T01100070 MADISHF
LAF,2021-10-18 00:05,KLAF 180005Z AUTO 00000KT 10SM CLR 11/07 A3012 RMK T01100070 MADISHF
LAF,2021-10-18 00:10,KLAF 180010Z AUTO 00000KT 10SM CLR 10/07 A3012 RMK T01000070 MADISHF
LAF,2021-10-18 00:15,KLAF 180015Z AUTO 00000KT 10SM CLR 11/08 A3012 RMK T01100080 MADISHF
LAF,2021-10-18 00:20,KLAF 180020Z AUTO 00000KT 10SM CLR 10/08 A3012 RMK T01000080 MADISHF
LAF,2021-10-18 00:25,KLAF 180025Z AUTO 00000KT 10SM CLR 10/08 A3012 RMK T01000080 MADISHF
LAF,2021-10-18 00:30,KLAF 180030Z AUTO 00000KT 10SM CLR 10/08 A3012 RMK T01000080 MADISHF
LAF,2021-10-18 00:35,KLAF 180035Z AUTO 00000KT 10SM CLR 09/08 A3012 RMK T00900080 MADISHF
LAF,2021-10-18 00:40,KLAF 180040Z AUTO 00000KT 10SM CLR 09/08 A3012 RMK T00900080 MADISHF
LAF,2021-10-18 00:45,KLAF 180045Z AUTO 00000KT 10SM CLR 10/07 A3012 RMK T01000070 MADISHF
LAF,2021-10-18 00:50,KLAF 180050Z AUTO 00000KT 10SM CLR 09/08 A3012 RMK T00900080 MADISHF
LAF,2021-10-18 00:54,KLAF 180054Z AUTO 00000KT 10SM CLR 09/08 A3013 RMK AO2 SLP206 T00890078
LAF,2021-10-18 00:55,KLAF 180055Z AUTO 00000KT 10SM CLR 09/08 A3012 RMK T00900080 MADISHF
LAF,2021-10-18 01:00,KLAF 180100Z AUTO 27002KT 10SM CLR 09/08 A3012 RMK T00900080 MADISHF
LAF,2021-10-18 01:05,KLAF 180105Z AUTO 27002KT 10SM CLR 09/07 A3012 RMK T00900070 MADISHF
LAF,2021-10-18 01:10,KLAF 180110Z AUTO 27004KT 10SM CLR 08/07 A3012 RMK T00800070 MADISHF
LAF,2021-10-18 01:15,KLAF 180115Z AUTO 28002KT 10SM CLR 08/07 A3012 RMK T00800070 MADISHF
LAF,2021-10-18 01:20,KLAF 180120Z AUTO 28002KT 10SM CLR 09/07 A3012 RMK T00900070 MADISHF
LAF,2021-10-18 01:25,KLAF 180125Z AUTO 00000KT 10SM CLR 09/07 A3012 RMK T00900070 MADISHF
LAF,2021-10-18 01:30,KLAF 180130Z AUTO 28002KT 10SM CLR 09/07 A3012 RMK T00900070 MADISHF
LAF,2021-10-18 01:35,KLAF 180135Z AUTO 00000KT 10SM CLR 08/07 A3013 RMK T00800070 MADISHF
LAF,2021-10-18 01:40,KLAF 180140Z AUTO 00000KT 10SM CLR 08/07 A3013 RMK T00800070 MADISHF
LAF,2021-10-18 01:45,KLAF 180145Z AUTO 00000KT 10SM CLR 08/07 A3013 RMK T00800070 MADISHF
LAF,2021-10-18 01:50,KLAF 180150Z AUTO 00000KT 10SM CLR 08/07 A3013 RMK T00800070 MADISHF
LAF,2021-10-18 01:54,KLAF 180154Z AUTO 00000KT 10SM CLR 08/07 A3014 RMK AO2 SLP207 T00830072
LAF,2021-10-18 01:55,KLAF 180155Z AUTO 00000KT 10SM CLR 08/07 A3013 RMK T00800070 MADISHF
LAF,2021-10-18 02:00,KLAF 180200Z AUTO 00000KT 10SM CLR 08/07 A3013 RMK T00800070 MADISHF
LAF,2021-10-18 02:05,KLAF 180205Z AUTO 00000KT 10SM CLR 08/07 A3013 RMK T00800070 MADISHF
LAF,2021-10-18 02:10,KLAF 180210Z AUTO 00000KT 10SM CLR 08/07 A3013 RMK T00800070 MADISHF
LAF,2021-10-18 02:15,KLAF 180215Z AUTO 29002KT 10SM CLR 08/07 A3013 RMK T00800070 MADISHF
LAF,2021-10-18 02:20,KLAF 180220Z AUTO 00000KT 10SM CLR 08/07 A3013 RMK T00800070 MADISHF
LAF,2021-10-18 02:25,KLAF 180225Z AUTO 00000KT 10SM CLR 08/07 A3013 RMK T00800070 MADISHF
LAF,2021-10-18 02:30,KLAF 180230Z AUTO 00000KT 10SM CLR 07/06 A3014 RMK T00700060 MADISHF
LAF,2021-10-18 02:35,KLAF 180235Z AUTO 00000KT 10SM CLR 07/06 A3014 RMK T00700060 MADISHF
LAF,2021-10-18 02:40,KLAF 180240Z AUTO 00000KT 10SM CLR 07/07 A3014 RMK T00700070 MADISHF
LAF,2021-10-18 02:45,KLAF 180245Z AUTO 00000KT 10SM CLR 07/06 A3014 RMK T00700060 MADISHF
LAF,2021-10-18 02:50,KLAF 180250Z AUTO 26002KT 10SM CLR 07/06 A3014 RMK T00700060 MADISHF
LAF,2021-10-18 02:54,KLAF 180254Z AUTO 26004KT 10SM CLR 07/07 A3015 RMK AO2 SLP210 T00670067 51010
LAF,2021-10-18 02:55,KLAF 180255Z AUTO 26004KT 10SM CLR 07/07 A3014 RMK T00700070 MADISHF
LAF,2021-10-18 03:00,KLAF 180300Z AUTO 27002KT 10SM CLR 07/06 A3014 RMK T00700060 MADISHF
LAF,2021-10-18 03:05,KLAF 180305Z AUTO 27002KT 10SM CLR 07/07 A3014 RMK T00700070 MADISHF
LAF,2021-10-18 03:10,KLAF 180310Z AUTO 26004KT 10SM CLR 07/07 A3014 RMK T00700070 MADISHF
LAF,2021-10-18 03:15,KLAF 180315Z AUTO 26004KT 10SM CLR 07/07 A3014 RMK T00700070 MADISHF
LAF,2021-10-18 03:20,KLAF 180320Z AUTO 26002KT 10SM CLR 07/07 A3014 RMK T00700070 MADISHF
LAF,2021-10-18 03:25,KLAF 180325Z AUTO 25002KT 10SM CLR 07/07 A3014 RMK T00700070 MADISHF
LAF,2021-10-18 03:30,KLAF 180330Z AUTO 00000KT 10SM CLR 07/07 A3014 RMK T00700070 MADISHF
LAF,2021-10-18 03:35,KLAF 180335Z AUTO 00000KT 10SM CLR 07/07 A3014 RMK T00700070 MADISHF
LAF,2021-10-18 03:40,KLAF 180340Z AUTO 00000KT 10SM CLR 07/06 A3014 RMK T00700060 MADISHF
LAF,2021-10-18 03:45,KLAF 180345Z AUTO 00000KT 10SM CLR 07/06 A3014 RMK T00700060 MADISHF
LAF,2021-10-18 03:50,KLAF 180350Z AUTO 00000KT 10SM CLR 07/06 A3014 RMK T00700060 MADISHF
LAF,2021-10-18 03:54,KLAF 180354Z AUTO 00000KT 9SM CLR 07/06 A3015 RMK AO2 SLP209 T00670061
LAF,2021-10-18 03:55,KLAF 180355Z AUTO 00000KT 9SM CLR 07/06 A3014 RMK T00700060 MADISHF
LAF,2021-10-18 04:00,KLAF 180400Z AUTO 00000KT 8SM CLR 06/06 A3014 RMK T00600060 MADISHF
LAF,2021-10-18 04:05,KLAF 180405Z AUTO 00000KT 7SM CLR 06/06 A3014 RMK T00600060 MADISHF
LAF,2021-10-18 04:10,KLAF 180410Z AUTO 00000KT 8SM CLR 06/06 A3014 RMK T00600060 MADISHF
LAF,2021-10-18 04:15,KLAF 180415Z AUTO 00000KT 10SM CLR 06/06 A3014 RMK T00600060 MADISHF
LAF,2021-10-18 04:20,KLAF 180420Z AUTO 00000KT 9SM CLR 06/06 A3014 RMK T00600060 MADISHF
LAF,2021-10-18 04:25,KLAF 180425Z AUTO 00000KT 10SM CLR 06/06 A3014 RMK T00600060 MADISHF
LAF,2021-10-18 04:30,KLAF 180430Z AUTO 00000KT 10SM CLR 07/06 A3013 RMK T00700060 MADISHF
LAF,2021-10-18 04:35,KLAF 180435Z AUTO 00000KT 10SM CLR 06/06 A3013 RMK T00600060 MADISHF
LAF,2021-10-18 04:40,KLAF 180440Z AUTO 00000KT 10SM CLR 06/06 A3014 RMK T00600060 MADISHF
LAF,2021-10-18 04:45,KLAF 180445Z AUTO 00000KT 6SM BR CLR 06/06 A3013 RMK T00600060 MADISHF
LAF,2021-10-18 04:50,KLAF 180450Z AUTO 00000KT 6SM BR CLR 07/06 A3013 RMK T00700060 MADISHF
LAF,2021-10-18 04:54,KLAF 180454Z AUTO 00000KT 7SM CLR 06/06 A3014 RMK AO2 SLP208 T00610056 401890028
LAF,2021-10-18 04:55,KLAF 180455Z AUTO 00000KT 6SM BR CLR 06/06 A3013 RMK T00600060 MADISHF
LAF,2021-10-18 05:00,KLAF 180500Z AUTO 00000KT 2 1/2SM BR CLR 06/06 A3013 RMK T00600060 MADISHF
LAF,2021-10-18 05:05,KLAF 180505Z AUTO 00000KT 2 1/2SM BR CLR 06/06 A3014 RMK AO2 T00610056
LAF,2021-10-18 05:05,KLAF 180505Z AUTO 00000KT 2 1/2SM BR CLR 06/06 A3013 RMK T00600060 MADISHF
LAF,2021-10-18 05:10,KLAF 180510Z AUTO 27002KT 8SM CLR 06/05 A3013 RMK T00600050 MADISHF
LAF,2021-10-18 05:12,KLAF 180512Z AUTO 28003KT 9SM CLR 06/05 A3014 RMK AO2 T00560050
LAF,2021-10-18 05:15,KLAF 180515Z AUTO 28002KT 10SM CLR 06/05 A3013 RMK T00600050 MADISHF
LAF,2021-10-18 05:20,KLAF 180520Z AUTO 28002KT 10SM CLR 06/06 A3013 RMK T00600060 MADISHF
LAF,2021-10-18 05:25,KLAF 180525Z AUTO 27002KT 8SM CLR 06/06 A3013 RMK T00600060 MADISHF
LAF,2021-10-18 05:30,KLAF 180530Z AUTO 00000KT 8SM CLR 06/06 A3013 RMK T00600060 MADISHF
LAF,2021-10-18 05:35,KLAF 180535Z AUTO 28002KT 10SM CLR 06/06 A3014 RMK T00600060 MADISHF
LAF,2021-10-18 05:40,KLAF 180540Z AUTO 00000KT 10SM CLR 06/06 A3013 RMK T00600060 MADISHF
LAF,2021-10-18 05:45,KLAF 180545Z AUTO 00000KT 10SM CLR 06/06 A3014 RMK T00600060 MADISHF
LAF,2021-10-18 05:50,KLAF 180550Z AUTO 00000KT 10SM CLR 06/04 A3014 RMK T00600040 MADISHF
LAF,2021-10-18 05:54,KLAF 180554Z AUTO 00000KT 10SM CLR 06/04 A3015 RMK AO2 SLP208 T00560044 10117 20056 55001
LAF,2021-10-18 05:55,KLAF 180555Z AUTO 00000KT 10SM CLR 06/04 A3014 RMK T00600040 MADISHF
LAF,2021-10-18 06:00,KLAF 180600Z AUTO 00000KT 10SM CLR 06/05 A3013 RMK T00600050 MADISHF
LAF,2021-10-18 06:05,KLAF 180605Z AUTO 00000KT 6SM BR CLR 05/05 A3013 RMK T00500050 MADISHF
LAF,2021-10-18 06:10,KLAF 180610Z AUTO 00000KT 6SM BR CLR 06/05 A3013 RMK T00600050 MADISHF
LAF,2021-10-18 06:15,KLAF 180615Z AUTO 00000KT 10SM CLR 06/05 A3014 RMK T00600050 MADISHF
LAF,2021-10-18 06:20,KLAF 180620Z AUTO 00000KT 10SM CLR 06/05 A3014 RMK T00600050 MADISHF
LAF,2021-10-18 06:25,KLAF 180625Z AUTO 00000KT 10SM CLR 06/05 A3014 RMK T00600050 MADISHF
LAF,2021-10-18 06:30,KLAF 180630Z AUTO 00000KT 10SM CLR 05/05 A3014 RMK T00500050 MADISHF
LAF,2021-10-18 06:35,KLAF 180635Z AUTO 00000KT 10SM CLR 06/05 A3014 RMK T00600050 MADISHF
LAF,2021-10-18 06:40,KLAF 180640Z AUTO 00000KT 3SM BR CLR 05/04 A3014 RMK T00500040 MADISHF
LAF,2021-10-18 06:45,KLAF 180645Z AUTO 00000KT 3SM BR CLR 05/05 A3014 RMK T00500050 MADISHF
LAF,2021-10-18 06:50,KLAF 180650Z AUTO 00000KT 8SM CLR 05/04 A3014 RMK T00500040 MADISHF
LAF,2021-10-18 06:54,KLAF 180654Z AUTO 00000KT 7SM CLR 05/04 A3015 RMK AO2 SLP210 T00500044
LAF,2021-10-18 06:55,KLAF 180655Z AUTO 00000KT 7SM CLR 05/04 A3014 RMK T00500040 MADISHF
LAF,2021-10-18 07:00,KLAF 180700Z AUTO 00000KT 7SM CLR 05/05 A3014 RMK T00500050 MADISHF
LAF,2021-10-18 07:05,KLAF 180705Z AUTO 28002KT 6SM BR CLR 05/05 A3014 RMK T00500050 MADISHF
LAF,2021-10-18 07:10,KLAF 180710Z AUTO 30002KT 5SM BR CLR 04/04 A3014 RMK T00400040 MADISHF
LAF,2021-10-18 07:15,KLAF 180715Z AUTO 00000KT 8SM CLR 04/04 A3014 RMK T00400040 MADISHF
LAF,2021-10-18 07:20,KLAF 180720Z AUTO 00000KT 6SM BR FEW002 04/04 A3014 RMK T00400040 MADISHF
LAF,2021-10-18 07:25,KLAF 180725Z AUTO 00000KT 4SM BR FEW002 05/04 A3015 RMK AO2 T00500039
LAF,2021-10-18 07:25,KLAF 180725Z AUTO 00000KT 4SM BR FEW002 05/04 A3014 RMK T00500040 MADISHF
LAF,2021-10-18 07:30,KLAF 180730Z AUTO 00000KT 5SM BR FEW002 06/05 A3014 RMK T00600050 MADISHF
LAF,2021-10-18 07:35,KLAF 180735Z AUTO 00000KT 3SM BR FEW002 06/05 A3014 RMK T00600050 MADISHF
LAF,2021-10-18 07:37,KLAF 180737Z AUTO 00000KT 1 1/2SM BR FEW002 06/05 A3015 RMK AO2 T00560050
LAF,2021-10-18 07:40,KLAF 180740Z AUTO 00000KT 1SM BR VV002 05/05 A3014 RMK T00500050 MADISHF
LAF,2021-10-18 07:45,KLAF 180745Z AUTO 00000KT 1SM BR VV002 05/04 A3014 RMK T00500040 MADISHF
LAF,2021-10-18 07:49,KLAF 180749Z AUTO 00000KT 3/4SM BR VV002 05/04 A3015 RMK AO2
LAF,2021-10-18 07:50,KLAF 180750Z AUTO 00000KT 1SM BR VV002 05/04 A3014 RMK T00500040 MADISHF
LAF,2021-10-18 07:54,KLAF 180754Z AUTO 00000KT 1/2SM FG VV002 04/04 A3014 RMK AO2 SLP208 T00440044
LAF,2021-10-18 07:55,KLAF 180755Z AUTO 00000KT 1/2SM FG VV002 04/04 A3013 RMK T00400040 MADISHF
LAF,2021-10-18 08:00,KLAF 180800Z AUTO 00000KT 1SM BR VV002 04/04 A3013 RMK T00400040 MADISHF
LAF,2021-10-18 08:01,KLAF 180801Z AUTO 00000KT 1 1/2SM BR SCT002 04/04 A3015 RMK AO2 T00440044
LAF,2021-10-18 08:03,KLAF 180803Z AUTO 00000KT 3SM BR SCT002 04/04 A3015 RMK AO2 T00440044
LAF,2021-10-18 08:05,KLAF 180805Z AUTO 00000KT 3SM BR SCT002 05/04 A3014 RMK T00500040 MADISHF
LAF,2021-10-18 08:09,KLAF 180809Z AUTO 00000KT 1 1/2SM BR SCT002 04/04 A3015 RMK AO2 T00440044
LAF,2021-10-18 08:10,KLAF 180810Z AUTO 00000KT 1 1/2SM BR SCT002 04/04 A3014 RMK T00400040 MADISHF
LAF,2021-10-18 08:15,KLAF 180815Z AUTO 00000KT 1SM BR VV002 04/04 A3014 RMK T00400040 MADISHF
LAF,2021-10-18 08:17,KLAF 180817Z AUTO 00000KT 1SM BR VV002 04/04 A3015 RMK AO2 T00440044
LAF,2021-10-18 08:20,KLAF 180820Z AUTO 00000KT 2SM BR FEW002 04/04 A3014 RMK T00400040 MADISHF
LAF,2021-10-18 08:20,KLAF 180820Z AUTO 00000KT 2SM BR FEW002 04/04 A3015 RMK AO2 T00440044
LAF,2021-10-18 08:25,KLAF 180825Z AUTO 00000KT 7SM FEW002 05/04 A3013 RMK T00500040 MADISHF
LAF,2021-10-18 08:27,KLAF 180827Z AUTO 00000KT 7SM FEW002 05/04 A3014 RMK AO2 T00500044
LAF,2021-10-18 08:30,KLAF 180830Z AUTO 00000KT 6SM BR FEW002 05/04 A3013 RMK T00500040 MADISHF
LAF,2021-10-18 08:35,KLAF 180835Z AUTO 00000KT 5SM BR CLR 04/04 A3013 RMK T00400040 MADISHF
LAF,2021-10-18 08:40,KLAF 180840Z AUTO 00000KT 6SM BR CLR 04/04 A3014 RMK T00400040 MADISHF
LAF,2021-10-18 08:45,KLAF 180845Z AUTO 00000KT 8SM CLR 04/04 A3014 RMK T00400040 MADISHF
LAF,2021-10-18 08:50,KLAF 180850Z AUTO 00000KT 5SM BR CLR 04/04 A3014 RMK T00400040 MADISHF
LAF,2021-10-18 08:54,KLAF 180854Z AUTO 00000KT 3SM BR CLR 04/04 A3015 RMK AO2 SLP208 T00440044 51000
LAF,2021-10-18 08:55,KLAF 180855Z AUTO 00000KT 2 1/2SM BR CLR 04/04 A3014 RMK T00400040 MADISHF
LAF,2021-10-18 09:00,KLAF 180900Z AUTO 00000KT 3SM BR CLR 04/04 A3014 RMK T00400040 MADISHF
LAF,2021-10-18 09:05,KLAF 180905Z AUTO 00000KT 6SM BR CLR 04/04 A3014 RMK T00400040 MADISHF
LAF,2021-10-18 09:10,KLAF 180910Z AUTO 00000KT 2 1/2SM BR CLR 04/04 A3014 RMK T00400040 MADISHF
LAF,2021-10-18 09:12,KLAF 180912Z AUTO 00000KT 1 3/4SM BR CLR 04/04 A3015 RMK AO2 T00440039
LAF,2021-10-18 09:15,KLAF 180915Z AUTO 00000KT 1SM BR CLR 04/04 A3014 RMK T00400040 MADISHF
LAF,2021-10-18 09:20,KLAF 180920Z AUTO 00000KT 1/2SM FG CLR 04/04 A3014 RMK T00400040 MADISHF
LAF,2021-10-18 09:22,KLAF 180922Z AUTO 00000KT 1/2SM FG CLR 04/04 A3015 RMK AO2 T00440039
LAF,2021-10-18 09:25,KLAF 180925Z AUTO 00000KT 1/2SM FG CLR 04/04 A3014 RMK T00400040 MADISHF
LAF,2021-10-18 09:30,KLAF 180930Z AUTO 00000KT 2 1/2SM BR CLR 04/04 A3015 RMK AO2 T00440039
LAF,2021-10-18 09:30,KLAF 180930Z AUTO 00000KT 2 1/2SM BR CLR 04/04 A3014 RMK T00400040 MADISHF
LAF,2021-10-18 09:35,KLAF 180935Z AUTO 00000KT 9SM CLR 04/04 A3014 RMK T00400040 MADISHF
LAF,2021-10-18 09:37,KLAF 180937Z AUTO 00000KT 10SM CLR 04/04 A3015 RMK AO2 T00440039
LAF,2021-10-18 09:40,KLAF 180940Z AUTO 00000KT 10SM CLR 04/04 A3014 RMK T00400040 MADISHF
LAF,2021-10-18 09:45,KLAF 180945Z AUTO 00000KT 10SM CLR 04/04 A3014 RMK T00400040 MADISHF
LAF,2021-10-18 09:50,KLAF 180950Z AUTO 00000KT 10SM CLR 04/04 A3014 RMK T00400040 MADISHF
LAF,2021-10-18 09:54,KLAF 180954Z AUTO 00000KT 10SM CLR 04/04 A3015 RMK AO2 SLP211 T00440039
LAF,2021-10-18 09:55,KLAF 180955Z AUTO 00000KT 10SM CLR 04/04 A3014 RMK T00400040 MADISHF
LAF,2021-10-18 10:00,KLAF 181000Z AUTO 00000KT 10SM CLR 04/04 A3015 RMK T00400040 MADISHF
LAF,2021-10-18 10:05,KLAF 181005Z AUTO 00000KT 8SM CLR 04/04 A3015 RMK T00400040 MADISHF
LAF,2021-10-18 10:10,KLAF 181010Z AUTO 00000KT 8SM CLR 04/04 A3015 RMK T00400040 MADISHF
LAF,2021-10-18 10:15,KLAF 181015Z AUTO 00000KT 10SM CLR 04/04 A3015 RMK T00400040 MADISHF
LAF,2021-10-18 10:20,KLAF 181020Z AUTO 00000KT 3SM BR CLR 04/04 A3015 RMK T00400040 MADISHF
LAF,2021-10-18 10:24,KLAF 181024Z AUTO 00000KT 1 3/4SM BR CLR 04/04 A3016 RMK AO2 VIS 1V5 T00440039
LAF,2021-10-18 10:25,KLAF 181025Z AUTO 00000KT 1 1/2SM BR CLR 04/04 A3015 RMK T00400040 MADISHF
LAF,2021-10-18 10:30,KLAF 181030Z AUTO 00000KT 2SM BR CLR 04/04 A3015 RMK T00400040 MADISHF
LAF,2021-10-18 10:34,KLAF 181034Z 00000KT 3SM BR CLR 04/03 A3016 RMK AO2 T00390033
LAF,2021-10-18 10:35,KLAF 181035Z AUTO 00000KT 5SM BR CLR 04/03 A3015 RMK T00400030 MADISHF
LAF,2021-10-18 10:40,KLAF 181040Z AUTO 00000KT 9SM CLR 04/04 A3015 RMK T00400040 MADISHF
LAF,2021-10-18 10:45,KLAF 181045Z AUTO 00000KT 10SM CLR 04/03 A3015 RMK T00400030 MADISHF
LAF,2021-10-18 10:50,KLAF 181050Z AUTO 00000KT 10SM CLR 04/03 A3015 RMK T00400030 MADISHF
LAF,2021-10-18 10:54,KLAF 181054Z 00000KT 10SM CLR 04/03 A3016 RMK AO2 SLP215 T00390033
LAF,2021-10-18 10:55,KLAF 181055Z AUTO 00000KT 10SM CLR 04/03 A3015 RMK T00400030 MADISHF
LAF,2021-10-18 11:00,KLAF 181100Z AUTO 00000KT 9SM CLR 04/03 A3015 RMK T00400030 MADISHF
LAF,2021-10-18 11:05,KLAF 181105Z AUTO 00000KT 4SM BR CLR 04/04 A3015 RMK T00400040 MADISHF
LAF,2021-10-18 11:10,KLAF 181110Z AUTO 00000KT 3SM BR CLR 04/04 A3015 RMK T00400040 MADISHF
LAF,2021-10-18 11:15,KLAF 181115Z AUTO 00000KT 5SM BR CLR 04/03 A3015 RMK T00400030 MADISHF
LAF,2021-10-18 11:20,KLAF 181120Z AUTO 00000KT 8SM CLR 04/04 A3015 RMK T00400040 MADISHF
LAF,2021-10-18 11:25,KLAF 181125Z AUTO 00000KT 8SM CLR 04/04 A3015 RMK T00400040 MADISHF
LAF,2021-10-18 11:30,KLAF 181130Z AUTO 00000KT 6SM BR CLR 04/04 A3015 RMK T00400040 MADISHF
LAF,2021-10-18 11:35,KLAF 181135Z AUTO 00000KT 6SM BR CLR 04/04 A3015 RMK T00400040 MADISHF
LAF,2021-10-18 11:40,KLAF 181140Z AUTO 00000KT 8SM CLR 04/04 A3015 RMK T00400040 MADISHF
LAF,2021-10-18 11:45,KLAF 181145Z AUTO 00000KT 5SM BR CLR 04/04 A3015 RMK T00400040 MADISHF
LAF,2021-10-18 11:50,KLAF 181150Z AUTO 00000KT 2 1/2SM BR CLR 04/04 A3015 RMK T00400040 MADISHF
LAF,2021-10-18 11:54,KLAF 181154Z 00000KT 10SM CLR 04/04 A3016 RMK AO2 SLP216 T00440044 10056 20033 51003
LAF,2021-10-18 11:55,KLAF 181155Z AUTO 00000KT 2 1/2SM BR CLR 04/04 A3015 RMK T00400040 MADISHF
LAF,2021-10-18 12:00,KLAF 181200Z AUTO 00000KT 10SM CLR 04/04 A3015 RMK T00400040 MADISHF
LAF,2021-10-18 12:05,KLAF 181205Z AUTO 00000KT 10SM CLR 04/04 A3015 RMK T00400040 MADISHF
LAF,2021-10-18 12:10,KLAF 181210Z AUTO 00000KT 10SM CLR 03/03 A3017 RMK T00300030 MADISHF
LAF,2021-10-18 12:15,KLAF 181215Z AUTO 00000KT 10SM CLR 04/04 A3017 RMK T00400040 MADISHF
LAF,2021-10-18 12:20,KLAF 181220Z AUTO 00000KT 10SM CLR 04/04 A3017 RMK T00400040 MADISHF
LAF,2021-10-18 12:25,KLAF 181225Z AUTO 00000KT 10SM CLR 04/04 A3017 RMK T00400040 MADISHF
LAF,2021-10-18 12:30,KLAF 181230Z AUTO 00000KT 10SM CLR 04/04 A3017 RMK T00400040 MADISHF
LAF,2021-10-18 12:35,KLAF 181235Z AUTO 00000KT 10SM CLR 04/04 A3017 RMK T00400040 MADISHF
LAF,2021-10-18 12:40,KLAF 181240Z AUTO 00000KT 10SM CLR 04/04 A3017 RMK T00400040 MADISHF
LAF,2021-10-18 12:45,KLAF 181245Z AUTO 00000KT 10SM CLR 04/04 A3018 RMK T00400040 MADISHF
LAF,2021-10-18 12:50,KLAF 181250Z AUTO 00000KT 10SM CLR 05/05 A3018 RMK T00500050 MADISHF
LAF,2021-10-18 12:54,KLAF 181254Z 00000KT 10SM CLR 05/05 A3018 RMK AO2 SLP222 T00500050
LAF,2021-10-18 12:55,KLAF 181255Z AUTO 00000KT 10SM CLR 05/05 A3018 RMK T00500050 MADISHF
LAF,2021-10-18 13:00,KLAF 181300Z AUTO 00000KT 10SM CLR 06/06 A3018 RMK T00600060 MADISHF
LAF,2021-10-18 13:05,KLAF 181305Z AUTO 00000KT 10SM CLR 06/06 A3018 RMK T00600060 MADISHF
LAF,2021-10-18 13:10,KLAF 181310Z AUTO 00000KT 10SM CLR 06/06 A3018 RMK T00600060 MADISHF
LAF,2021-10-18 13:15,KLAF 181315Z AUTO 00000KT 10SM CLR 07/07 A3018 RMK T00700070 MADISHF
LAF,2021-10-18 13:20,KLAF 181320Z AUTO 00000KT 10SM CLR 07/07 A3018 RMK T00700070 MADISHF
LAF,2021-10-18 13:25,KLAF 181325Z AUTO 00000KT 10SM CLR 07/07 A3018 RMK T00700070 MADISHF
LAF,2021-10-18 13:30,KLAF 181330Z AUTO 00000KT 10SM CLR 08/07 A3019 RMK T00800070 MADISHF
LAF,2021-10-18 13:35,KLAF 181335Z AUTO 00000KT 10SM CLR 08/07 A3019 RMK T00800070 MADISHF
LAF,2021-10-18 13:40,KLAF 181340Z AUTO 00000KT 10SM CLR 08/07 A3019 RMK T00800070 MADISHF
LAF,2021-10-18 13:45,KLAF 181345Z AUTO 00000KT 10SM CLR 08/07 A3019 RMK T00800070 MADISHF
LAF,2021-10-18 13:50,KLAF 181350Z AUTO 00000KT 10SM CLR 09/08 A3019 RMK T00900080 MADISHF
LAF,2021-10-18 13:54,KLAF 181354Z 00000KT 10SM CLR 09/08 A3019 RMK AO2 SLP224 T00890078
LAF,2021-10-18 13:55,KLAF 181355Z AUTO 00000KT 10SM CLR 09/08 A3019 RMK T00900080 MADISHF
LAF,2021-10-18 14:00,KLAF 181400Z AUTO 00000KT 10SM CLR 09/08 A3019 RMK T00900080 MADISHF
LAF,2021-10-18 14:05,KLAF 181405Z AUTO 00000KT 10SM CLR 09/08 A3019 RMK T00900080 MADISHF
LAF,2021-10-18 14:10,KLAF 181410Z AUTO 00000KT 10SM CLR 10/08 A3019 RMK T01000080 MADISHF
LAF,2021-10-18 14:15,KLAF 181415Z AUTO 00000KT 10SM CLR 11/08 A3019 RMK T01100080 MADISHF
LAF,2021-10-18 14:20,KLAF 181420Z AUTO 25002KT 10SM CLR 11/08 A3019 RMK T01100080 MADISHF
LAF,2021-10-18 14:25,KLAF 181425Z AUTO 25002KT 10SM CLR 11/08 A3019 RMK T01100080 MADISHF
LAF,2021-10-18 14:30,KLAF 181430Z AUTO 23002KT 10SM CLR 11/08 A3019 RMK T01100080 MADISHF
LAF,2021-10-18 14:35,KLAF 181435Z AUTO 00000KT 10SM CLR 11/08 A3019 RMK T01100080 MADISHF
LAF,2021-10-18 14:40,KLAF 181440Z AUTO 00000KT 10SM CLR 12/08 A3019 RMK T01200080 MADISHF
LAF,2021-10-18 14:45,KLAF 181445Z AUTO 00000KT 10SM CLR 12/09 A3019 RMK T01200090 MADISHF
LAF,2021-10-18 14:50,KLAF 181450Z AUTO 00000KT 10SM CLR 12/09 A3019 RMK T01200090 MADISHF
LAF,2021-10-18 14:54,KLAF 181454Z 27003KT 10SM CLR 12/09 A3019 RMK AO2 SLP225 T01220089 51009
LAF,2021-10-18 14:55,KLAF 181455Z AUTO 27002KT 10SM CLR 12/09 A3019 RMK T01200090 VRB03KT  MADISHF
LAF,2021-10-18 15:00,KLAF 181500Z AUTO 23004KT 10SM CLR 13/09 A3019 RMK T01300090 MADISHF
LAF,2021-10-18 15:05,KLAF 181505Z AUTO 27004KT 10SM CLR 13/09 A3019 RMK T01300090 MADISHF
LAF,2021-10-18 15:10,KLAF 181510Z AUTO 25004KT 10SM CLR 13/09 A3019 RMK T01300090 VRB04KT  MADISHF
LAF,2021-10-18 15:15,KLAF 181515Z AUTO 24004KT 10SM CLR 14/09 A3019 RMK T01400090 MADISHF
LAF,2021-10-18 15:20,KLAF 181520Z AUTO 23004KT 10SM CLR 14/09 A3019 RMK T01400090 VRB04KT  MADISHF
LAF,2021-10-18 15:25,KLAF 181525Z AUTO 25004KT 10SM CLR 14/09 A3019 RMK T01400090 MADISHF
LAF,2021-10-18 15:30,KLAF 181530Z AUTO 25004KT 10SM CLR 14/09 A3019 RMK T01400090 MADISHF
LAF,2021-10-18 15:35,KLAF 181535Z AUTO 26002KT 10SM CLR 15/09 A3019 RMK T01500090 VRB03KT  MADISHF
LAF,2021-10-18 15:40,KLAF 181540Z AUTO 23004KT 10SM CLR 15/09 A3019 RMK T01500090 VRB04KT  MADISHF
LAF,2021-10-18 15:45,KLAF 181545Z AUTO 24002KT 10SM CLR 16/09 A3019 RMK T01600090 VRB03KT  MADISHF
LAF,2021-10-18 15:50,KLAF 181550Z AUTO 26002KT 10SM CLR 16/10 A3019 RMK T01600100 VRB03KT  MADISHF
LAF,2021-10-18 15:54,KLAF 181554Z VRB04KT 10SM CLR 16/10 A3019 RMK AO2 SLP222 T01610100
LAF,2021-10-18 15:55,KLAF 181555Z AUTO 24004KT 10SM CLR 16/10 A3018 RMK T01600100 VRB04KT  MADISHF
LAF,2021-10-18 16:00,KLAF 181600Z AUTO 24002KT 10SM CLR 17/10 A3018 RMK T01700100 VRB03KT  MADISHF
LAF,2021-10-18 16:05,KLAF 181605Z AUTO 23004KT 10SM CLR 17/10 A3018 RMK T01700100 MADISHF
LAF,2021-10-18 16:10,KLAF 181610Z AUTO 25005KT 10SM CLR 17/10 A3018 RMK T01700100 MADISHF
LAF,2021-10-18 16:15,KLAF 181615Z AUTO 21004KT 10SM CLR 18/09 A3018 RMK T01800090 MADISHF
LAF,2021-10-18 16:20,KLAF 181620Z AUTO 20005KT 10SM CLR 18/09 A3018 RMK T01800090 MADISHF
LAF,2021-10-18 16:25,KLAF 181625Z AUTO 23005KT 10SM CLR 18/09 A3018 RMK T01800090 MADISHF
LAF,2021-10-18 16:30,KLAF 181630Z AUTO 24005KT 10SM CLR 18/08 A3018 RMK T01800080 MADISHF
LAF,2021-10-18 16:35,KLAF 181635Z AUTO 25004KT 10SM CLR 19/08 A3018 RMK T01900080 MADISHF
LAF,2021-10-18 16:40,KLAF 181640Z AUTO 23002KT 10SM CLR 19/08 A3018 RMK T01900080 MADISHF
LAF,2021-10-18 16:45,KLAF 181645Z AUTO 22005KT 10SM CLR 19/09 A3017 RMK T01900090 MADISHF
LAF,2021-10-18 16:50,KLAF 181650Z AUTO 20004KT 10SM CLR 19/08 A3017 RMK T01900080 VRB04KT  MADISHF
LAF,2021-10-18 16:54,KLAF 181654Z 21004KT 10SM CLR 19/08 A3017 RMK AO2 SLP218 T01890078
LAF,2021-10-18 16:55,KLAF 181655Z AUTO 19004KT 10SM CLR 19/08 A3017 RMK T01900080 VRB04KT  MADISHF
LAF,2021-10-18 17:00,KLAF 181700Z AUTO 24005KT 6SM HZ CLR 19/07 A3017 RMK T01900070 MADISHF
LAF,2021-10-18 17:05,KLAF 181705Z AUTO 22002KT 5SM HZ CLR 19/07 A3017 RMK T01900070 VRB03KT  MADISHF
LAF,2021-10-18 17:10,KLAF 181710Z AUTO 23004KT 6SM HZ CLR 19/07 A3015 RMK T01900070 VRB04KT  MADISHF
LAF,2021-10-18 17:15,KLAF 181715Z AUTO 21002KT 9SM CLR 20/08 A3015 RMK T02000080 VRB03KT  MADISHF
LAF,2021-10-18 17:20,KLAF 181720Z AUTO 19005KT 10SM CLR 19/07 A3015 RMK T01900070 MADISHF
LAF,2021-10-18 17:25,KLAF 181725Z AUTO 21004KT 10SM CLR 19/07 A3015 RMK T01900070 VRB04KT  MADISHF
LAF,2021-10-18 17:30,KLAF 181730Z AUTO 24002KT 8SM CLR 20/07 A3015 RMK T02000070 VRB03KT  MADISHF
LAF,2021-10-18 17:35,KLAF 181735Z AUTO 23005KT 8SM CLR 20/07 A3014 RMK T02000070 MADISHF
LAF,2021-10-18 17:40,KLAF 181740Z AUTO 26004KT 10SM CLR 20/07 A3014 RMK T02000070 VRB04KT  MADISHF
LAF,2021-10-18 17:45,KLAF 181745Z AUTO 00000KT 10SM CLR 20/07 A3014 RMK T02000070 MADISHF
LAF,2021-10-18 17:50,KLAF 181750Z AUTO 23005KT 9SM CLR 20/07 A3014 RMK T02000070 MADISHF
LAF,2021-10-18 17:54,KLAF 181754Z 26005KT 10SM CLR 21/08 A3015 RMK AO2 SLP209 T02060078 10206 20033 58014
LAF,2021-10-18 17:55,KLAF 181755Z AUTO 26004KT 9SM CLR 21/07 A3014 RMK T02100070 MADISHF
LAF,2021-10-18 18:00,KLAF 181800Z AUTO 24002KT 9SM CLR 21/07 A3014 RMK T02100070 VRB03KT  MADISHF
LAF,2021-10-18 18:05,KLAF 181805Z AUTO /////KT 10SM CLR 21/08 A3013 RMK T02100080 MADISHF
LAF,2021-10-18 18:10,KLAF 181810Z AUTO 25005KT 10SM CLR 21/07 A3013 RMK T02100070 MADISHF
LAF,2021-10-18 18:15,KLAF 181815Z AUTO 23002KT 10SM CLR 21/07 A3013 RMK T02100070 MADISHF
LAF,2021-10-18 18:20,KLAF 181820Z AUTO /////KT 10SM CLR 21/07 A3013 RMK T02100070 MADISHF
LAF,2021-10-18 18:25,KLAF 181825Z AUTO 25004KT 9SM CLR 21/07 A3013 RMK T02100070 MADISHF
LAF,2021-10-18 18:30,KLAF 181830Z AUTO 25005KT 9SM CLR 21/07 A3012 RMK T02100070 MADISHF
LAF,2021-10-18 18:35,KLAF 181835Z AUTO 26007KT 10SM CLR 21/06 A3012 RMK T02100060 MADISHF
LAF,2021-10-18 18:40,KLAF 181840Z AUTO 25008KT 10SM CLR 21/07 A3012 RMK T02100070 MADISHF
LAF,2021-10-18 18:45,KLAF 181845Z AUTO 25005KT 10SM CLR 21/06 A3012 RMK T02100060 MADISHF
LAF,2021-10-18 18:50,KLAF 181850Z AUTO 27005KT 10SM CLR 21/06 A3012 RMK T02100060 VRB06KT  MADISHF
LAF,2021-10-18 18:54,KLAF 181854Z 25008KT 10SM CLR 21/07 A3013 RMK AO2 SLP202 T02110067
LAF,2021-10-18 18:55,KLAF 181855Z AUTO 26009KT 10SM CLR 21/06 A3012 RMK T02100060 MADISHF
LAF,2021-10-18 19:00,KLAF 181900Z AUTO 28007KT 10SM CLR 21/06 A3012 RMK T02100060 MADISHF
LAF,2021-10-18 19:05,KLAF 181905Z AUTO 23005KT 9SM CLR 21/07 A3012 RMK T02100070 VRB05KT  MADISHF
LAF,2021-10-18 19:10,KLAF 181910Z AUTO 25008KT 8SM CLR 21/06 A3012 RMK T02100060 WND 21V28  MADISHF
LAF,2021-10-18 19:15,KLAF 181915Z AUTO 24005KT 7SM CLR 21/06 A3012 RMK T02100060 MADISHF
LAF,2021-10-18 19:20,KLAF 181920Z AUTO 27008KT 8SM CLR 21/06 A3012 RMK T02100060 MADISHF
LAF,2021-10-18 19:25,KLAF 181925Z AUTO 25005KT 10SM CLR 21/07 A3012 RMK T02100070 MADISHF
LAF,2021-10-18 19:30,KLAF 181930Z AUTO 25008KT 10SM CLR 21/07 A3012 RMK T02100070 MADISHF
LAF,2021-10-18 19:35,KLAF 181935Z AUTO 26007KT 10SM CLR 21/07 A3012 RMK T02100070 MADISHF
LAF,2021-10-18 19:40,KLAF 181940Z AUTO 24004KT 10SM CLR 21/07 A3012 RMK T02100070 MADISHF
LAF,2021-10-18 19:45,KLAF 181945Z AUTO 27008KT 10SM CLR 22/07 A3012 RMK T02200070 MADISHF
LAF,2021-10-18 19:50,KLAF 181950Z AUTO 25007KT 10SM CLR 21/08 A3011 RMK T02100080 MADISHF
LAF,2021-10-18 19:54,KLAF 181954Z 27009KT 10SM CLR 21/07 A3011 RMK AO2 SLP198 T02110072
LAF,2021-10-18 19:55,KLAF 181955Z AUTO 27007KT 10SM CLR 21/07 A3011 RMK T02100070 MADISHF
LAF,2021-10-18 20:00,KLAF 182000Z AUTO 25007KT 10SM CLR 21/07 A3011 RMK T02100070 MADISHF
LAF,2021-10-18 20:05,KLAF 182005Z AUTO 25008KT 10SM CLR 21/07 A3011 RMK T02100070 MADISHF
LAF,2021-10-18 20:10,KLAF 182010Z AUTO 23005KT 10SM CLR 21/07 A3011 RMK T02100070 MADISHF
LAF,2021-10-18 20:15,KLAF 182015Z AUTO 24007KT 9SM CLR 21/07 A3011 RMK T02100070 MADISHF
LAF,2021-10-18 20:20,KLAF 182020Z AUTO 26009KT 9SM CLR 21/06 A3011 RMK T02100060 MADISHF
LAF,2021-10-18 20:25,KLAF 182025Z AUTO 26010KT 10SM CLR 21/07 A3011 RMK T02100070 MADISHF
LAF,2021-10-18 20:30,KLAF 182030Z AUTO 26007KT 10SM CLR 21/07 A3011 RMK T02100070 MADISHF
LAF,2021-10-18 20:35,KLAF 182035Z AUTO 26007KT 10SM CLR 21/07 A3011 RMK T02100070 MADISHF
LAF,2021-10-18 20:40,KLAF 182040Z AUTO 27008KT 10SM CLR 21/06 A3011 RMK T02100060 MADISHF
LAF,2021-10-18 20:45,KLAF 182045Z AUTO 27007KT 10SM CLR 21/07 A3011 RMK T02100070 MADISHF
LAF,2021-10-18 20:50,KLAF 182050Z AUTO 26005KT 10SM CLR 21/07 A3011 RMK T02100070 MADISHF
LAF,2021-10-18 20:54,KLAF 182054Z 26006KT 10SM CLR 21/07 A3011 RMK AO2 SLP196 T02110067 56014
LAF,2021-10-18 20:55,KLAF 182055Z AUTO 26005KT 10SM CLR 21/07 A3011 RMK T02100070 MADISHF
LAF,2021-10-18 21:00,KLAF 182100Z AUTO 25005KT 10SM CLR 21/07 A3011 RMK T02100070 MADISHF
LAF,2021-10-18 21:05,KLAF 182105Z AUTO 26007KT 10SM CLR 21/08 A3011 RMK T02100080 MADISHF
LAF,2021-10-18 21:10,KLAF 182110Z AUTO 24007KT 10SM CLR 21/07 A3011 RMK T02100070 MADISHF
LAF,2021-10-18 21:15,KLAF 182115Z AUTO 27005KT 10SM CLR 21/06 A3011 RMK T02100060 MADISHF
LAF,2021-10-18 21:20,KLAF 182120Z AUTO 25005KT 10SM CLR 21/07 A3011 RMK T02100070 MADISHF
LAF,2021-10-18 21:25,KLAF 182125Z AUTO 25004KT 10SM CLR 21/07 A3011 RMK T02100070 MADISHF
LAF,2021-10-18 21:30,KLAF 182130Z AUTO 24005KT 10SM CLR 21/07 A3011 RMK T02100070 MADISHF
LAF,2021-10-18 21:35,KLAF 182135Z AUTO 25004KT 10SM CLR 21/07 A3011 RMK T02100070 MADISHF
LAF,2021-10-18 21:40,KLAF 182140Z AUTO /////KT 10SM CLR 21/07 A3011 RMK T02100070 MADISHF
LAF,2021-10-18 21:45,KLAF 182145Z AUTO 25004KT 10SM CLR 21/07 A3011 RMK T02100070 MADISHF
LAF,2021-10-18 21:50,KLAF 182150Z AUTO 23002KT 10SM CLR 21/07 A3011 RMK T02100070 MADISHF
LAF,2021-10-18 21:54,KLAF 182154Z 24003KT 9SM CLR 21/08 A3011 RMK AO2 SLP195 T02060078
LAF,2021-10-18 21:55,KLAF 182155Z AUTO 24004KT 9SM CLR 21/08 A3010 RMK T02100080 MADISHF
LAF,2021-10-18 22:00,KLAF 182200Z AUTO 23002KT 9SM CLR 21/07 A3010 RMK T02100070 MADISHF
LAF,2021-10-18 22:05,KLAF 182205Z AUTO 23002KT 7SM CLR 21/08 A3010 RMK T02100080 MADISHF
LAF,2021-10-18 22:10,KLAF 182210Z AUTO 00000KT 7SM CLR 21/07 A3010 RMK T02100070 MADISHF
LAF,2021-10-18 22:15,KLAF 182215Z AUTO 00000KT 8SM CLR 21/08 A3010 RMK T02100080 MADISHF
LAF,2021-10-18 22:20,KLAF 182220Z AUTO 00000KT 5SM HZ CLR 21/07 A3010 RMK T02100070 MADISHF
LAF,2021-10-18 22:25,KLAF 182225Z AUTO 00000KT 4SM HZ CLR 21/07 A3010 RMK T02100070 MADISHF
LAF,2021-10-18 22:30,KLAF 182230Z AUTO 00000KT 4SM HZ CLR 20/08 A3010 RMK T02000080 MADISHF
LAF,2021-10-18 22:35,KLAF 182235Z AUTO 00000KT 3SM HZ CLR 19/08 A3010 RMK T01900080 MADISHF
LAF,2021-10-18 22:40,KLAF 182240Z AUTO 00000KT 4SM HZ CLR 19/08 A3010 RMK T01900080 MADISHF
LAF,2021-10-18 22:45,KLAF 182245Z AUTO 00000KT 10SM CLR 18/09 A3010 RMK T01800090 MADISHF
LAF,2021-10-18 22:50,KLAF 182250Z AUTO 00000KT 10SM CLR 18/08 A3010 RMK T01800080 MADISHF
LAF,2021-10-18 22:54,KLAF 182254Z 00000KT 10SM CLR 17/09 A3010 RMK AO2 SLP193 T01670089
LAF,2021-10-18 22:55,KLAF 182255Z AUTO 00000KT 10SM CLR 17/09 A3010 RMK T01700090 MADISHF
LAF,2021-10-18 23:00,KLAF 182300Z AUTO 00000KT 10SM CLR 16/09 A3010 RMK T01600090 MADISHF
LAF,2021-10-18 23:05,KLAF 182305Z AUTO 00000KT 10SM CLR 16/09 A3010 RMK T01600090 MADISHF
LAF,2021-10-18 23:10,KLAF 182310Z AUTO 00000KT 10SM CLR 16/09 A3010 RMK T01600090 MADISHF
LAF,2021-10-18 23:15,KLAF 182315Z AUTO 00000KT 10SM CLR 15/10 A3010 RMK T01500100 MADISHF
LAF,2021-10-18 23:20,KLAF 182320Z AUTO 00000KT 10SM CLR 15/09 A3010 RMK T01500090 MADISHF
LAF,2021-10-18 23:25,KLAF 182325Z AUTO 00000KT 10SM CLR 15/09 A3010 RMK T01500090 MADISHF
LAF,2021-10-18 23:30,KLAF 182330Z AUTO 00000KT 10SM CLR 14/09 A3010 RMK T01400090 MADISHF
LAF,2021-10-18 23:35,KLAF 182335Z AUTO 00000KT 10SM CLR 14/09 A3010 RMK T01400090 MADISHF
LAF,2021-10-18 23:40,KLAF 182340Z AUTO 00000KT 10SM CLR 13/09 A3010 RMK T01300090 MADISHF
LAF,2021-10-18 23:45,KLAF 182345Z AUTO 00000KT 10SM CLR 13/09 A3010 RMK T01300090 MADISHF
LAF,2021-10-18 23:50,KLAF 182350Z AUTO 00000KT 10SM CLR 13/09 A3010 RMK T01300090 MADISHF
LAF,2021-10-18 23:54,KLAF 182354Z 00000KT 10SM CLR 13/09 A3010 RMK AO2 SLP196 T01330089 10217 20133 55002
LAF,2021-10-18 23:55,KLAF 182355Z AUTO 00000KT 10SM CLR 13/09 A3010 RMK T01300090 MADISHF
LAF,2021-10-19 00:00,KLAF 190000Z AUTO 00000KT 10SM CLR 13/09 A3011 RMK T01300090 MADISHF
LAF,2021-10-19 00:05,KLAF 190005Z AUTO 00000KT 10SM CLR 13/09 A3011 RMK T01300090 MADISHF
LAF,2021-10-19 00:10,KLAF 190010Z AUTO 00000KT 10SM CLR 13/09 A3011 RMK T01300090 MADISHF
LAF,2021-10-19 00:15,KLAF 190015Z AUTO 00000KT 10SM CLR 13/09 A3011 RMK T01300090 MADISHF
LAF,2021-10-19 00:20,KLAF 190020Z AUTO 00000KT 10SM CLR 13/09 A3011 RMK T01300090 MADISHF
LAF,2021-10-19 00:25,KLAF 190025Z AUTO 00000KT 10SM CLR 13/09 A3011 RMK T01300090 MADISHF
LAF,2021-10-19 00:30,KLAF 190030Z AUTO 00000KT 10SM CLR 13/09 A3011 RMK T01300090 MADISHF
LAF,2021-10-19 00:35,KLAF 190035Z AUTO 00000KT 10SM CLR 12/09 A3011 RMK T01200090 MADISHF
LAF,2021-10-19 00:40,KLAF 190040Z AUTO 00000KT 10SM CLR 12/09 A3011 RMK T01200090 MADISHF
LAF,2021-10-19 00:45,KLAF 190045Z AUTO 00000KT 10SM CLR 12/09 A3011 RMK T01200090 MADISHF
LAF,2021-10-19 00:50,KLAF 190050Z AUTO 00000KT 10SM CLR 12/09 A3011 RMK T01200090 MADISHF
LAF,2021-10-19 00:54,KLAF 190054Z AUTO 00000KT 10SM CLR 12/09 A3011 RMK AO2 SLP198 T01220089
LAF,2021-10-19 00:55,KLAF 190055Z AUTO 00000KT 10SM CLR 12/08 A3011 RMK T01200080 MADISHF
LAF,2021-10-19 01:00,KLAF 190100Z AUTO 00000KT 10SM CLR 12/08 A3011 RMK T01200080 MADISHF
LAF,2021-10-19 01:05,KLAF 190105Z AUTO 00000KT 10SM CLR 12/09 A3011 RMK T01200090 MADISHF
LAF,2021-10-19 01:10,KLAF 190110Z AUTO 00000KT 10SM CLR 12/09 A3011 RMK T01200090 MADISHF
LAF,2021-10-19 01:15,KLAF 190115Z AUTO 00000KT 10SM CLR 12/09 A3011 RMK T01200090 MADISHF
LAF,2021-10-19 01:20,KLAF 190120Z AUTO 00000KT 10SM CLR 12/08 A3011 RMK T01200080 MADISHF
LAF,2021-10-19 01:25,KLAF 190125Z AUTO 00000KT 10SM CLR 12/08 A3011 RMK T01200080 MADISHF
LAF,2021-10-19 01:30,KLAF 190130Z AUTO 00000KT 10SM CLR 12/08 A3012 RMK T01200080 MADISHF
LAF,2021-10-19 01:35,KLAF 190135Z AUTO 00000KT 10SM CLR 12/08 A3012 RMK T01200080 MADISHF
LAF,2021-10-19 01:40,KLAF 190140Z AUTO 00000KT 10SM CLR 12/08 A3011 RMK T01200080 MADISHF
LAF,2021-10-19 01:45,KLAF 190145Z AUTO 00000KT 10SM CLR 12/08 A3011 RMK T01200080 MADISHF
LAF,2021-10-19 01:50,KLAF 190150Z AUTO 00000KT 10SM CLR 11/08 A3012 RMK T01100080 MADISHF
LAF,2021-10-19 01:54,KLAF 190154Z AUTO 00000KT 10SM CLR 11/08 A3011 RMK AO2 SLP199 T01110083
LAF,2021-10-19 01:55,KLAF 190155Z AUTO 00000KT 10SM CLR 11/08 A3011 RMK T01100080 MADISHF
LAF,2021-10-19 02:00,KLAF 190200Z AUTO 00000KT 10SM CLR 11/08 A3012 RMK T01100080 MADISHF
LAF,2021-10-19 02:05,KLAF 190205Z AUTO 00000KT 10SM CLR 11/08 A3012 RMK T01100080 MADISHF
LAF,2021-10-19 02:10,KLAF 190210Z AUTO 00000KT 10SM CLR 11/08 A3012 RMK T01100080 MADISHF
LAF,2021-10-19 02:15,KLAF 190215Z AUTO 00000KT 10SM CLR 11/08 A3012 RMK T01100080 MADISHF
LAF,2021-10-19 02:20,KLAF 190220Z AUTO 00000KT 10SM CLR 11/08 A3012 RMK T01100080 MADISHF
LAF,2021-10-19 02:25,KLAF 190225Z AUTO 00000KT 10SM CLR 11/08 A3012 RMK T01100080 MADISHF
LAF,2021-10-19 02:30,KLAF 190230Z AUTO 00000KT 10SM CLR 11/08 A3012 RMK T01100080 MADISHF
LAF,2021-10-19 02:35,KLAF 190235Z AUTO 00000KT 10SM CLR 11/08 A3012 RMK T01100080 MADISHF
LAF,2021-10-19 02:40,KLAF 190240Z AUTO 00000KT 10SM CLR 11/08 A3012 RMK T01100080 MADISHF
LAF,2021-10-19 02:45,KLAF 190245Z AUTO 00000KT 10SM CLR 11/08 A3012 RMK T01100080 MADISHF
LAF,2021-10-19 02:50,KLAF 190250Z AUTO 00000KT 10SM CLR 11/08 A3012 RMK T01100080 MADISHF
LAF,2021-10-19 02:54,KLAF 190254Z AUTO 00000KT 10SM CLR 11/08 A3012 RMK AO2 SLP201 T01060078 53007
LAF,2021-10-19 02:55,KLAF 190255Z AUTO 00000KT 10SM CLR 11/08 A3012 RMK T01100080 MADISHF
LAF,2021-10-19 03:00,KLAF 190300Z AUTO 00000KT 10SM CLR 10/08 A3012 RMK T01000080 MADISHF
LAF,2021-10-19 03:05,KLAF 190305Z AUTO 00000KT 10SM CLR 10/08 A3012 RMK T01000080 MADISHF
LAF,2021-10-19 03:10,KLAF 190310Z AUTO 00000KT 10SM CLR 10/08 A3012 RMK T01000080 MADISHF
LAF,2021-10-19 03:15,KLAF 190315Z AUTO 00000KT 10SM CLR 11/08 A3012 RMK T01100080 MADISHF
LAF,2021-10-19 03:20,KLAF 190320Z AUTO 00000KT 10SM CLR 10/08 A3012 RMK T01000080 MADISHF
LAF,2021-10-19 03:25,KLAF 190325Z AUTO 00000KT 10SM CLR 10/08 A3012 RMK T01000080 MADISHF
LAF,2021-10-19 03:30,KLAF 190330Z AUTO 00000KT 10SM CLR 10/08 A3012 RMK T01000080 MADISHF
LAF,2021-10-19 03:35,KLAF 190335Z AUTO 00000KT 10SM CLR 10/08 A3012 RMK T01000080 MADISHF
LAF,2021-10-19 03:40,KLAF 190340Z AUTO 00000KT 10SM CLR 10/08 A3012 RMK T01000080 MADISHF
LAF,2021-10-19 03:45,KLAF 190345Z AUTO 00000KT 10SM CLR 10/08 A3012 RMK T01000080 MADISHF
LAF,2021-10-19 03:50,KLAF 190350Z AUTO 25002KT 10SM CLR 11/07 A3012 RMK T01100070 MADISHF
LAF,2021-10-19 03:54,KLAF 190354Z AUTO 24003KT 10SM CLR 11/07 A3012 RMK AO2 SLP200 T01110072
LAF,2021-10-19 03:55,KLAF 190355Z AUTO 24002KT 10SM CLR 11/07 A3012 RMK T01100070 MADISHF
LAF,2021-10-19 04:00,KLAF 190400Z AUTO 22002KT 10SM CLR 11/07 A3012 RMK T01100070 MADISHF
LAF,2021-10-19 04:05,KLAF 190405Z AUTO 23002KT 10SM CLR 10/07 A3012 RMK T01000070 MADISHF
LAF,2021-10-19 04:10,KLAF 190410Z AUTO 22002KT 10SM CLR 11/07 A3012 RMK T01100070 MADISHF
LAF,2021-10-19 04:15,KLAF 190415Z AUTO 00000KT 10SM CLR 10/07 A3012 RMK T01000070 MADISHF
LAF,2021-10-19 04:20,KLAF 190420Z AUTO 21002KT 10SM CLR 11/07 A3012 RMK T01100070 MADISHF
LAF,2021-10-19 04:25,KLAF 190425Z AUTO 00000KT 10SM CLR 11/07 A3012 RMK T01100070 MADISHF
LAF,2021-10-19 04:30,KLAF 190430Z AUTO 00000KT 10SM CLR 11/07 A3012 RMK T01100070 MADISHF
LAF,2021-10-19 04:35,KLAF 190435Z AUTO 00000KT 10SM CLR 11/07 A3012 RMK T01100070 MADISHF
LAF,2021-10-19 04:40,KLAF 190440Z AUTO 00000KT 10SM CLR 11/07 A3012 RMK T01100070 MADISHF
LAF,2021-10-19 04:45,KLAF 190445Z AUTO 00000KT 10SM CLR 11/07 A3012 RMK T01100070 MADISHF
LAF,2021-10-19 04:50,KLAF 190450Z AUTO 00000KT 10SM CLR 11/07 A3012 RMK T01100070 MADISHF
LAF,2021-10-19 04:54,KLAF 190454Z AUTO 00000KT 10SM CLR 10/07 A3013 RMK AO2 SLP202 T01000072 402170033
LAF,2021-10-19 04:55,KLAF 190455Z AUTO 00000KT 10SM CLR 10/07 A3012 RMK T01000070 MADISHF
LAF,2021-10-19 05:00,KLAF 190500Z AUTO 00000KT 10SM CLR 10/07 A3012 RMK T01000070 MADISHF
LAF,2021-10-19 05:05,KLAF 190505Z AUTO 00000KT 10SM CLR 10/07 A3012 RMK T01000070 MADISHF
LAF,2021-10-19 05:10,KLAF 190510Z AUTO 00000KT 10SM CLR 09/07 A3012 RMK T00900070 MADISHF
LAF,2021-10-19 05:15,KLAF 190515Z AUTO 00000KT 10SM CLR 09/07 A3012 RMK T00900070 MADISHF
LAF,2021-10-19 05:20,KLAF 190520Z AUTO 00000KT 10SM CLR 09/07 A3012 RMK T00900070 MADISHF
LAF,2021-10-19 05:25,KLAF 190525Z AUTO 00000KT 10SM CLR 09/07 A3012 RMK T00900070 MADISHF
LAF,2021-10-19 05:30,KLAF 190530Z AUTO 00000KT 10SM CLR 09/07 A3012 RMK T00900070 MADISHF
LAF,2021-10-19 05:35,KLAF 190535Z AUTO 00000KT 10SM CLR 09/07 A3012 RMK T00900070 MADISHF
LAF,2021-10-19 05:40,KLAF 190540Z AUTO 00000KT 10SM CLR 09/07 A3012 RMK T00900070 MADISHF
LAF,2021-10-19 05:45,KLAF 190545Z AUTO 00000KT 10SM CLR 09/07 A3012 RMK T00900070 MADISHF
LAF,2021-10-19 05:50,KLAF 190550Z AUTO 00000KT 10SM CLR 09/07 A3012 RMK T00900070 MADISHF
LAF,2021-10-19 05:54,KLAF 190554Z AUTO 00000KT 10SM CLR 09/07 A3013 RMK AO2 SLP201 T00890072 10133 20089 53002
LAF,2021-10-19 05:55,KLAF 190555Z AUTO 00000KT 10SM CLR 09/07 A3012 RMK T00900070 MADISHF
LAF,2021-10-19 06:00,KLAF 190600Z AUTO 00000KT 10SM CLR 09/07 A3012 RMK T00900070 MADISHF
LAF,2021-10-19 06:05,KLAF 190605Z AUTO 00000KT 10SM CLR 09/07 A3012 RMK T00900070 MADISHF
LAF,2021-10-19 06:10,KLAF 190610Z AUTO 00000KT 10SM CLR 09/07 A3012 RMK T00900070 MADISHF
LAF,2021-10-19 06:15,KLAF 190615Z AUTO 00000KT 10SM CLR 08/07 A3012 RMK T00800070 MADISHF
LAF,2021-10-19 06:20,KLAF 190620Z AUTO 00000KT 10SM CLR 09/07 A3013 RMK T00900070 MADISHF
LAF,2021-10-19 06:25,KLAF 190625Z AUTO 00000KT 10SM CLR 09/07 A3013 RMK T00900070 MADISHF
LAF,2021-10-19 06:30,KLAF 190630Z AUTO 00000KT 10SM CLR 08/07 A3013 RMK T00800070 MADISHF
LAF,2021-10-19 06:35,KLAF 190635Z AUTO 00000KT 10SM CLR 08/07 A3013 RMK T00800070 MADISHF
LAF,2021-10-19 06:40,KLAF 190640Z AUTO 00000KT 10SM CLR 08/07 A3013 RMK T00800070 MADISHF
LAF,2021-10-19 06:45,KLAF 190645Z AUTO 00000KT 10SM CLR 09/07 A3013 RMK T00900070 MADISHF
LAF,2021-10-19 06:50,KLAF 190650Z AUTO 00000KT 10SM CLR 09/07 A3013 RMK T00900070 MADISHF
LAF,2021-10-19 06:54,KLAF 190654Z AUTO 00000KT 10SM CLR 09/07 A3014 RMK AO2 SLP205 T00890072
LAF,2021-10-19 06:55,KLAF 190655Z AUTO 00000KT 10SM CLR 08/07 A3013 RMK T00800070 MADISHF
LAF,2021-10-19 07:00,KLAF 190700Z AUTO 00000KT 10SM CLR 08/07 A3013 RMK T00800070 MADISHF
LAF,2021-10-19 07:05,KLAF 190705Z AUTO 00000KT 10SM CLR 08/07 A3013 RMK T00800070 MADISHF
LAF,2021-10-19 07:10,KLAF 190710Z AUTO 00000KT 10SM CLR 09/07 A3013 RMK T00900070 MADISHF
LAF,2021-10-19 07:15,KLAF 190715Z AUTO 00000KT 10SM CLR 08/07 A3014 RMK T00800070 MADISHF
LAF,2021-10-19 07:20,KLAF 190720Z AUTO 00000KT 10SM CLR 08/07 A3014 RMK T00800070 MADISHF
LAF,2021-10-19 07:25,KLAF 190725Z AUTO 00000KT 10SM CLR 08/07 A3014 RMK T00800070 MADISHF
LAF,2021-10-19 07:30,KLAF 190730Z AUTO 00000KT 10SM CLR 08/07 A3014 RMK T00800070 MADISHF
LAF,2021-10-19 07:35,KLAF 190735Z AUTO 00000KT 10SM CLR 08/07 A3014 RMK T00800070 MADISHF
LAF,2021-10-19 07:40,KLAF 190740Z AUTO 00000KT 10SM CLR 08/07 A3014 RMK T00800070 MADISHF
LAF,2021-10-19 07:45,KLAF 190745Z AUTO 00000KT 10SM CLR 08/07 A3014 RMK T00800070 MADISHF
LAF,2021-10-19 07:50,KLAF 190750Z AUTO 00000KT 10SM CLR 08/07 A3014 RMK T00800070 MADISHF
LAF,2021-10-19 07:54,KLAF 190754Z AUTO 00000KT 10SM CLR 08/07 A3015 RMK AO2 SLP208 T00780072
LAF,2021-10-19 07:55,KLAF 190755Z AUTO 00000KT 10SM CLR 08/07 A3014 RMK T00800070 MADISHF
LAF,2021-10-19 08:00,KLAF 190800Z AUTO 00000KT 10SM CLR 08/07 A3014 RMK T00800070 MADISHF
LAF,2021-10-19 08:05,KLAF 190805Z AUTO 00000KT 10SM CLR 08/07 A3014 RMK T00800070 MADISHF
LAF,2021-10-19 08:10,KLAF 190810Z AUTO 00000KT 10SM CLR 08/07 A3014 RMK T00800070 MADISHF
LAF,2021-10-19 08:15,KLAF 190815Z AUTO 00000KT 10SM CLR 08/07 A3014 RMK T00800070 MADISHF
LAF,2021-10-19 08:20,KLAF 190820Z AUTO 00000KT 10SM CLR 08/07 A3014 RMK T00800070 MADISHF
LAF,2021-10-19 08:25,KLAF 190825Z AUTO 00000KT 10SM CLR 08/07 A3014 RMK T00800070 MADISHF
LAF,2021-10-19 08:30,KLAF 190830Z AUTO 00000KT 10SM CLR 08/07 A3014 RMK T00800070 MADISHF
LAF,2021-10-19 08:35,KLAF 190835Z AUTO 00000KT 10SM CLR 08/07 A3014 RMK T00800070 MADISHF
LAF,2021-10-19 08:40,KLAF 190840Z AUTO 00000KT 10SM CLR 08/07 A3014 RMK T00800070 MADISHF
LAF,2021-10-19 08:45,KLAF 190845Z AUTO 00000KT 10SM CLR 08/07 A3014 RMK T00800070 MADISHF
LAF,2021-10-19 08:50,KLAF 190850Z AUTO 00000KT 10SM CLR 08/07 A3014 RMK T00800070 MADISHF
LAF,2021-10-19 08:54,KLAF 190854Z AUTO 00000KT 10SM CLR 07/07 A3015 RMK AO2 SLP210 T00720067 51007
LAF,2021-10-19 08:55,KLAF 190855Z AUTO 00000KT 10SM CLR 07/07 A3014 RMK T00700070 MADISHF
LAF,2021-10-19 09:00,KLAF 190900Z AUTO 00000KT 10SM CLR 07/07 A3014 RMK T00700070 MADISHF
LAF,2021-10-19 09:05,KLAF 190905Z AUTO 00000KT 10SM CLR 07/07 A3014 RMK T00700070 MADISHF
LAF,2021-10-19 09:10,KLAF 190910Z AUTO 00000KT 10SM CLR 07/07 A3015 RMK T00700070 MADISHF
LAF,2021-10-19 09:15,KLAF 190915Z AUTO 00000KT 10SM CLR 08/07 A3015 RMK T00800070 MADISHF
LAF,2021-10-19 09:20,KLAF 190920Z AUTO 00000KT 10SM CLR 08/07 A3015 RMK T00800070 MADISHF
LAF,2021-10-19 09:25,KLAF 190925Z AUTO 00000KT 10SM CLR 08/07 A3015 RMK T00800070 MADISHF
LAF,2021-10-19 09:30,KLAF 190930Z AUTO 00000KT 10SM CLR 07/07 A3015 RMK T00700070 MADISHF
LAF,2021-10-19 09:35,KLAF 190935Z AUTO 00000KT 10SM CLR 07/07 A3015 RMK T00700070 MADISHF
LAF,2021-10-19 09:40,KLAF 190940Z AUTO 00000KT 10SM CLR 07/07 A3015 RMK T00700070 MADISHF
LAF,2021-10-19 09:45,KLAF 190945Z AUTO 00000KT 10SM CLR 08/07 A3017 RMK T00800070 MADISHF
LAF,2021-10-19 09:50,KLAF 190950Z AUTO 00000KT 10SM CLR 07/07 A3017 RMK T00700070 MADISHF
LAF,2021-10-19 09:54,KLAF 190954Z AUTO 00000KT 10SM CLR 07/07 A3017 RMK AO2 SLP214 T00720067
LAF,2021-10-19 09:55,KLAF 190955Z AUTO 00000KT 10SM CLR 07/07 A3017 RMK T00700070 MADISHF
LAF,2021-10-19 10:00,KLAF 191000Z AUTO 00000KT 10SM CLR 07/07 A3017 RMK T00700070 MADISHF
LAF,2021-10-19 10:05,KLAF 191005Z AUTO 00000KT 10SM CLR 07/07 A3017 RMK T00700070 MADISHF
LAF,2021-10-19 10:10,KLAF 191010Z AUTO 00000KT 10SM CLR 07/07 A3017 RMK T00700070 MADISHF
LAF,2021-10-19 10:15,KLAF 191015Z AUTO 00000KT 10SM CLR 07/07 A3017 RMK T00700070 MADISHF
LAF,2021-10-19 10:20,KLAF 191020Z AUTO 00000KT 10SM CLR 07/07 A3017 RMK T00700070 MADISHF
LAF,2021-10-19 10:25,KLAF 191025Z AUTO 00000KT 10SM CLR 07/07 A3017 RMK T00700070 MADISHF
LAF,2021-10-19 10:30,KLAF 191030Z AUTO 00000KT 10SM CLR 07/07 A3017 RMK T00700070 MADISHF
LAF,2021-10-19 10:35,KLAF 191035Z AUTO 00000KT 10SM CLR 07/07 A3018 RMK T00700070 MADISHF
LAF,2021-10-19 10:40,KLAF 191040Z AUTO 00000KT 10SM CLR 07/07 A3017 RMK T00700070 MADISHF
LAF,2021-10-19 10:45,KLAF 191045Z AUTO 00000KT 10SM CLR 07/06 A3018 RMK T00700060 MADISHF
LAF,2021-10-19 10:50,KLAF 191050Z AUTO 00000KT 10SM CLR 07/07 A3017 RMK T00700070 MADISHF
LAF,2021-10-19 10:54,KLAF 191054Z 00000KT 10SM CLR 07/06 A3017 RMK AO2 SLP218 T00670061
LAF,2021-10-19 10:55,KLAF 191055Z AUTO 00000KT 10SM CLR 07/06 A3017 RMK T00700060 MADISHF
LAF,2021-10-19 11:00,KLAF 191100Z AUTO 00000KT 10SM CLR 07/06 A3017 RMK T00700060 MADISHF
LAF,2021-10-19 11:05,KLAF 191105Z AUTO 00000KT 10SM CLR 07/06 A3017 RMK T00700060 MADISHF
LAF,2021-10-19 11:10,KLAF 191110Z AUTO 00000KT 10SM CLR 07/06 A3017 RMK T00700060 MADISHF
LAF,2021-10-19 11:15,KLAF 191115Z AUTO 00000KT 10SM CLR 07/07 A3017 RMK T00700070 MADISHF
LAF,2021-10-19 11:20,KLAF 191120Z AUTO 00000KT 10SM CLR 07/07 A3017 RMK T00700070 MADISHF
LAF,2021-10-19 11:25,KLAF 191125Z AUTO 00000KT 10SM CLR 07/07 A3017 RMK T00700070 MADISHF
LAF,2021-10-19 11:30,KLAF 191130Z AUTO 00000KT 10SM CLR 07/07 A3017 RMK T00700070 MADISHF
LAF,2021-10-19 11:35,KLAF 191135Z AUTO 00000KT 10SM CLR 07/07 A3017 RMK T00700070 MADISHF
LAF,2021-10-19 11:40,KLAF 191140Z AUTO 00000KT 10SM CLR 07/07 A3017 RMK T00700070 MADISHF
LAF,2021-10-19 11:45,KLAF 191145Z AUTO 00000KT 10SM CLR 07/06 A3018 RMK T00700060 MADISHF
LAF,2021-10-19 11:50,KLAF 191150Z AUTO 00000KT 10SM CLR 07/06 A3017 RMK T00700060 MADISHF
LAF,2021-10-19 11:54,KLAF 191154Z 00000KT 10SM CLR 07/06 A3017 RMK AO2 SLP219 T00670061 10094 20067 51007
LAF,2021-10-19 11:55,KLAF 191155Z AUTO 00000KT 10SM CLR 07/06 A3017 RMK T00700060 MADISHF
LAF,2021-10-19 12:00,KLAF 191200Z AUTO 00000KT 10SM CLR 07/06 A3018 RMK T00700060 MADISHF
LAF,2021-10-19 12:05,KLAF 191205Z AUTO 00000KT 10SM CLR 07/06 A3017 RMK T00700060 MADISHF
LAF,2021-10-19 12:10,KLAF 191210Z AUTO 00000KT 10SM CLR 06/06 A3017 RMK T00600060 MADISHF
LAF,2021-10-19 12:15,KLAF 191215Z AUTO 00000KT 10SM CLR 07/06 A3017 RMK T00700060 MADISHF
LAF,2021-10-19 12:20,KLAF 191220Z AUTO 00000KT 10SM CLR 07/06 A3017 RMK T00700060 MADISHF
LAF,2021-10-19 12:25,KLAF 191225Z AUTO 00000KT 10SM CLR 07/06 A3017 RMK T00700060 MADISHF
LAF,2021-10-19 12:30,KLAF 191230Z AUTO 00000KT 10SM CLR 07/07 A3017 RMK T00700070 MADISHF
LAF,2021-10-19 12:35,KLAF 191235Z AUTO 00000KT 10SM CLR 06/06 A3017 RMK T00600060 MADISHF
LAF,2021-10-19 12:40,KLAF 191240Z AUTO 00000KT 10SM CLR 07/07 A3017 RMK T00700070 MADISHF
LAF,2021-10-19 12:45,KLAF 191245Z AUTO 00000KT 10SM CLR 07/07 A3017 RMK T00700070 MADISHF
LAF,2021-10-19 12:50,KLAF 191250Z AUTO 00000KT 10SM CLR 08/07 A3017 RMK T00800070 MADISHF
LAF,2021-10-19 12:54,KLAF 191254Z 00000KT 10SM CLR 08/08 A3018 RMK AO2 SLP219 T00830078
LAF,2021-10-19 12:55,KLAF 191255Z AUTO 00000KT 10SM CLR 08/08 A3018 RMK T00800080 MADISHF
LAF,2021-10-19 13:00,KLAF 191300Z AUTO 00000KT 10SM CLR 08/08 A3018 RMK T00800080 MADISHF
LAF,2021-10-19 13:05,KLAF 191305Z AUTO 00000KT 10SM CLR 09/08 A3018 RMK T00900080 MADISHF
LAF,2021-10-19 13:10,KLAF 191310Z AUTO 00000KT 10SM CLR 10/08 A3018 RMK T01000080 MADISHF
LAF,2021-10-19 13:15,KLAF 191315Z AUTO 00000KT 10SM CLR 10/08 A3018 RMK T01000080 MADISHF
LAF,2021-10-19 13:20,KLAF 191320Z AUTO 00000KT 10SM CLR 10/08 A3018 RMK T01000080 MADISHF
LAF,2021-10-19 13:25,KLAF 191325Z AUTO 00000KT 10SM CLR 11/08 A3018 RMK T01100080 MADISHF
LAF,2021-10-19 13:30,KLAF 191330Z AUTO 00000KT 10SM CLR 11/08 A3019 RMK T01100080 MADISHF
LAF,2021-10-19 13:35,KLAF 191335Z AUTO 00000KT 10SM CLR 11/08 A3019 RMK T01100080 MADISHF
LAF,2021-10-19 13:40,KLAF 191340Z AUTO 00000KT 10SM CLR 11/08 A3019 RMK T01100080 MADISHF
LAF,2021-10-19 13:45,KLAF 191345Z AUTO 00000KT 10SM CLR 12/08 A3018 RMK T01200080 MADISHF
LAF,2021-10-19 13:50,KLAF 191350Z AUTO 00000KT 10SM CLR 12/08 A3019 RMK T01200080 MADISHF
LAF,2021-10-19 13:54,KLAF 191354Z 00000KT 10SM CLR 12/08 A3019 RMK AO2 SLP223 T01220083
LAF,2021-10-19 13:55,KLAF 191355Z AUTO 00000KT 10SM CLR 12/08 A3019 RMK T01200080 MADISHF
LAF,2021-10-19 14:00,KLAF 191400Z AUTO 00000KT 10SM CLR 12/08 A3019 RMK T01200080 MADISHF
LAF,2021-10-19 14:05,KLAF 191405Z AUTO 00000KT 10SM CLR 13/09 A3019 RMK T01300090 MADISHF
LAF,2021-10-19 14:10,KLAF 191410Z AUTO 00000KT 10SM CLR 13/09 A3019 RMK T01300090 MADISHF
LAF,2021-10-19 14:15,KLAF 191415Z AUTO 25002KT 10SM CLR 13/09 A3019 RMK T01300090 MADISHF
LAF,2021-10-19 14:20,KLAF 191420Z AUTO 00000KT 10SM CLR 13/09 A3020 RMK T01300090 MADISHF
LAF,2021-10-19 14:25,KLAF 191425Z AUTO 24002KT 10SM CLR 13/09 A3020 RMK T01300090 MADISHF
LAF,2021-10-19 14:30,KLAF 191430Z AUTO 24002KT 10SM CLR 14/09 A3019 RMK T01400090 MADISHF
LAF,2021-10-19 14:35,KLAF 191435Z AUTO 00000KT 10SM CLR 14/09 A3019 RMK T01400090 MADISHF
LAF,2021-10-19 14:40,KLAF 191440Z AUTO 00000KT 10SM CLR 14/09 A3019 RMK T01400090 MADISHF
LAF,2021-10-19 14:45,KLAF 191445Z AUTO 23002KT 10SM CLR 15/10 A3019 RMK T01500100 MADISHF
LAF,2021-10-19 14:50,KLAF 191450Z AUTO 00000KT 10SM CLR 16/09 A3019 RMK T01600090 MADISHF
LAF,2021-10-19 14:54,KLAF 191454Z 20003KT 10SM CLR 16/10 A3019 RMK AO2 SLP223 T01560100 51006
LAF,2021-10-19 14:55,KLAF 191455Z AUTO 21002KT 10SM CLR 16/10 A3019 RMK T01600100 MADISHF
LAF,2021-10-19 15:00,KLAF 191500Z AUTO 00000KT 10SM CLR 16/09 A3019 RMK T01600090 MADISHF
LAF,2021-10-19 15:05,KLAF 191505Z AUTO 24005KT 10SM CLR 16/09 A3019 RMK T01600090 MADISHF
LAF,2021-10-19 15:10,KLAF 191510Z AUTO 23005KT 10SM CLR 17/09 A3019 RMK T01700090 MADISHF
LAF,2021-10-19 15:15,KLAF 191515Z AUTO 23005KT 10SM CLR 17/09 A3019 RMK T01700090 VRB05KT  MADISHF
LAF,2021-10-19 15:20,KLAF 191520Z AUTO 23005KT 10SM CLR 17/09 A3019 RMK T01700090 MADISHF
LAF,2021-10-19 15:25,KLAF 191525Z AUTO 23005KT 10SM CLR 17/08 A3019 RMK T01700080 MADISHF
LAF,2021-10-19 15:30,KLAF 191530Z AUTO 23005KT 10SM CLR 18/09 A3019 RMK T01800090 MADISHF
LAF,2021-10-19 15:35,KLAF 191535Z AUTO 22005KT 10SM CLR 18/08 A3019 RMK T01800080 MADISHF
LAF,2021-10-19 15:40,KLAF 191540Z AUTO 24005KT 10SM CLR 18/08 A3018 RMK T01800080 MADISHF
LAF,2021-10-19 15:45,KLAF 191545Z AUTO 23005KT 10SM CLR 18/08 A3018 RMK T01800080 MADISHF
LAF,2021-10-19 15:50,KLAF 191550Z AUTO 22002KT 10SM CLR 18/08 A3018 RMK T01800080 MADISHF
LAF,2021-10-19 15:54,KLAF 191554Z 22006KT 10SM CLR 18/08 A3018 RMK AO2 SLP219 T01830078
LAF,2021-10-19 15:55,KLAF 191555Z AUTO 22005KT 10SM CLR 18/08 A3018 RMK T01800080 MADISHF
LAF,2021-10-19 16:00,KLAF 191600Z AUTO 24007KT 10SM CLR 18/08 A3018 RMK T01800080 MADISHF
LAF,2021-10-19 16:05,KLAF 191605Z AUTO 24005KT 10SM CLR 18/08 A3018 RMK T01800080 MADISHF
LAF,2021-10-19 16:10,KLAF 191610Z AUTO 24008KT 10SM CLR 19/08 A3018 RMK T01900080 MADISHF
LAF,2021-10-19 16:15,KLAF 191615Z AUTO 24005KT 10SM CLR 19/08 A3018 RMK T01900080 MADISHF
LAF,2021-10-19 16:20,KLAF 191620Z AUTO 23009KT 10SM CLR 19/07 A3018 RMK T01900070 MADISHF
LAF,2021-10-19 16:25,KLAF 191625Z AUTO 22007KT 10SM CLR 19/07 A3018 RMK T01900070 WND 20V27  MADISHF
LAF,2021-10-19 16:30,KLAF 191630Z AUTO 23010KT 10SM CLR 19/07 A3018 RMK T01900070 MADISHF
LAF,2021-10-19 16:35,KLAF 191635Z AUTO 24007KT 10SM CLR 19/07 A3017 RMK T01900070 MADISHF
LAF,2021-10-19 16:40,KLAF 191640Z AUTO 20007KT 10SM CLR 19/07 A3017 RMK T01900070 WND 18V24  MADISHF
LAF,2021-10-19 16:45,KLAF 191645Z AUTO 21008KT 10SM CLR 19/07 A3017 RMK T01900070 MADISHF
LAF,2021-10-19 16:50,KLAF 191650Z AUTO 22008KT 10SM CLR 19/07 A3017 RMK T01900070 MADISHF
LAF,2021-10-19 16:54,KLAF 191654Z 21007KT 10SM CLR 19/07 A3017 RMK AO2 SLP215 T01890067
LAF,2021-10-19 16:55,KLAF 191655Z AUTO 22008KT 10SM CLR 19/07 A3017 RMK T01900070 MADISHF
LAF,2021-10-19 17:00,KLAF 191700Z AUTO 23008KT 10SM CLR 18/06 A3015 RMK T01800060 MADISHF
LAF,2021-10-19 17:05,KLAF 191705Z AUTO 21008KT 10SM CLR 19/06 A3015 RMK T01900060 MADISHF
LAF,2021-10-19 17:10,KLAF 191710Z AUTO 21008KT 10SM CLR 19/07 A3015 RMK T01900070 MADISHF
LAF,2021-10-19 17:15,KLAF 191715Z AUTO 20007KT 10SM CLR 19/07 A3015 RMK T01900070 MADISHF
LAF,2021-10-19 17:20,KLAF 191720Z AUTO 19005KT 8SM CLR 19/07 A3014 RMK T01900070 MADISHF
LAF,2021-10-19 17:25,KLAF 191725Z AUTO 20005KT 8SM CLR 19/07 A3014 RMK T01900070 VRB05KT  MADISHF
LAF,2021-10-19 17:30,KLAF 191730Z AUTO 20005KT 8SM CLR 19/06 A3014 RMK T01900060 VRB06KT  MADISHF
LAF,2021-10-19 17:35,KLAF 191735Z AUTO 23005KT 8SM CLR 19/07 A3014 RMK T01900070 MADISHF
LAF,2021-10-19 17:40,KLAF 191740Z AUTO 20005KT 7SM CLR 19/07 A3013 RMK T01900070 VRB05KT  MADISHF
LAF,2021-10-19 17:45,KLAF 191745Z AUTO 22005KT 7SM CLR 20/07 A3013 RMK T02000070 MADISHF
LAF,2021-10-19 17:50,KLAF 191750Z AUTO 22008KT 6SM HZ CLR 20/07 A3013 RMK T02000070 MADISHF
LAF,2021-10-19 17:54,KLAF 191754Z 23008KT 10SM CLR 20/07 A3014 RMK AO2 SLP206 T02000067 10200 20061 58016
LAF,2021-10-19 17:55,KLAF 191755Z AUTO 22008KT 5SM CLR 20/07 A3013 RMK T02000070 MADISHF
LAF,2021-10-19 18:00,KLAF 191800Z AUTO 22005KT 5SM CLR 20/07 A3013 RMK T02000070 MADISHF
LAF,2021-10-19 18:05,KLAF 191805Z AUTO 21005KT 5SM CLR 20/07 A3013 RMK T02000070 MADISHF
LAF,2021-10-19 18:10,KLAF 191810Z AUTO 20005KT 5SM CLR 21/07 A3013 RMK T02100070 VRB05KT  MADISHF
LAF,2021-10-19 18:15,KLAF 191815Z AUTO 20007KT 5SM CLR 20/07 A3013 RMK T02000070 WND 18V25  MADISHF
LAF,2021-10-19 18:20,KLAF 191820Z AUTO 21004KT 4SM CLR 20/07 A3013 RMK T02000070 MADISHF
LAF,2021-10-19 18:25,KLAF 191825Z AUTO 22005KT 4SM CLR 19/07 A3013 RMK T01900070 MADISHF
LAF,2021-10-19 18:30,KLAF 191830Z AUTO 21005KT 4SM CLR 20/07 A3012 RMK T02000070 MADISHF
LAF,2021-10-19 18:35,KLAF 191835Z AUTO 23007KT 4SM CLR 21/07 A3012 RMK T02100070 MADISHF
LAF,2021-10-19 18:40,KLAF 191840Z AUTO 21007KT 3SM CLR 21/07 A3012 RMK T02100070 MADISHF
LAF,2021-10-19 18:45,KLAF 191845Z AUTO 21009KT 4SM CLR 20/07 A3012 RMK T02000070 MADISHF
LAF,2021-10-19 18:50,KLAF 191850Z AUTO 21005KT 10SM CLR 20/07 A3012 RMK T02000070 VRB06G15KT  MADISHF
LAF,2021-10-19 18:54,KLAF 191854Z 24009G17KT 220V300 10SM CLR 19/07 A3013 RMK AO2 SLP203 T01940067
LAF,2021-10-19 18:55,KLAF 191855Z AUTO 24008KT 10SM CLR 19/07 A3012 RMK T01900070 WND 22V30  MADISHF
LAF,2021-10-19 19:00,KLAF 191900Z AUTO 24007KT 10SM CLR 19/07 A3012 RMK T01900070 MADISHF
LAF,2021-10-19 19:05,KLAF 191905Z AUTO 22007KT 10SM CLR 19/07 A3012 RMK T01900070 MADISHF
LAF,2021-10-19 19:10,KLAF 191910Z AUTO 22005KT 10SM CLR 19/07 A3012 RMK T01900070 MADISHF
LAF,2021-10-19 19:15,KLAF 191915Z AUTO 19007KT 10SM CLR 20/08 A3012 RMK T02000080 MADISHF
LAF,2021-10-19 19:20,KLAF 191920Z AUTO 19005KT 10SM CLR 20/08 A3012 RMK T02000080 VRB05KT  MADISHF
LAF,2021-10-19 19:25,KLAF 191925Z AUTO 20005KT 10SM CLR 20/07 A3012 RMK T02000070 VRB06KT  MADISHF
LAF,2021-10-19 19:30,KLAF 191930Z AUTO 20008KT 10SM CLR 19/07 A3012 RMK T01900070 MADISHF
LAF,2021-10-19 19:35,KLAF 191935Z AUTO 19005KT 10SM CLR 19/07 A3012 RMK T01900070 MADISHF
LAF,2021-10-19 19:40,KLAF 191940Z AUTO 20004KT 10SM CLR 19/07 A3012 RMK T01900070 MADISHF
LAF,2021-10-19 19:45,KLAF 191945Z AUTO 20004KT 10SM CLR 19/07 A3012 RMK T01900070 VRB04KT  MADISHF
LAF,2021-10-19 19:50,KLAF 191950Z AUTO 21004KT 10SM CLR 19/07 A3012 RMK T01900070 MADISHF
LAF,2021-10-19 19:54,KLAF 191954Z 21005KT 10SM CLR 19/07 A3012 RMK AO2 SLP199 T01890072
LAF,2021-10-19 19:55,KLAF 191955Z AUTO 20004KT 10SM CLR 19/07 A3012 RMK T01900070 MADISHF
LAF,2021-10-19 20:00,KLAF 192000Z AUTO 19005KT 10SM CLR 19/07 A3012 RMK T01900070 MADISHF
LAF,2021-10-19 20:05,KLAF 192005Z AUTO 20005KT 10SM CLR 19/07 A3012 RMK T01900070 MADISHF
LAF,2021-10-19 20:10,KLAF 192010Z AUTO 19004KT 10SM CLR 19/08 A3012 RMK T01900080 MADISHF
LAF,2021-10-19 20:15,KLAF 192015Z AUTO 19005KT 10SM CLR 20/08 A3012 RMK T02000080 MADISHF
LAF,2021-10-19 20:20,KLAF 192020Z AUTO 20004KT 10SM CLR 19/08 A3012 RMK T01900080 MADISHF
LAF,2021-10-19 20:25,KLAF 192025Z AUTO 21005KT 10SM CLR 19/08 A3012 RMK T01900080 VRB06KT  MADISHF
LAF,2021-10-19 20:30,KLAF 192030Z AUTO 20007KT 10SM CLR 19/07 A3012 RMK T01900070 MADISHF
LAF,2021-10-19 20:35,KLAF 192035Z AUTO 20005KT 10SM CLR 19/07 A3012 RMK T01900070 MADISHF
LAF,2021-10-19 20:40,KLAF 192040Z AUTO 20007KT 10SM CLR 19/07 A3011 RMK T01900070 MADISHF
LAF,2021-10-19 20:45,KLAF 192045Z AUTO 19008KT 10SM CLR 19/07 A3011 RMK T01900070 MADISHF
LAF,2021-10-19 20:50,KLAF 192050Z AUTO 19008KT 10SM CLR 19/07 A3011 RMK T01900070 MADISHF
LAF,2021-10-19 20:54,KLAF 192054Z 20006KT 10SM CLR 19/07 A3011 RMK AO2 SLP197 T01890072 56009
LAF,2021-10-19 20:55,KLAF 192055Z AUTO 20005KT 10SM CLR 19/07 A3011 RMK T01900070 MADISHF
LAF,2021-10-19 21:00,KLAF 192100Z AUTO 19005KT 10SM CLR 19/07 A3011 RMK T01900070 MADISHF
LAF,2021-10-19 21:05,KLAF 192105Z AUTO 19004KT 10SM CLR 18/07 A3011 RMK T01800070 MADISHF
LAF,2021-10-19 21:10,KLAF 192110Z AUTO 20002KT 10SM CLR 19/07 A3011 RMK T01900070 MADISHF
LAF,2021-10-19 21:15,KLAF 192115Z AUTO 22002KT 10SM CLR 19/07 A3011 RMK T01900070 MADISHF
LAF,2021-10-19 21:20,KLAF 192120Z AUTO 00000KT 10SM CLR 19/08 A3011 RMK T01900080 MADISHF
LAF,2021-10-19 21:25,KLAF 192125Z AUTO 21002KT 10SM CLR 19/08 A3011 RMK T01900080 MADISHF
LAF,2021-10-19 21:30,KLAF 192130Z AUTO 20004KT 10SM CLR 19/08 A3011 RMK T01900080 MADISHF
LAF,2021-10-19 21:35,KLAF 192135Z AUTO 19002KT 10SM CLR 19/08 A3011 RMK T01900080 MADISHF
LAF,2021-10-19 21:40,KLAF 192140Z AUTO 21002KT 10SM CLR 19/08 A3011 RMK T01900080 MADISHF
LAF,2021-10-19 21:45,KLAF 192145Z AUTO 20004KT 10SM CLR 19/08 A3011 RMK T01900080 MADISHF
LAF,2021-10-19 21:50,KLAF 192150Z AUTO 19002KT 10SM CLR 19/08 A3011 RMK T01900080 MADISHF
LAF,2021-10-19 21:54,KLAF 192154Z 00000KT 10SM CLR 18/08 A3010 RMK AO2 SLP195 T01830078
LAF,2021-10-19 21:55,KLAF 192155Z AUTO 00000KT 10SM CLR 18/08 A3010 RMK T01800080 MADISHF
LAF,2021-10-19 22:00,KLAF 192200Z AUTO 20004KT 10SM CLR 18/08 A3010 RMK T01800080 MADISHF
LAF,2021-10-19 22:05,KLAF 192205Z AUTO 19005KT 10SM CLR 19/08 A3010 RMK T01900080 MADISHF
LAF,2021-10-19 22:10,KLAF 192210Z AUTO 21004KT 10SM CLR 19/08 A3010 RMK T01900080 MADISHF
LAF,2021-10-19 22:15,KLAF 192215Z AUTO 20005KT 10SM CLR 18/08 A3010 RMK T01800080 VRB05KT  MADISHF
LAF,2021-10-19 22:20,KLAF 192220Z AUTO 19004KT 10SM CLR 18/08 A3011 RMK T01800080 MADISHF
LAF,2021-10-19 22:25,KLAF 192225Z AUTO 21002KT 10SM CLR 18/08 A3011 RMK T01800080 MADISHF
LAF,2021-10-19 22:30,KLAF 192230Z AUTO 20004KT 10SM CLR 18/08 A3011 RMK T01800080 MADISHF
LAF,2021-10-19 22:35,KLAF 192235Z AUTO 20002KT 10SM CLR 18/08 A3011 RMK T01800080 MADISHF
LAF,2021-10-19 22:40,KLAF 192240Z AUTO 21002KT 10SM CLR 18/08 A3011 RMK T01800080 MADISHF
LAF,2021-10-19 22:45,KLAF 192245Z AUTO 21002KT 10SM CLR 18/08 A3011 RMK T01800080 MADISHF
LAF,2021-10-19 22:50,KLAF 192250Z AUTO 21002KT 10SM CLR 17/08 A3011 RMK T01700080 MADISHF
LAF,2021-10-19 22:54,KLAF 192254Z 19003KT 10SM CLR 17/08 A3011 RMK AO2 SLP196 T01720078
LAF,2021-10-19 22:55,KLAF 192255Z AUTO 18002KT 10SM CLR 17/08 A3011 RMK T01700080 MADISHF
LAF,2021-10-19 23:00,KLAF 192300Z AUTO 18004KT 10SM CLR 17/08 A3011 RMK T01700080 MADISHF
LAF,2021-10-19 23:05,KLAF 192305Z AUTO 18005KT 10SM CLR 17/08 A3010 RMK T01700080 MADISHF
LAF,2021-10-19 23:10,KLAF 192310Z AUTO 19005KT 10SM CLR 17/08 A3010 RMK T01700080 MADISHF
LAF,2021-10-19 23:15,KLAF 192315Z AUTO 19005KT 10SM CLR 17/08 A3011 RMK T01700080 MADISHF
LAF,2021-10-19 23:20,KLAF 192320Z AUTO 20004KT 10SM CLR 16/08 A3011 RMK T01600080 MADISHF
LAF,2021-10-19 23:25,KLAF 192325Z AUTO 21002KT 10SM CLR 16/07 A3011 RMK T01600070 MADISHF
LAF,2021-10-19 23:30,KLAF 192330Z AUTO 20002KT 10SM CLR 16/07 A3011 RMK T01600070 MADISHF
LAF,2021-10-19 23:35,KLAF 192335Z AUTO 20002KT 10SM CLR 16/07 A3011 RMK T01600070 MADISHF
LAF,2021-10-19 23:40,KLAF 192340Z AUTO 20002KT 10SM CLR 16/08 A3012 RMK T01600080 MADISHF
LAF,2021-10-19 23:45,KLAF 192345Z AUTO 20002KT 10SM CLR 16/08 A3012 RMK T01600080 MADISHF
LAF,2021-10-19 23:50,KLAF 192350Z AUTO 19002KT 10SM CLR 16/08 A3012 RMK T01600080 MADISHF
LAF,2021-10-19 23:54,KLAF 192354Z 20003KT 10SM CLR 16/08 A3012 RMK AO2 SLP200 T01560078 10206 20156 53002
LAF,2021-10-19 23:55,KLAF 192355Z AUTO 20002KT 10SM CLR 16/08 A3012 RMK T01600080 MADISHF
LAF,2021-10-20 00:00,KLAF 200000Z AUTO 00000KT 10SM CLR 16/08 A3012 RMK T01600080 MADISHF
LAF,2021-10-20 00:05,KLAF 200005Z AUTO 19002KT 10SM CLR 15/08 A3012 RMK T01500080 MADISHF
LAF,2021-10-20 00:10,KLAF 200010Z AUTO 00000KT 10SM CLR 14/08 A3012 RMK T01400080 MADISHF
LAF,2021-10-20 00:15,KLAF 200015Z AUTO 00000KT 10SM CLR 13/09 A3012 RMK T01300090 MADISHF
LAF,2021-10-20 00:20,KLAF 200020Z AUTO 00000KT 10SM CLR 12/08 A3012 RMK T01200080 MADISHF
LAF,2021-10-20 00:25,KLAF 200025Z AUTO 00000KT 10SM CLR 12/08 A3012 RMK T01200080 MADISHF
LAF,2021-10-20 00:30,KLAF 200030Z AUTO 00000KT 10SM CLR 13/08 A3012 RMK T01300080 MADISHF
LAF,2021-10-20 00:35,KLAF 200035Z AUTO 00000KT 10SM CLR 13/08 A3012 RMK T01300080 MADISHF
LAF,2021-10-20 00:40,KLAF 200040Z AUTO 00000KT 10SM CLR 12/08 A3012 RMK T01200080 MADISHF
LAF,2021-10-20 00:45,KLAF 200045Z AUTO 00000KT 10SM CLR 12/09 A3012 RMK T01200090 MADISHF
LAF,2021-10-20 00:50,KLAF 200050Z AUTO 00000KT 10SM CLR 12/09 A3012 RMK T01200090 MADISHF
LAF,2021-10-20 00:54,KLAF 200054Z AUTO 00000KT 10SM CLR 12/08 A3012 RMK AO2 SLP200 T01220083
LAF,2021-10-20 00:55,KLAF 200055Z AUTO 00000KT 10SM CLR 12/08 A3012 RMK T01200080 MADISHF
LAF,2021-10-20 01:00,KLAF 200100Z AUTO 00000KT 10SM CLR 12/08 A3012 RMK T01200080 MADISHF
LAF,2021-10-20 01:05,KLAF 200105Z AUTO 00000KT 10SM CLR 12/08 A3012 RMK T01200080 MADISHF
LAF,2021-10-20 01:10,KLAF 200110Z AUTO 00000KT 10SM CLR 11/08 A3012 RMK T01100080 MADISHF
LAF,2021-10-20 01:15,KLAF 200115Z AUTO 00000KT 10SM CLR 12/09 A3012 RMK T01200090 MADISHF
LAF,2021-10-20 01:20,KLAF 200120Z AUTO 00000KT 10SM CLR 12/08 A3012 RMK T01200080 MADISHF
LAF,2021-10-20 01:25,KLAF 200125Z AUTO 18002KT 10SM CLR 13/08 A3012 RMK T01300080 MADISHF
LAF,2021-10-20 01:30,KLAF 200130Z AUTO 00000KT 10SM CLR 12/08 A3012 RMK T01200080 MADISHF
LAF,2021-10-20 01:35,KLAF 200135Z AUTO 17002KT 10SM CLR 12/08 A3012 RMK T01200080 MADISHF
LAF,2021-10-20 01:40,KLAF 200140Z AUTO 17002KT 10SM CLR 12/08 A3012 RMK T01200080 MADISHF
LAF,2021-10-20 01:45,KLAF 200145Z AUTO 00000KT 10SM CLR 12/08 A3012 RMK T01200080 MADISHF
LAF,2021-10-20 01:50,KLAF 200150Z AUTO 00000KT 10SM CLR 12/08 A3012 RMK T01200080 MADISHF
LAF,2021-10-20 01:54,KLAF 200154Z AUTO 00000KT 10SM CLR 12/08 A3012 RMK AO2 SLP199 T01220078
LAF,2021-10-20 01:55,KLAF 200155Z AUTO 19002KT 10SM CLR 13/08 A3012 RMK T01300080 MADISHF
LAF,2021-10-20 02:00,KLAF 200200Z AUTO 17004KT 10SM CLR 13/08 A3012 RMK T01300080 MADISHF
LAF,2021-10-20 02:05,KLAF 200205Z AUTO 15002KT 10SM CLR 12/08 A3012 RMK T01200080 MADISHF
LAF,2021-10-20 02:10,KLAF 200210Z AUTO 00000KT 10SM CLR 12/08 A3012 RMK T01200080 MADISHF
LAF,2021-10-20 02:15,KLAF 200215Z AUTO 00000KT 10SM CLR 12/08 A3012 RMK T01200080 MADISHF
LAF,2021-10-20 02:20,KLAF 200220Z AUTO 00000KT 10SM CLR 12/08 A3012 RMK T01200080 MADISHF
LAF,2021-10-20 02:25,KLAF 200225Z AUTO 00000KT 10SM CLR 11/08 A3012 RMK T01100080 MADISHF
LAF,2021-10-20 02:30,KLAF 200230Z AUTO 00000KT 10SM CLR 11/08 A3012 RMK T01100080 MADISHF
LAF,2021-10-20 02:35,KLAF 200235Z AUTO 00000KT 10SM CLR 11/08 A3012 RMK T01100080 MADISHF
LAF,2021-10-20 02:40,KLAF 200240Z AUTO 00000KT 10SM CLR 11/08 A3012 RMK T01100080 MADISHF
LAF,2021-10-20 02:45,KLAF 200245Z AUTO 00000KT 10SM CLR 11/08 A3012 RMK T01100080 MADISHF
LAF,2021-10-20 02:50,KLAF 200250Z AUTO 00000KT 10SM CLR 11/08 A3012 RMK T01100080 MADISHF
LAF,2021-10-20 02:54,KLAF 200254Z AUTO 00000KT 10SM CLR 11/08 A3012 RMK AO2 SLP200 T01060078 53001
LAF,2021-10-20 02:55,KLAF 200255Z AUTO 00000KT 10SM CLR 11/08 A3012 RMK T01100080 MADISHF
LAF,2021-10-20 03:00,KLAF 200300Z AUTO 00000KT 10SM CLR 10/08 A3012 RMK T01000080 MADISHF
LAF,2021-10-20 03:05,KLAF 200305Z AUTO 00000KT 10SM CLR 10/08 A3012 RMK T01000080 MADISHF
LAF,2021-10-20 03:10,KLAF 200310Z AUTO 00000KT 10SM CLR 10/08 A3012 RMK T01000080 MADISHF
LAF,2021-10-20 03:15,KLAF 200315Z AUTO 00000KT 10SM CLR 11/08 A3012 RMK T01100080 MADISHF
LAF,2021-10-20 03:20,KLAF 200320Z AUTO 00000KT 10SM CLR 11/08 A3012 RMK T01100080 MADISHF
LAF,2021-10-20 03:25,KLAF 200325Z AUTO 00000KT 10SM CLR 11/08 A3012 RMK T01100080 MADISHF
LAF,2021-10-20 03:30,KLAF 200330Z AUTO 00000KT 10SM CLR 11/08 A3012 RMK T01100080 MADISHF
LAF,2021-10-20 03:35,KLAF 200335Z AUTO 00000KT 10SM CLR 10/08 A3012 RMK T01000080 MADISHF
LAF,2021-10-20 03:40,KLAF 200340Z AUTO 00000KT 10SM CLR 11/08 A3012 RMK T01100080 MADISHF
LAF,2021-10-20 03:45,KLAF 200345Z AUTO 00000KT 10SM CLR 11/08 A3012 RMK T01100080 MADISHF
LAF,2021-10-20 03:50,KLAF 200350Z AUTO 00000KT 10SM CLR 10/08 A3012 RMK T01000080 MADISHF
LAF,2021-10-20 03:54,KLAF 200354Z AUTO 00000KT 10SM CLR 10/08 A3013 RMK AO2 SLP200 T01000078
LAF,2021-10-20 03:55,KLAF 200355Z AUTO 00000KT 10SM CLR 10/08 A3012 RMK T01000080 MADISHF
LAF,2021-10-20 04:00,KLAF 200400Z AUTO 00000KT 10SM CLR 11/08 A3012 RMK T01100080 MADISHF
LAF,2021-10-20 04:05,KLAF 200405Z AUTO 00000KT 10SM CLR 11/08 A3012 RMK T01100080 MADISHF
LAF,2021-10-20 04:10,KLAF 200410Z AUTO 00000KT 10SM CLR 10/08 A3012 RMK T01000080 MADISHF
LAF,2021-10-20 04:15,KLAF 200415Z AUTO 00000KT 9SM CLR 10/08 A3012 RMK T01000080 MADISHF
LAF,2021-10-20 04:20,KLAF 200420Z AUTO 00000KT 10SM CLR 10/08 A3012 RMK T01000080 MADISHF
LAF,2021-10-20 04:25,KLAF 200425Z AUTO 18002KT 10SM CLR 10/08 A3012 RMK T01000080 MADISHF
LAF,2021-10-20 04:30,KLAF 200430Z AUTO 18004KT 10SM CLR 11/08 A3012 RMK T01100080 MADISHF
LAF,2021-10-20 04:35,KLAF 200435Z AUTO 18002KT 10SM CLR 11/08 A3012 RMK T01100080 MADISHF
LAF,2021-10-20 04:40,KLAF 200440Z AUTO 18002KT 10SM CLR 11/08 A3012 RMK T01100080 MADISHF
LAF,2021-10-20 04:45,KLAF 200445Z AUTO 00000KT 10SM CLR 11/08 A3012 RMK T01100080 MADISHF
LAF,2021-10-20 04:50,KLAF 200450Z AUTO 00000KT 10SM CLR 11/08 A3012 RMK T01100080 MADISHF
LAF,2021-10-20 04:54,KLAF 200454Z AUTO 00000KT 10SM CLR 11/08 A3012 RMK AO2 SLP199 T01060083 402060061
LAF,2021-10-20 04:55,KLAF 200455Z AUTO 00000KT 10SM CLR 11/08 A3012 RMK T01100080 MADISHF
LAF,2021-10-20 05:00,KLAF 200500Z AUTO 00000KT 10SM CLR 10/08 A3012 RMK T01000080 MADISHF
LAF,2021-10-20 05:05,KLAF 200505Z AUTO 00000KT 10SM CLR 10/08 A3012 RMK T01000080 MADISHF
LAF,2021-10-20 05:10,KLAF 200510Z AUTO 00000KT 10SM CLR 09/08 A3012 RMK T00900080 MADISHF
LAF,2021-10-20 05:15,KLAF 200515Z AUTO 00000KT 10SM CLR 09/08 A3012 RMK T00900080 MADISHF
LAF,2021-10-20 05:20,KLAF 200520Z AUTO 00000KT 10SM CLR 09/08 A3012 RMK T00900080 MADISHF
LAF,2021-10-20 05:25,KLAF 200525Z AUTO 00000KT 10SM CLR 09/08 A3012 RMK T00900080 MADISHF
LAF,2021-10-20 05:30,KLAF 200530Z AUTO 00000KT 10SM CLR 09/08 A3012 RMK T00900080 MADISHF
LAF,2021-10-20 05:35,KLAF 200535Z AUTO 00000KT 10SM CLR 09/08 A3012 RMK T00900080 MADISHF
LAF,2021-10-20 05:40,KLAF 200540Z AUTO 00000KT 10SM CLR 09/08 A3012 RMK T00900080 MADISHF
LAF,2021-10-20 05:45,KLAF 200545Z AUTO 00000KT 10SM CLR 09/08 A3012 RMK T00900080 MADISHF
LAF,2021-10-20 05:50,KLAF 200550Z AUTO 00000KT 10SM CLR 09/08 A3012 RMK T00900080 MADISHF
LAF,2021-10-20 05:54,KLAF 200554Z AUTO 00000KT 10SM CLR 08/08 A3012 RMK AO2 SLP198 T00830078 10156 20083 58001
LAF,2021-10-20 05:55,KLAF 200555Z AUTO 00000KT 10SM CLR 08/08 A3012 RMK T00800080 MADISHF
LAF,2021-10-20 06:00,KLAF 200600Z AUTO 00000KT 10SM CLR 09/08 A3012 RMK T00900080 MADISHF
LAF,2021-10-20 06:05,KLAF 200605Z AUTO 00000KT 10SM CLR 09/08 A3012 RMK T00900080 MADISHF
LAF,2021-10-20 06:10,KLAF 200610Z AUTO 00000KT 10SM CLR 09/08 A3012 RMK T00900080 MADISHF
LAF,2021-10-20 06:15,KLAF 200615Z AUTO 00000KT 10SM CLR 09/08 A3012 RMK T00900080 MADISHF
LAF,2021-10-20 06:20,KLAF 200620Z AUTO 00000KT 10SM CLR 09/08 A3012 RMK T00900080 MADISHF
LAF,2021-10-20 06:25,KLAF 200625Z AUTO 00000KT 10SM CLR 09/08 A3012 RMK T00900080 MADISHF
LAF,2021-10-20 06:30,KLAF 200630Z AUTO 00000KT 10SM CLR 09/08 A3012 RMK T00900080 MADISHF
LAF,2021-10-20 06:35,KLAF 200635Z AUTO 00000KT 10SM CLR 09/08 A3012 RMK T00900080 MADISHF
LAF,2021-10-20 06:40,KLAF 200640Z AUTO 00000KT 10SM CLR 09/08 A3012 RMK T00900080 MADISHF
LAF,2021-10-20 06:45,KLAF 200645Z AUTO 00000KT 10SM CLR 09/08 A3012 RMK T00900080 MADISHF
LAF,2021-10-20 06:50,KLAF 200650Z AUTO 00000KT 10SM CLR 09/08 A3012 RMK T00900080 MADISHF
LAF,2021-10-20 06:54,KLAF 200654Z AUTO 00000KT 10SM CLR 09/08 A3013 RMK AO2 SLP200 T00890083
LAF,2021-10-20 06:55,KLAF 200655Z AUTO 00000KT 10SM CLR 09/08 A3012 RMK T00900080 MADISHF
LAF,2021-10-20 07:00,KLAF 200700Z AUTO 00000KT 10SM CLR 09/08 A3012 RMK T00900080 MADISHF
LAF,2021-10-20 07:05,KLAF 200705Z AUTO 00000KT 10SM CLR 09/08 A3012 RMK T00900080 MADISHF
LAF,2021-10-20 07:10,KLAF 200710Z AUTO 00000KT 10SM CLR 09/08 A3012 RMK T00900080 MADISHF
LAF,2021-10-20 07:15,KLAF 200715Z AUTO 00000KT 10SM CLR 09/08 A3012 RMK T00900080 MADISHF
LAF,2021-10-20 07:20,KLAF 200720Z AUTO 00000KT 10SM CLR 09/08 A3012 RMK T00900080 MADISHF
LAF,2021-10-20 07:25,KLAF 200725Z AUTO 00000KT 10SM CLR 09/08 A3012 RMK T00900080 MADISHF
LAF,2021-10-20 07:30,KLAF 200730Z AUTO 00000KT 10SM CLR 09/08 A3012 RMK T00900080 MADISHF
LAF,2021-10-20 07:35,KLAF 200735Z AUTO 00000KT 10SM CLR 09/08 A3012 RMK T00900080 MADISHF
LAF,2021-10-20 07:40,KLAF 200740Z AUTO 00000KT 10SM CLR 09/08 A3012 RMK T00900080 MADISHF
LAF,2021-10-20 07:45,KLAF 200745Z AUTO 00000KT 10SM CLR 09/08 A3012 RMK T00900080 MADISHF
LAF,2021-10-20 07:50,KLAF 200750Z AUTO 00000KT 10SM CLR 09/08 A3012 RMK T00900080 MADISHF
LAF,2021-10-20 07:54,KLAF 200754Z AUTO 00000KT 10SM CLR 09/08 A3013 RMK AO2 SLP202 T00890078
LAF,2021-10-20 07:55,KLAF 200755Z AUTO 00000KT 10SM CLR 09/08 A3012 RMK T00900080 MADISHF
LAF,2021-10-20 08:00,KLAF 200800Z AUTO 00000KT 10SM CLR 09/08 A3012 RMK T00900080 MADISHF
LAF,2021-10-20 08:05,KLAF 200805Z AUTO 00000KT 10SM CLR 09/08 A3012 RMK T00900080 MADISHF
LAF,2021-10-20 08:10,KLAF 200810Z AUTO 00000KT 10SM CLR 09/08 A3012 RMK T00900080 MADISHF
LAF,2021-10-20 08:15,KLAF 200815Z AUTO 00000KT 10SM CLR 09/08 A3012 RMK T00900080 MADISHF
LAF,2021-10-20 08:20,KLAF 200820Z AUTO 00000KT 10SM CLR 09/08 A3012 RMK T00900080 MADISHF
LAF,2021-10-20 08:25,KLAF 200825Z AUTO 00000KT 10SM CLR 09/08 A3013 RMK T00900080 MADISHF
LAF,2021-10-20 08:30,KLAF 200830Z AUTO 00000KT 10SM CLR 08/08 A3013 RMK T00800080 MADISHF
LAF,2021-10-20 08:35,KLAF 200835Z AUTO 00000KT 10SM CLR 09/08 A3013 RMK T00900080 MADISHF
LAF,2021-10-20 08:40,KLAF 200840Z AUTO 00000KT 10SM CLR 09/08 A3012 RMK T00900080 MADISHF
LAF,2021-10-20 08:45,KLAF 200845Z AUTO 00000KT 10SM CLR 09/08 A3012 RMK T00900080 MADISHF
LAF,2021-10-20 08:50,KLAF 200850Z AUTO 00000KT 10SM CLR 09/08 A3012 RMK T00900080 MADISHF
LAF,2021-10-20 08:54,KLAF 200854Z AUTO 00000KT 10SM CLR 08/08 A3013 RMK AO2 SLP203 T00830078 51005
LAF,2021-10-20 08:55,KLAF 200855Z AUTO 00000KT 10SM CLR 08/08 A3012 RMK T00800080 MADISHF
LAF,2021-10-20 09:00,KLAF 200900Z AUTO 00000KT 10SM CLR 09/08 A3012 RMK T00900080 MADISHF
LAF,2021-10-20 09:05,KLAF 200905Z AUTO 00000KT 10SM CLR 08/08 A3012 RMK T00800080 MADISHF
LAF,2021-10-20 09:10,KLAF 200910Z AUTO 00000KT 10SM CLR 08/08 A3012 RMK T00800080 MADISHF
LAF,2021-10-20 09:15,KLAF 200915Z AUTO 00000KT 10SM CLR 09/08 A3012 RMK T00900080 MADISHF
LAF,2021-10-20 09:20,KLAF 200920Z AUTO 00000KT 10SM CLR 09/08 A3012 RMK T00900080 MADISHF
LAF,2021-10-20 09:25,KLAF 200925Z AUTO 00000KT 10SM CLR 09/08 A3012 RMK T00900080 MADISHF
LAF,2021-10-20 09:30,KLAF 200930Z AUTO 00000KT 10SM CLR 08/08 A3012 RMK T00800080 MADISHF
LAF,2021-10-20 09:35,KLAF 200935Z AUTO 00000KT 10SM CLR 08/07 A3012 RMK T00800070 MADISHF
LAF,2021-10-20 09:40,KLAF 200940Z AUTO 00000KT 10SM CLR 08/08 A3012 RMK T00800080 MADISHF
LAF,2021-10-20 09:45,KLAF 200945Z AUTO 00000KT 10SM CLR 08/08 A3012 RMK T00800080 MADISHF
LAF,2021-10-20 09:50,KLAF 200950Z AUTO 00000KT 10SM CLR 08/08 A3012 RMK T00800080 MADISHF
LAF,2021-10-20 09:54,KLAF 200954Z AUTO 00000KT 10SM CLR 08/08 A3013 RMK AO2 SLP203 T00830078
LAF,2021-10-20 09:55,KLAF 200955Z AUTO 00000KT 10SM CLR 08/08 A3012 RMK T00800080 MADISHF
LAF,2021-10-20 10:00,KLAF 201000Z AUTO 00000KT 10SM CLR 09/08 A3012 RMK T00900080 MADISHF
LAF,2021-10-20 10:05,KLAF 201005Z AUTO 00000KT 10SM CLR 09/08 A3013 RMK T00900080 MADISHF
LAF,2021-10-20 10:10,KLAF 201010Z AUTO 00000KT 10SM CLR 09/08 A3013 RMK T00900080 MADISHF
LAF,2021-10-20 10:15,KLAF 201015Z AUTO 00000KT 10SM CLR 09/08 A3013 RMK T00900080 MADISHF
LAF,2021-10-20 10:20,KLAF 201020Z AUTO 00000KT 10SM CLR 09/08 A3013 RMK T00900080 MADISHF
LAF,2021-10-20 10:25,KLAF 201025Z AUTO 00000KT 10SM CLR 09/08 A3013 RMK T00900080 MADISHF
LAF,2021-10-20 10:30,KLAF 201030Z AUTO 00000KT 10SM CLR 09/08 A3013 RMK T00900080 MADISHF
LAF,2021-10-20 10:35,KLAF 201035Z AUTO 00000KT 10SM CLR 09/08 A3013 RMK T00900080 MADISHF
LAF,2021-10-20 10:40,KLAF 201040Z AUTO 00000KT 10SM CLR 08/07 A3013 RMK T00800070 MADISHF
LAF,2021-10-20 10:45,KLAF 201045Z AUTO 00000KT 10SM CLR 08/07 A3013 RMK T00800070 MADISHF
LAF,2021-10-20 10:50,KLAF 201050Z AUTO 00000KT 10SM CLR 08/08 A3014 RMK T00800080 MADISHF
LAF,2021-10-20 10:54,KLAF 201054Z 00000KT 10SM CLR 08/07 A3015 RMK AO2 SLP209 T00830072
LAF,2021-10-20 10:55,KLAF 201055Z AUTO 00000KT 10SM CLR 08/07 A3014 RMK T00800070 MADISHF
LAF,2021-10-20 11:00,KLAF 201100Z AUTO 00000KT 10SM CLR 08/07 A3014 RMK T00800070 MADISHF
LAF,2021-10-20 11:05,KLAF 201105Z AUTO 00000KT 10SM CLR 09/08 A3014 RMK T00900080 MADISHF
LAF,2021-10-20 11:10,KLAF 201110Z AUTO 00000KT 10SM CLR 09/08 A3014 RMK T00900080 MADISHF
LAF,2021-10-20 11:15,KLAF 201115Z AUTO 00000KT 10SM CLR 09/08 A3014 RMK T00900080 MADISHF
LAF,2021-10-20 11:20,KLAF 201120Z AUTO 00000KT 10SM CLR 08/08 A3014 RMK T00800080 MADISHF
LAF,2021-10-20 11:25,KLAF 201125Z AUTO 00000KT 10SM CLR 08/08 A3014 RMK T00800080 MADISHF
LAF,2021-10-20 11:30,KLAF 201130Z AUTO 00000KT 10SM FEW110 09/08 A3014 RMK T00900080 MADISHF
LAF,2021-10-20 11:35,KLAF 201135Z AUTO 00000KT 10SM SCT110 08/08 A3014 RMK T00800080 MADISHF
LAF,2021-10-20 11:40,KLAF 201140Z AUTO 00000KT 10SM BKN110 08/08 A3014 RMK T00800080 MADISHF
LAF,2021-10-20 11:45,KLAF 201145Z AUTO 00000KT 10SM BKN110 08/08 A3013 RMK T00800080 MADISHF
LAF,2021-10-20 11:50,KLAF 201150Z AUTO 00000KT 10SM BKN110 08/08 A3013 RMK T00800080 MADISHF
LAF,2021-10-20 11:54,KLAF 201154Z 00000KT 10SM BKN110 08/08 A3014 RMK AO2 SLP207 T00830078 10094 20083 50002
LAF,2021-10-20 11:55,KLAF 201155Z AUTO 00000KT 10SM BKN110 08/08 A3013 RMK T00800080 MADISHF
LAF,2021-10-20 12:00,KLAF 201200Z AUTO 00000KT 10SM BKN110 08/08 A3013 RMK T00800080 MADISHF
LAF,2021-10-20 12:05,KLAF 201205Z AUTO 00000KT 10SM SCT110 08/08 A3013 RMK T00800080 MADISHF
LAF,2021-10-20 12:10,KLAF 201210Z AUTO 00000KT 10SM SCT110 08/08 A3013 RMK T00800080 MADISHF
LAF,2021-10-20 12:15,KLAF 201215Z AUTO 00000KT 10SM BKN110 09/08 A3013 RMK T00900080 MADISHF
LAF,2021-10-20 12:20,KLAF 201220Z AUTO 00000KT 10SM BKN110 09/08 A3013 RMK T00900080 MADISHF
LAF,2021-10-20 12:25,KLAF 201225Z AUTO 00000KT 10SM BKN110 09/08 A3013 RMK T00900080 MADISHF
LAF,2021-10-20 12:30,KLAF 201230Z AUTO 00000KT 10SM SCT110 10/08 A3013 RMK T01000080 MADISHF
LAF,2021-10-20 12:35,KLAF 201235Z AUTO 00000KT 10SM SCT110 10/08 A3013 RMK T01000080 MADISHF
LAF,2021-10-20 12:40,KLAF 201240Z AUTO 00000KT 10SM SCT110 10/08 A3012 RMK T01000080 MADISHF
LAF,2021-10-20 12:45,KLAF 201245Z AUTO 00000KT 10SM FEW110 10/09 A3012 RMK T01000090 MADISHF
LAF,2021-10-20 12:50,KLAF 201250Z AUTO 00000KT 10SM FEW110 10/09 A3012 RMK T01000090 MADISHF
LAF,2021-10-20 12:54,KLAF 201254Z 00000KT 10SM CLR 10/09 A3013 RMK AO2 SLP204 T01000089
LAF,2021-10-20 12:55,KLAF 201255Z AUTO 00000KT 10SM CLR 10/09 A3012 RMK T01000090 MADISHF
LAF,2021-10-20 13:00,KLAF 201300Z AUTO 00000KT 10SM CLR 11/09 A3012 RMK T01100090 MADISHF
LAF,2021-10-20 13:05,KLAF 201305Z AUTO 00000KT 10SM CLR 11/09 A3012 RMK T01100090 MADISHF
LAF,2021-10-20 13:10,KLAF 201310Z AUTO 00000KT 10SM CLR 11/09 A3012 RMK T01100090 MADISHF
LAF,2021-10-20 13:15,KLAF 201315Z AUTO 00000KT 10SM CLR 11/09 A3012 RMK T01100090 MADISHF
LAF,2021-10-20 13:20,KLAF 201320Z AUTO 00000KT 10SM CLR 12/09 A3012 RMK T01200090 MADISHF
LAF,2021-10-20 13:25,KLAF 201325Z AUTO 00000KT 10SM CLR 12/10 A3012 RMK T01200100 MADISHF
LAF,2021-10-20 13:30,KLAF 201330Z AUTO 00000KT 10SM CLR 13/10 A3012 RMK T01300100 MADISHF
LAF,2021-10-20 13:35,KLAF 201335Z AUTO 00000KT 10SM CLR 13/10 A3012 RMK T01300100 MADISHF
LAF,2021-10-20 13:40,KLAF 201340Z AUTO 00000KT 10SM CLR 13/10 A3013 RMK T01300100 MADISHF
LAF,2021-10-20 13:45,KLAF 201345Z AUTO 21004KT 10SM CLR 13/10 A3013 RMK T01300100 MADISHF
LAF,2021-10-20 13:50,KLAF 201350Z AUTO 21004KT 10SM CLR 14/11 A3013 RMK T01400110 MADISHF
LAF,2021-10-20 13:54,KLAF 201354Z 22004KT 10SM CLR 14/11 A3014 RMK AO2 SLP204 T01390106
LAF,2021-10-20 13:55,KLAF 201355Z AUTO 22004KT 10SM CLR 14/11 A3013 RMK T01400110 MADISHF
LAF,2021-10-20 14:00,KLAF 201400Z AUTO 21004KT 10SM CLR 14/11 A3013 RMK T01400110 MADISHF
LAF,2021-10-20 14:05,KLAF 201405Z AUTO 21004KT 10SM CLR 14/11 A3013 RMK T01400110 MADISHF
LAF,2021-10-20 14:10,KLAF 201410Z AUTO 22002KT 10SM CLR 15/11 A3013 RMK T01500110 VRB03KT  MADISHF
LAF,2021-10-20 14:15,KLAF 201415Z AUTO 22004KT 10SM CLR 15/11 A3013 RMK T01500110 MADISHF
LAF,2021-10-20 14:20,KLAF 201420Z AUTO 22002KT 10SM CLR 16/11 A3013 RMK T01600110 MADISHF
LAF,2021-10-20 14:25,KLAF 201425Z AUTO 21005KT 10SM CLR 16/12 A3013 RMK T01600120 MADISHF
LAF,2021-10-20 14:30,KLAF 201430Z AUTO 22005KT 10SM CLR 16/11 A3013 RMK T01600110 MADISHF
LAF,2021-10-20 14:35,KLAF 201435Z AUTO 22004KT 10SM CLR 16/11 A3013 RMK T01600110 MADISHF
LAF,2021-10-20 14:40,KLAF 201440Z AUTO 21005KT 10SM CLR 16/11 A3012 RMK T01600110 MADISHF
LAF,2021-10-20 14:45,KLAF 201445Z AUTO 21005KT 10SM CLR 17/11 A3012 RMK T01700110 MADISHF
LAF,2021-10-20 14:50,KLAF 201450Z AUTO 21004KT 10SM CLR 17/11 A3012 RMK T01700110 VRB04KT  MADISHF
LAF,2021-10-20 14:54,KLAF 201454Z 20006KT 10SM CLR 17/11 A3013 RMK AO2 SLP202 T01670111 56004
LAF,2021-10-20 14:55,KLAF 201455Z AUTO 21005KT 10SM CLR 17/11 A3012 RMK T01700110 MADISHF
LAF,2021-10-20 15:00,KLAF 201500Z AUTO 21004KT 10SM CLR 17/11 A3012 RMK T01700110 VRB04KT  MADISHF
LAF,2021-10-20 15:05,KLAF 201505Z AUTO 20005KT 10SM CLR 17/11 A3012 RMK T01700110 MADISHF
LAF,2021-10-20 15:10,KLAF 201510Z AUTO 23005KT 10SM CLR 18/11 A3012 RMK T01800110 MADISHF
LAF,2021-10-20 15:15,KLAF 201515Z AUTO 24008KT 10SM CLR 18/11 A3012 RMK T01800110 MADISHF
LAF,2021-10-20 15:20,KLAF 201520Z AUTO 23007KT 10SM CLR 18/11 A3012 RMK T01800110 WND 19V26  MADISHF
LAF,2021-10-20 15:25,KLAF 201525Z AUTO 21005KT 10SM CLR 18/11 A3012 RMK T01800110 VRB05KT  MADISHF
LAF,2021-10-20 15:30,KLAF 201530Z AUTO 22007KT 10SM CLR 18/11 A3012 RMK T01800110 MADISHF
LAF,2021-10-20 15:35,KLAF 201535Z AUTO 23007KT 10SM CLR 18/11 A3012 RMK T01800110 MADISHF
LAF,2021-10-20 15:40,KLAF 201540Z AUTO 22007KT 10SM CLR 18/11 A3012 RMK T01800110 MADISHF
LAF,2021-10-20 15:45,KLAF 201545Z AUTO 21007KT 10SM CLR 19/11 A3011 RMK T01900110 MADISHF
LAF,2021-10-20 15:50,KLAF 201550Z AUTO 20005KT 10SM CLR 19/11 A3011 RMK T01900110 MADISHF
LAF,2021-10-20 15:54,KLAF 201554Z 21010G17KT 10SM CLR 19/11 A3011 RMK AO2 SLP196 T01890111
LAF,2021-10-20 15:55,KLAF 201555Z AUTO 21007KT 10SM CLR 19/11 A3011 RMK T01900110 MADISHF
LAF,2021-10-20 16:00,KLAF 201600Z AUTO 22008KT 10SM CLR 19/11 A3011 RMK T01900110 MADISHF
LAF,2021-10-20 16:05,KLAF 201605Z AUTO 22007KT 10SM CLR 19/11 A3011 RMK T01900110 WND 18V26  MADISHF
LAF,2021-10-20 16:10,KLAF 201610Z AUTO 22010KT 10SM CLR 19/11 A3010 RMK T01900110 MADISHF
LAF,2021-10-20 16:15,KLAF 201615Z AUTO 21009G15KT 10SM CLR 19/11 A3010 RMK T01900110 WND 18V24  MADISHF
LAF,2021-10-20 16:20,KLAF 201620Z AUTO 22009G14KT 10SM CLR 19/11 A3011 RMK T01900110 MADISHF
LAF,2021-10-20 16:25,KLAF 201625Z AUTO 23009KT 10SM CLR 19/11 A3010 RMK T01900110 MADISHF
LAF,2021-10-20 16:30,KLAF 201630Z AUTO 20005KT 10SM CLR 20/11 A3010 RMK T02000110 MADISHF
LAF,2021-10-20 16:35,KLAF 201635Z AUTO 21007KT 10SM CLR 20/11 A3010 RMK T02000110 MADISHF
LAF,2021-10-20 16:40,KLAF 201640Z AUTO 22005KT 10SM CLR 21/11 A3010 RMK T02100110 VRB05KT  MADISHF
LAF,2021-10-20 16:45,KLAF 201645Z AUTO 20007KT 10SM CLR 21/11 A3010 RMK T02100110 MADISHF
LAF,2021-10-20 16:50,KLAF 201650Z AUTO 21005KT 10SM CLR 21/11 A3009 RMK T02100110 VRB06KT  MADISHF
LAF,2021-10-20 16:54,KLAF 201654Z 20007KT 10SM CLR 21/11 A3009 RMK AO2 SLP188 T02060111
LAF,2021-10-20 16:55,KLAF 201655Z AUTO 20005KT 10SM CLR 21/11 A3009 RMK T02100110 VRB06KT  MADISHF
LAF,2021-10-20 17:00,KLAF 201700Z AUTO 21007KT 10SM CLR 21/11 A3009 RMK T02100110 MADISHF
LAF,2021-10-20 17:05,KLAF 201705Z AUTO 22008KT 10SM CLR 21/11 A3009 RMK T02100110 MADISHF
LAF,2021-10-20 17:10,KLAF 201710Z AUTO 20008KT 10SM CLR 21/11 A3007 RMK T02100110 MADISHF
LAF,2021-10-20 17:15,KLAF 201715Z AUTO 20008KT 10SM CLR 21/11 A3009 RMK T02100110 MADISHF
LAF,2021-10-20 17:20,KLAF 201720Z AUTO 19010KT 10SM CLR 21/11 A3007 RMK T02100110 MADISHF
LAF,2021-10-20 17:25,KLAF 201725Z AUTO 21009G14KT 10SM CLR 21/11 A3007 RMK T02100110 MADISHF
LAF,2021-10-20 17:30,KLAF 201730Z AUTO 22008KT 10SM CLR 21/11 A3007 RMK T02100110 MADISHF
LAF,2021-10-20 17:35,KLAF 201735Z AUTO 21009G14KT 10SM CLR 21/11 A3007 RMK T02100110 MADISHF
LAF,2021-10-20 17:40,KLAF 201740Z AUTO 19009KT 10SM CLR 22/11 A3007 RMK T02200110 MADISHF
LAF,2021-10-20 17:45,KLAF 201745Z AUTO 20009KT 10SM CLR 21/10 A3006 RMK T02100100 MADISHF
LAF,2021-10-20 17:50,KLAF 201750Z AUTO 22008KT 10SM CLR 22/11 A3006 RMK T02200110 MADISHF
LAF,2021-10-20 17:54,KLAF 201754Z 22006G15KT 10SM CLR 22/11 A3008 RMK AO2 SLP183 T02170106 10217 20083 57017
LAF,2021-10-20 17:55,KLAF 201755Z AUTO 21005KT 10SM CLR 22/11 A3007 RMK T02200110 MADISHF
LAF,2021-10-20 18:00,KLAF 201800Z AUTO 20009G15KT 10SM CLR 22/11 A3006 RMK T02200110 MADISHF
LAF,2021-10-20 18:05,KLAF 201805Z AUTO 21008KT 10SM CLR 22/11 A3006 RMK T02200110 WND 18V24  MADISHF
LAF,2021-10-20 18:10,KLAF 201810Z AUTO 21007KT 10SM CLR 22/11 A3006 RMK T02200110 WND 18V25  MADISHF
LAF,2021-10-20 18:15,KLAF 201815Z AUTO 22008KT 10SM CLR 22/11 A3005 RMK T02200110 MADISHF
LAF,2021-10-20 18:20,KLAF 201820Z AUTO 20009KT 10SM CLR 22/11 A3005 RMK T02200110 MADISHF
LAF,2021-10-20 18:25,KLAF 201825Z AUTO 22009KT 10SM CLR 22/11 A3004 RMK T02200110 MADISHF
LAF,2021-10-20 18:30,KLAF 201830Z AUTO 22004KT 10SM CLR 22/11 A3004 RMK T02200110 MADISHF
LAF,2021-10-20 18:35,KLAF 201835Z AUTO 18009KT 10SM CLR 22/11 A3004 RMK T02200110 MADISHF
LAF,2021-10-20 18:40,KLAF 201840Z AUTO 21009G14KT 10SM CLR 22/11 A3004 RMK T02200110 MADISHF
LAF,2021-10-20 18:45,KLAF 201845Z AUTO 20005KT 10SM CLR 22/11 A3004 RMK T02200110 MADISHF
LAF,2021-10-20 18:50,KLAF 201850Z AUTO 21007KT 10SM CLR 22/11 A3003 RMK T02200110 WND 15V24  MADISHF
LAF,2021-10-20 18:54,KLAF 201854Z 19009KT 10SM CLR 22/11 A3003 RMK AO2 SLP168 T02220111
LAF,2021-10-20 18:55,KLAF 201855Z AUTO 19008KT 10SM CLR 22/11 A3003 RMK T02200110 MADISHF
LAF,2021-10-20 19:00,KLAF 201900Z AUTO 21005KT 10SM CLR 22/11 A3003 RMK T02200110 VRB05KT  MADISHF
LAF,2021-10-20 19:05,KLAF 201905Z AUTO 21007KT 10SM CLR 23/12 A3002 RMK T02300120 MADISHF
LAF,2021-10-20 19:10,KLAF 201910Z AUTO 17008KT 10SM CLR 23/11 A3002 RMK T02300110 MADISHF
LAF,2021-10-20 19:15,KLAF 201915Z AUTO 17010G15KT 10SM CLR 23/10 A3001 RMK T02300100 MADISHF
LAF,2021-10-20 19:20,KLAF 201920Z AUTO 18008KT 10SM CLR 22/11 A3001 RMK T02200110 MADISHF
LAF,2021-10-20 19:25,KLAF 201925Z AUTO 17010KT 10SM CLR 22/10 A3001 RMK T02200100 MADISHF
LAF,2021-10-20 19:30,KLAF 201930Z AUTO 19005KT 10SM CLR 23/10 A3000 RMK T02300100 MADISHF
LAF,2021-10-20 19:35,KLAF 201935Z AUTO 19008KT 10SM CLR 23/10 A3000 RMK T02300100 WND 14V21  MADISHF
LAF,2021-10-20 19:40,KLAF 201940Z AUTO 19008KT 10SM CLR 23/10 A3000 RMK T02300100 MADISHF
LAF,2021-10-20 19:45,KLAF 201945Z AUTO 19009G19KT 10SM CLR 23/10 A3000 RMK T02300100 MADISHF
LAF,2021-10-20 19:50,KLAF 201950Z AUTO 19009KT 10SM CLR 23/09 A3000 RMK T02300090 WND 17V23  MADISHF
LAF,2021-10-20 19:54,KLAF 201954Z 20005G20KT 10SM CLR 23/10 A3000 RMK AO2 SLP159 T02280100
LAF,2021-10-20 19:55,KLAF 201955Z AUTO 20005KT 10SM CLR 23/10 A3000 RMK T02300100 MADISHF
LAF,2021-10-20 20:00,KLAF 202000Z AUTO 20007KT 10SM CLR 23/10 A3001 RMK T02300100 MADISHF
LAF,2021-10-20 20:05,KLAF 202005Z AUTO 21007KT 10SM CLR 23/10 A3001 RMK T02300100 MADISHF
LAF,2021-10-20 20:10,KLAF 202010Z AUTO 20011G16KT 10SM CLR 23/10 A3001 RMK T02300100 MADISHF
LAF,2021-10-20 20:15,KLAF 202015Z AUTO 21013KT 10SM CLR 23/09 A3000 RMK T02300090 MADISHF
LAF,2021-10-20 20:20,KLAF 202020Z AUTO 20009KT 10SM CLR 23/09 A3000 RMK T02300090 MADISHF
LAF,2021-10-20 20:25,KLAF 202025Z AUTO 20009KT 10SM CLR 23/09 A3000 RMK T02300090 MADISHF
LAF,2021-10-20 20:30,KLAF 202030Z AUTO 18008KT 10SM CLR 23/09 A3000 RMK T02300090 MADISHF
LAF,2021-10-20 20:35,KLAF 202035Z AUTO 20010G17KT 10SM CLR 23/09 A3000 RMK T02300090 MADISHF
LAF,2021-10-20 20:40,KLAF 202040Z AUTO 19010KT 10SM CLR 23/09 A3000 RMK T02300090 MADISHF
LAF,2021-10-20 20:45,KLAF 202045Z AUTO 19009G17KT 10SM CLR 23/09 A3000 RMK T02300090 MADISHF
LAF,2021-10-20 20:50,KLAF 202050Z AUTO 20008KT 10SM CLR 23/09 A2998 RMK T02300090 MADISHF
LAF,2021-10-20 20:54,KLAF 202054Z 20008G18KT 170V230 10SM CLR 23/09 A2999 RMK AO2 SLP155 T02280094 56028
LAF,2021-10-20 20:55,KLAF 202055Z AUTO 20009KT 10SM CLR 23/09 A2998 RMK T02300090 WND 17V23  MADISHF
LAF,2021-10-20 21:00,KLAF 202100Z AUTO 19008KT 10SM CLR 23/09 A2998 RMK T02300090 MADISHF
LAF,2021-10-20 21:05,KLAF 202105Z AUTO 19009G15KT 10SM CLR 23/09 A2998 RMK T02300090 MADISHF
LAF,2021-10-20 21:10,KLAF 202110Z AUTO 20007KT 10SM CLR 23/10 A2998 RMK T02300100 MADISHF
LAF,2021-10-20 21:15,KLAF 202115Z AUTO 20009G16KT 10SM CLR 23/10 A2998 RMK T02300100 MADISHF
LAF,2021-10-20 21:20,KLAF 202120Z AUTO 19008KT 10SM CLR 23/10 A2998 RMK T02300100 MADISHF
LAF,2021-10-20 21:25,KLAF 202125Z AUTO 19010G16KT 10SM CLR 23/10 A2998 RMK T02300100 MADISHF
LAF,2021-10-20 21:30,KLAF 202130Z AUTO 19011G16KT 10SM CLR 22/10 A2997 RMK T02200100 MADISHF
LAF,2021-10-20 21:35,KLAF 202135Z AUTO 20010KT 10SM CLR 22/10 A2997 RMK T02200100 MADISHF
LAF,2021-10-20 21:40,KLAF 202140Z AUTO 20005KT 10SM CLR 22/11 A2997 RMK T02200110 MADISHF
LAF,2021-10-20 21:45,KLAF 202145Z AUTO 21007KT 10SM CLR 22/10 A2997 RMK T02200100 MADISHF
LAF,2021-10-20 21:50,KLAF 202150Z AUTO 20009G17KT 10SM CLR 22/11 A2997 RMK T02200110 MADISHF
LAF,2021-10-20 21:54,KLAF 202154Z 20009G17KT 160V250 10SM CLR 22/10 A2998 RMK AO2 SLP151 T02220100
LAF,2021-10-20 21:55,KLAF 202155Z AUTO 20009G16KT 10SM CLR 22/10 A2997 RMK T02200100 WND 16V25  MADISHF
LAF,2021-10-20 22:00,KLAF 202200Z AUTO 20008KT 10SM CLR 22/11 A2997 RMK T02200110 MADISHF
LAF,2021-10-20 22:05,KLAF 202205Z AUTO 20008KT 10SM CLR 22/10 A2997 RMK T02200100 MADISHF
LAF,2021-10-20 22:10,KLAF 202210Z AUTO 21008KT 10SM CLR 22/11 A2996 RMK T02200110 MADISHF
LAF,2021-10-20 22:15,KLAF 202215Z AUTO 20005KT 10SM CLR 21/11 A2996 RMK T02100110 MADISHF
LAF,2021-10-20 22:20,KLAF 202220Z AUTO 19005KT 10SM CLR 21/11 A2996 RMK T02100110 MADISHF
LAF,2021-10-20 22:25,KLAF 202225Z AUTO 20005KT 10SM CLR 21/11 A2996 RMK T02100110 MADISHF
LAF,2021-10-20 22:30,KLAF 202230Z AUTO 20007KT 10SM CLR 21/11 A2996 RMK T02100110 MADISHF
LAF,2021-10-20 22:35,KLAF 202235Z AUTO 19007KT 10SM CLR 21/11 A2996 RMK T02100110 MADISHF
LAF,2021-10-20 22:40,KLAF 202240Z AUTO 19005KT 10SM CLR 21/11 A2996 RMK T02100110 MADISHF
LAF,2021-10-20 22:45,KLAF 202245Z AUTO 19005KT 10SM CLR 20/11 A2996 RMK T02000110 MADISHF
LAF,2021-10-20 22:50,KLAF 202250Z AUTO 18005KT 10SM CLR 20/11 A2995 RMK T02000110 MADISHF
LAF,2021-10-20 22:54,KLAF 202254Z 17007KT 10SM CLR 20/11 A2996 RMK AO2 SLP143 T02000111
LAF,2021-10-20 22:55,KLAF 202255Z AUTO 17007KT 10SM CLR 20/11 A2995 RMK T02000110 MADISHF
LAF,2021-10-20 23:00,KLAF 202300Z AUTO 19007KT 10SM FEW100 20/11 A2995 RMK T02000110 MADISHF
LAF,2021-10-20 23:05,KLAF 202305Z AUTO 19007KT 10SM FEW090 SCT110 20/11 A2995 RMK T02000110 MADISHF
LAF,2021-10-20 23:10,KLAF 202310Z AUTO 19005KT 10SM FEW090 SCT110 20/11 A2995 RMK T02000110 MADISHF
LAF,2021-10-20 23:15,KLAF 202315Z AUTO 20005KT 10SM FEW090 FEW110 19/11 A2995 RMK T01900110 MADISHF
LAF,2021-10-20 23:20,KLAF 202320Z AUTO 20005KT 10SM FEW090 FEW110 19/11 A2996 RMK T01900110  LTG DSNT NW! MADISHF
LAF,2021-10-20 23:25,KLAF 202325Z AUTO 20004KT 10SM FEW090 FEW110 19/11 A2996 RMK T01900110  LTG DSNT NW! MADISHF
LAF,2021-10-20 23:30,KLAF 202330Z AUTO 20004KT 10SM CLR 19/11 A2996 RMK T01900110  LTG DSNT NW! MADISHF
LAF,2021-10-20 23:35,KLAF 202335Z AUTO 20005KT 10SM CLR 19/11 A2996 RMK T01900110 MADISHF
LAF,2021-10-20 23:40,KLAF 202340Z AUTO 21002KT 10SM CLR 19/11 A2996 RMK T01900110 MADISHF
LAF,2021-10-20 23:45,KLAF 202345Z AUTO 19002KT 10SM CLR 19/11 A2996 RMK T01900110  LTG DSNT NW! MADISHF
LAF,2021-10-20 23:50,KLAF 202350Z AUTO 19004KT 10SM CLR 19/12 A2996 RMK T01900120  LTG DSNT NW! MADISHF
LAF,2021-10-20 23:54,KLAF 202354Z 19006KT 10SM CLR 19/12 A2997 RMK AO2 LTG DSNT NW SLP147 T01890117 10233 20189 55008
LAF,2021-10-20 23:55,KLAF 202355Z AUTO 18005KT 10SM CLR 19/12 A2996 RMK T01900120  LTG DSNT NW! MADISHF
